source,category,region,business_name,phone,email,website,address,city,province,postal_code,listing_url,detail_url
411.ca - Plumbing,Plumbing,"ON, BC, AB, QC",,,,,,,,,https://411.ca/business/search?q=Plumbing&st=on,
411.ca - Plumbing,Plumbing,"ON, BC, AB, QC",,,,,,,,,https://411.ca/business/search?q=Plumbing&st=on,
411.ca - Plumbing,Plumbing,"ON, BC, AB, QC",,,,,,,,,https://411.ca/business/search?q=Plumbing&st=on,
Hotfrog - Plumbing,Plumbing,Canada,,,,,,,,,https://www.hotfrog.ca/search/ca/plumbing,
Hotfrog - Plumbing,Plumbing,Canada,,,,,,,,,https://www.hotfrog.ca/search/ca/plumbing,
Hotfrog - Plumbing,Plumbing,Canada,,,,,,,,,https://www.hotfrog.ca/search/ca/plumbing,
411.ca - Plumbing,Plumbing,"ON, BC, AB, QC",,,,,,,,,https://411.ca/business/search?q=Plumbing&st=bc,
411.ca - Plumbing,Plumbing,"ON, BC, AB, QC",,,,,,,,,https://411.ca/business/search?q=Plumbing&st=bc,
411.ca - Plumbing,Plumbing,"ON, BC, AB, QC",,,,,,,,,https://411.ca/business/search?q=Plumbing&st=ab,
411.ca - Plumbing,Plumbing,"ON, BC, AB, QC",,,,,,,,,https://411.ca/business/search?q=Plumbing&st=ab,
411.ca - Plumbing,Plumbing,"ON, BC, AB, QC",,,,,,,,,https://411.ca/business/search?q=Plumbing&st=qc,
411.ca - Plumbing,Plumbing,"ON, BC, AB, QC",,,,,,,,,https://411.ca/business/search?q=Plumbing&st=qc,
411.ca - Plumbing,Plumbing,"ON, BC, AB, QC",,,,,,,,,https://411.ca/business/search?q=Plumbing&st=qc,
411.ca - HVAC,HVAC,"ON, BC, AB, QC",,,,,,,,,https://411.ca/business/search?q=HVAC&st=on,
411.ca - HVAC,HVAC,"ON, BC, AB, QC",,,,,,,,,https://411.ca/business/search?q=HVAC&st=on,
411.ca - HVAC,HVAC,"ON, BC, AB, QC",,,,,,,,,https://411.ca/business/search?q=HVAC&st=bc,
411.ca - HVAC,HVAC,"ON, BC, AB, QC",,,,,,,,,https://411.ca/business/search?q=HVAC&st=bc,
411.ca - HVAC,HVAC,"ON, BC, AB, QC",,,,,,,,,https://411.ca/business/search?q=HVAC&st=ab,
411.ca - HVAC,HVAC,"ON, BC, AB, QC",,,,,,,,,https://411.ca/business/search?q=HVAC&st=ab,
411.ca - HVAC,HVAC,"ON, BC, AB, QC",,,,,,,,,https://411.ca/business/search?q=HVAC&st=ab,
411.ca - HVAC,HVAC,"ON, BC, AB, QC",,,,,,,,,https://411.ca/business/search?q=HVAC&st=qc,
411.ca - HVAC,HVAC,"ON, BC, AB, QC",,,,,,,,,https://411.ca/business/search?q=HVAC&st=qc,
411.ca - HVAC,HVAC,"ON, BC, AB, QC",,,,,,,,,https://411.ca/business/search?q=HVAC&st=qc,
411.ca - Plumbing,Plumbing,"ON, BC, AB, QC",Add your business,18667707760,contact@metrowestgas.ca,http://www.metrowestgas.ca/,,,,,https://411.ca/business/search?q=Plumbing&st=on,https://411.ca/add-your-business?sc=411-bserp-alert-en
411.ca - Plumbing,Plumbing,"ON, BC, AB, QC",411.ca,,,http://outdatedbrowser.com/en,,,,,https://411.ca/business/search?q=Plumbing&st=bc,https://411.ca/business/near-me/drainage-contractors?c=25
411.ca - HVAC,HVAC,"ON, BC, AB, QC",,16478302109,gejhamilton@bell.net,http://outdatedbrowser.com/en,,,,,https://411.ca/business/search?q=HVAC&st=on,https://411.ca/business/profile/12148471
411.ca - Plumbing,Plumbing,"ON, BC, AB, QC",411.ca,16476078122,service@maindrainplumbing.ca,http://outdatedbrowser.com/en,,,,,https://411.ca/business/search?q=Plumbing&st=on,https://411.ca/business/near-me/drainage-contractors?c=25
411.ca - Plumbing,Plumbing,"ON, BC, AB, QC, MB, SK, NS, NB, NL, PE, NT, NU, YT",411.ca,19057815560,,http://outdatedbrowser.com/en,,,,,https://411.ca/business/search?q=Plumbing&st=on,https://411.ca/business/near-me/bathtubs?c=25
411.ca - Plumbing,Plumbing,"ON, BC, AB, QC, MB, SK, NS, NB, NL, PE, NT, NU, YT",411.ca,19054072326,help@411.ca,http://outdatedbrowser.com/en,,,,,https://411.ca/business/search?q=Plumbing&st=on,https://411.ca/business/near-me/drain-snaking?c=25
411.ca - Plumbing,Plumbing,"ON, BC, AB, QC, MB, SK, NS, NB, NL, PE, NT, NU, YT",411.ca,14166698285,contact@metrowestgas.ca,http://outdatedbrowser.com/en,,,,,https://411.ca/business/search?q=Plumbing&st=on,https://411.ca/business/near-me/plumbers?c=25
411.ca - Plumbing,Plumbing,"ON, BC, AB, QC, MB, SK, NS, NB, NL, PE, NT, NU, YT",411.ca,19057041666,info@bathroomgalleries.com,http://outdatedbrowser.com/en,,,,,https://411.ca/business/search?q=Plumbing&st=on,https://411.ca/business/near-me/kitchen-refinishing?c=25
411.ca - Plumbing,Plumbing,"ON, BC, AB, QC, MB, SK, NS, NB, NL, PE, NT, NU, YT",411.ca,14165277970,nakramy@encore21.net,http://outdatedbrowser.com/en,,,,,https://411.ca/business/search?q=Plumbing&st=on,https://411.ca/business/near-me/heating-contractors?c=25
411.ca - Plumbing,Plumbing,"ON, BC, AB, QC, MB, SK, NS, NB, NL, PE, NT, NU, YT",Contact us,16472594483,help@411.ca,http://outdatedbrowser.com/en,"1500 Don Mills Rd, Suite 600 North York, ON M3B 3K4",,,,https://411.ca/business/search?q=Plumbing&st=on,https://411.ca/contact
411.ca - Plumbing,Plumbing,"ON, BC, AB, QC, MB, SK, NS, NB, NL, PE, NT, NU, YT",Careers,18664114411,careers@411.ca,http://outdatedbrowser.com/en,,,,,https://411.ca/business/search?q=Plumbing&st=on,https://411.ca/careers
411.ca - Plumbing,Plumbing,"ON, BC, AB, QC, MB, SK, NS, NB, NL, PE, NT, NU, YT",,14166619393,,http://outdatedbrowser.com/en,,,,,https://411.ca/business/search?q=Plumbing&st=on,https://411.ca/business/search?q=plumbing&p=2
411.ca - Plumbing,Plumbing,"ON, BC, AB, QC, MB, SK, NS, NB, NL, PE, NT, NU, YT",everstar plumbing,16472486482,,http://outdatedbrowser.com/en,,,,,https://411.ca/business/search?q=Plumbing&st=on,https://411.ca/business/profile/12212303
411.ca - Plumbing,Plumbing,"ON, BC, AB, QC, MB, SK, NS, NB, NL, PE, NT, NU, YT",A 24 Hour Emergency Plumbing,16473174335,,http://outdatedbrowser.com/en,,,,,https://411.ca/business/search?q=Plumbing&st=on,https://411.ca/business/profile/13104345
411.ca - Plumbing,Plumbing,"ON, BC, AB, QC, MB, SK, NS, NB, NL, PE, NT, NU, YT",Riverdale Plumbing,14164669504,,http://outdatedbrowser.com/en,,,,,https://411.ca/business/search?q=Plumbing&st=on,https://411.ca/business/profile/2710152
411.ca - Plumbing,Plumbing,"ON, BC, AB, QC, MB, SK, NS, NB, NL, PE, NT, NU, YT",Ideal Plumbing,14163717137,idealplumbinganddrain@gmail.com,http://www.idealplumbingdrain.com,,,,,https://411.ca/business/search?q=Plumbing&st=on,https://411.ca/business/profile/7681302
411.ca - Plumbing,Plumbing,"ON, BC, AB, QC, MB, SK, NS, NB, NL, PE, NT, NU, YT",Grease Trap Services,14164914394,avram_01@hotmail.com,http://outdatedbrowser.com/en,,,,,https://411.ca/business/search?q=Plumbing&st=on,https://411.ca/business/profile/2715113
411.ca - Plumbing,Plumbing,"ON, BC, AB, QC, MB, SK, NS, NB, NL, PE, NT, NU, YT",Lampert Plumbing Systems Inc,14167875285,,http://outdatedbrowser.com/en,,,,,https://411.ca/business/search?q=Plumbing&st=on,https://411.ca/business/profile/4555973
411.ca - Plumbing,Plumbing,"ON, BC, AB, QC, MB, SK, NS, NB, NL, PE, NT, NU, YT",Sunview Plumbing Ltd,16473450977,,http://outdatedbrowser.com/en,,,,,https://411.ca/business/search?q=Plumbing&st=on,https://411.ca/business/profile/13734871
411.ca - Plumbing,Plumbing,"ON, BC, AB, QC, MB, SK, NS, NB, NL, PE, NT, NU, YT",Strong Plumbing Company,14162584068,,http://outdatedbrowser.com/en,,,,,https://411.ca/business/search?q=Plumbing&st=on,https://411.ca/business/profile/7739806
411.ca - Plumbing,Plumbing,"ON, BC, AB, QC, MB, SK, NS, NB, NL, PE, NT, NU, YT",Mr Rooter Plumbing of North York ON,14167423137,contact@metrowestgas.ca,http://outdatedbrowser.com/en,,,,,https://411.ca/business/search?q=Plumbing&st=on,https://411.ca/business/profile/13867254
411.ca - HVAC,HVAC,"ON, BC, AB, QC, MB, SK, NS, NB, NL, PE, NT, NU, YT",411.ca,14164972970,,http://outdatedbrowser.com/en,,,,,https://411.ca/business/search?q=HVAC&st=on,https://411.ca/business/near-me/home-appliances?c=25
411.ca - HVAC,HVAC,"ON, BC, AB, QC, MB, SK, NS, NB, NL, PE, NT, NU, YT",411.ca,14164849494,,http://outdatedbrowser.com/en,,,,,https://411.ca/business/search?q=HVAC&st=on,https://411.ca/business/near-me/schools?c=25
411.ca - HVAC,HVAC,"ON, BC, AB, QC, MB, SK, NS, NB, NL, PE, NT, NU, YT",411.ca,14166611549,,http://outdatedbrowser.com/en,,,,,https://411.ca/business/search?q=HVAC&st=on,https://411.ca/business/near-me/mechanical-contractors?c=25
411.ca - HVAC,HVAC,"ON, BC, AB, QC, MB, SK, NS, NB, NL, PE, NT, NU, YT",411.ca,14166267746,,http://outdatedbrowser.com/en,,,,,https://411.ca/business/search?q=HVAC&st=on,https://411.ca/business/near-me/general-contractors?c=25
411.ca - HVAC,HVAC,"ON, BC, AB, QC, MB, SK, NS, NB, NL, PE, NT, NU, YT",411.ca,16478872703,info@airproheatcool.com,http://outdatedbrowser.com/en,,,,,https://411.ca/business/search?q=HVAC&st=on,https://411.ca/business/near-me/air-conditioning?c=25
411.ca - HVAC,HVAC,"ON, BC, AB, QC, MB, SK, NS, NB, NL, PE, NT, NU, YT",411.ca,14164451718,universalhc@yahoo.ca,http://outdatedbrowser.com/en,,,,,https://411.ca/business/search?q=HVAC&st=on,https://411.ca/business/near-me/cooling-contractors?c=25
411.ca - HVAC,HVAC,"ON, BC, AB, QC, MB, SK, NS, NB, NL, PE, NT, NU, YT",411.ca,19058443273,,http://outdatedbrowser.com/en,,,,,https://411.ca/business/search?q=HVAC&st=on,https://411.ca/business/near-me/car-repair?c=25
411.ca - HVAC,HVAC,"ON, BC, AB, QC, MB, SK, NS, NB, NL, PE, NT, NU, YT",411.ca,16478472998,contact@dhontario.com,http://outdatedbrowser.com/en,,,,,https://411.ca/business/search?q=HVAC&st=on,https://411.ca/business/near-me/furnace-repair?c=25
411.ca - HVAC,HVAC,"ON, BC, AB, QC, MB, SK, NS, NB, NL, PE, NT, NU, YT",411.ca,14162352727,,http://outdatedbrowser.com/en,,,,,https://411.ca/business/search?q=HVAC&st=on,https://411.ca/business/near-me/air-conditioning-sales-and-service?c=25
411.ca - HVAC,HVAC,"ON, BC, AB, QC, MB, SK, NS, NB, NL, PE, NT, NU, YT",,14168229678,,http://outdatedbrowser.com/en,,,,,https://411.ca/business/search?q=HVAC&st=on,https://411.ca/business/search?q=hvac&p=2
411.ca - HVAC,HVAC,"ON, BC, AB, QC, MB, SK, NS, NB, NL, PE, NT, NU, YT",Ainsworth Inc.,14167514420,,http://outdatedbrowser.com/en,,,,,https://411.ca/business/search?q=HVAC&st=on,https://411.ca/business/profile/7693136
411.ca - HVAC,HVAC,"ON, BC, AB, QC, MB, SK, NS, NB, NL, PE, NT, NU, YT",Heating & Cooling,14169389358,,http://outdatedbrowser.com/en,,,,,https://411.ca/business/search?q=HVAC&st=on,https://411.ca/business/profile/13488843
411.ca - HVAC,HVAC,"ON, BC, AB, QC, MB, SK, NS, NB, NL, PE, NT, NU, YT",Honk Contractors,14377706777,honkcontrators@yandex.com,http://honkcontractors.ca,,,,,https://411.ca/business/search?q=HVAC&st=on,https://411.ca/business/profile/10885196
411.ca - Electrician,Electrician,"ON, BC, AB, QC, MB, SK, NS, NB, NL, PE, NT, NU, YT",411.ca,14166619790,,http://outdatedbrowser.com/en,,,,,https://411.ca/business/search?q=Electrician&st=on,https://411.ca/business/near-me/fire-equipment?c=25
411.ca - Electrician,Electrician,"ON, BC, AB, QC, MB, SK, NS, NB, NL, PE, NT, NU, YT",411.ca,14167447644,,http://outdatedbrowser.com/en,,,,,https://411.ca/business/search?q=Electrician&st=on,https://411.ca/business/near-me/electrical-engineers?c=25
411.ca - Electrician,Electrician,"ON, BC, AB, QC, MB, SK, NS, NB, NL, PE, NT, NU, YT",411.ca,14166359494,info@TorontoElectricalExperts.ca,http://outdatedbrowser.com/en,,,,,https://411.ca/business/search?q=Electrician&st=on,https://411.ca/business/near-me/electricians?c=25
411.ca - Electrician,Electrician,"ON, BC, AB, QC, MB, SK, NS, NB, NL, PE, NT, NU, YT",411.ca,16473487317,dominic@on-pointconstruction.com,http://outdatedbrowser.com/en,,,,,https://411.ca/business/search?q=Electrician&st=on,https://411.ca/business/near-me/additions?c=25
411.ca - Electrician,Electrician,"ON, BC, AB, QC, MB, SK, NS, NB, NL, PE, NT, NU, YT",411.ca,14164365663,seasonalcontractinghomereno@gmail.com,http://outdatedbrowser.com/en,,,,,https://411.ca/business/search?q=Electrician&st=on,https://411.ca/business/near-me/interior-renovations?c=25
411.ca - Electrician,Electrician,"ON, BC, AB, QC, MB, SK, NS, NB, NL, PE, NT, NU, YT",,14163334686,,http://outdatedbrowser.com/en,,,,,https://411.ca/business/search?q=Electrician&st=on,https://411.ca/business/search?q=electrician&p=2
411.ca - Electrician,Electrician,"ON, BC, AB, QC, MB, SK, NS, NB, NL, PE, NT, NU, YT",Murray Electrical Contractors Inc,14167456146,,http://outdatedbrowser.com/en,,,,,https://411.ca/business/search?q=Electrician&st=on,https://411.ca/business/profile/2745997
411.ca - Electrician,Electrician,"ON, BC, AB, QC, MB, SK, NS, NB, NL, PE, NT, NU, YT",Rumble Electric Company Limited,14162461655,,http://outdatedbrowser.com/en,,,,,https://411.ca/business/search?q=Electrician&st=on,https://411.ca/business/profile/12667649
411.ca - Electrician,Electrician,"ON, BC, AB, QC, MB, SK, NS, NB, NL, PE, NT, NU, YT",Dias Electric,14166517461,,http://outdatedbrowser.com/en,,,,,https://411.ca/business/search?q=Electrician&st=on,https://411.ca/business/profile/2733349
411.ca - Electrician,Electrician,"ON, BC, AB, QC, MB, SK, NS, NB, NL, PE, NT, NU, YT",Future Electric,14168271262,future_elc@hotmail.com,http://outdatedbrowser.com/en,,,,,https://411.ca/business/search?q=Electrician&st=on,https://411.ca/business/profile/7811993
411.ca - Electrician,Electrician,"ON, BC, AB, QC, MB, SK, NS, NB, NL, PE, NT, NU, YT",Rushforth Electric and Heating 1976 Limited,14164217262,brian@rushforth-electric.com,http://www.rushforthelectric.com,,,,,https://411.ca/business/search?q=Electrician&st=on,https://411.ca/business/profile/2702828
411.ca - Electrician,Electrician,"ON, BC, AB, QC, MB, SK, NS, NB, NL, PE, NT, NU, YT",Langstaff & Sloan Inc,16477228668,,http://outdatedbrowser.com/en,,,,,https://411.ca/business/search?q=Electrician&st=on,https://411.ca/business/profile/14205061
411.ca - Electrician,Electrician,"ON, BC, AB, QC, MB, SK, NS, NB, NL, PE, NT, NU, YT",Home Energy Services,14166385445,,http://outdatedbrowser.com/en,,,,,https://411.ca/business/search?q=Electrician&st=on,https://411.ca/business/profile/14075641
411.ca - Electrician,Electrician,"ON, BC, AB, QC, MB, SK, NS, NB, NL, PE, NT, NU, YT",Zimmer Controls,15193515114,chris@zimmercontrols.com,http://www.zimmercontrols.com,,,,,https://411.ca/business/search?q=Electrician&st=on,https://411.ca/business/profile/1192806
411.ca - Roofing,Roofing,"ON, BC, AB, QC, MB, SK, NS, NB, NL, PE, NT, NU, YT",411.ca,14165908985,,http://outdatedbrowser.com/en,,,,,https://411.ca/business/search?q=Roofing&st=on,https://411.ca/business/near-me/engineering-consultants?c=25
411.ca - Roofing,Roofing,"ON, BC, AB, QC, MB, SK, NS, NB, NL, PE, NT, NU, YT",411.ca,16475022025,Varoujan.markarian@gmail.com,http://outdatedbrowser.com/en,,,,,https://411.ca/business/search?q=Roofing&st=on,https://411.ca/business/near-me/home-renovation?c=25
411.ca - Roofing,Roofing,"ON, BC, AB, QC, MB, SK, NS, NB, NL, PE, NT, NU, YT",411.ca,16473505221,,http://outdatedbrowser.com/en,,,,,https://411.ca/business/search?q=Roofing&st=on,https://411.ca/business/near-me/restaurants?c=25
411.ca - Roofing,Roofing,"ON, BC, AB, QC, MB, SK, NS, NB, NL, PE, NT, NU, YT",411.ca,14164940094,,http://outdatedbrowser.com/en,,,,,https://411.ca/business/search?q=Roofing&st=on,https://411.ca/business/near-me/bars?c=25
411.ca - Roofing,Roofing,"ON, BC, AB, QC, MB, SK, NS, NB, NL, PE, NT, NU, YT",411.ca,14165790128,surroofing@gmail.com,http://outdatedbrowser.com/en,,,,,https://411.ca/business/search?q=Roofing&st=on,https://411.ca/business/near-me/flat-roofing?c=25
411.ca - Roofing,Roofing,"ON, BC, AB, QC, MB, SK, NS, NB, NL, PE, NT, NU, YT",411.ca,16478388783,hx4168278783@gmail.com,http://outdatedbrowser.com/en,,,,,https://411.ca/business/search?q=Roofing&st=on,https://411.ca/business/near-me/soffit-and-fascia?c=25
411.ca - Roofing,Roofing,"ON, BC, AB, QC, MB, SK, NS, NB, NL, PE, NT, NU, YT",411.ca,16478693228,masstoproofing@gmail.com,http://outdatedbrowser.com/en,,,,,https://411.ca/business/search?q=Roofing&st=on,https://411.ca/business/near-me/roofing-services?c=25
411.ca - Roofing,Roofing,"ON, BC, AB, QC, MB, SK, NS, NB, NL, PE, NT, NU, YT",,16473527663,,http://outdatedbrowser.com/en,,,,,https://411.ca/business/search?q=Roofing&st=on,https://411.ca/business/search?q=roofing&p=2
411.ca - Roofing,Roofing,"ON, BC, AB, QC, MB, SK, NS, NB, NL, PE, NT, NU, YT",Nguyen Mai,14166654404,,http://outdatedbrowser.com/en,,,,,https://411.ca/business/search?q=Roofing&st=on,https://411.ca/business/profile/954013
411.ca - Roofing,Roofing,"ON, BC, AB, QC, MB, SK, NS, NB, NL, PE, NT, NU, YT",Carlitos Way Contracting,16478912186,,http://outdatedbrowser.com/en,,,,,https://411.ca/business/search?q=Roofing&st=on,https://411.ca/business/profile/9847327
411.ca - Roofing,Roofing,"ON, BC, AB, QC, MB, SK, NS, NB, NL, PE, NT, NU, YT",Master King Roofing,14169911949,help@411.ca,http://outdatedbrowser.com/en,,,,,https://411.ca/business/search?q=Roofing&st=on,https://411.ca/business/profile/1195019
411.ca - Roofing,Roofing,"ON, BC, AB, QC, MB, SK, NS, NB, NL, PE, NT, NU, YT",Willowdale Roofing,14162221838,,http://outdatedbrowser.com/en,,,,,https://411.ca/business/search?q=Roofing&st=on,https://411.ca/business/profile/2673142
411.ca - Roofing,Roofing,"ON, BC, AB, QC, MB, SK, NS, NB, NL, PE, NT, NU, YT",Extreme Roofing,14166023651,,http://outdatedbrowser.com/en,,,,,https://411.ca/business/search?q=Roofing&st=on,https://411.ca/business/profile/6334195
411.ca - Roofing,Roofing,"ON, BC, AB, QC, MB, SK, NS, NB, NL, PE, NT, NU, YT",Husky Roofing,14167035402,,http://outdatedbrowser.com/en,,,,,https://411.ca/business/search?q=Roofing&st=on,https://411.ca/business/profile/12698403
411.ca - Roofing,Roofing,"ON, BC, AB, QC, MB, SK, NS, NB, NL, PE, NT, NU, YT",Sun Roofing,14168246541,rezaymca@yahoo.ca,http://outdatedbrowser.com/en,,,,,https://411.ca/business/search?q=Roofing&st=on,https://411.ca/business/profile/7750505
411.ca - Roofing,Roofing,"ON, BC, AB, QC, MB, SK, NS, NB, NL, PE, NT, NU, YT",E-Z Top Roofing,14167437214,e-ztoproofing@rogers.com,http://outdatedbrowser.com/en,,,,,https://411.ca/business/search?q=Roofing&st=on,https://411.ca/business/profile/7689317
411.ca - Roofing,Roofing,"ON, BC, AB, QC, MB, SK, NS, NB, NL, PE, NT, NU, YT",Triumph,14165348877,info@triumphinc.ca,http://www.triumphinc.ca/,,,,,https://411.ca/business/search?q=Roofing&st=on,https://411.ca/business/profile/1189789
411.ca - Roofing,Roofing,"ON, BC, AB, QC, MB, SK, NS, NB, NL, PE, NT, NU, YT",Roofing Contractor,16472227722,dakonika@hbk.ru.com,http://tbsroofing.ca/index.html,,,,,https://411.ca/business/search?q=Roofing&st=on,https://411.ca/business/profile/10160350
411.ca - Roofing,Roofing,"ON, BC, AB, QC, MB, SK, NS, NB, NL, PE, NT, NU, YT",Sinclair Ndustrial Roofing,14167465553,,http://outdatedbrowser.com/en,,,,,https://411.ca/business/search?q=Roofing&st=on,https://411.ca/business/profile/13281931
411.ca - Roofing,Roofing,"ON, BC, AB, QC, MB, SK, NS, NB, NL, PE, NT, NU, YT",Juffs Roofing Ltd,14164674883,customerservice@juffsroofing.com,http://www.juffsroofing.com,,,,,https://411.ca/business/search?q=Roofing&st=on,https://411.ca/business/profile/4343618
411.ca - Landscaping,Landscaping,"ON, BC, AB, QC, MB, SK, NS, NB, NL, PE, NT, NU, YT",411.ca,18888826722,,http://outdatedbrowser.com/en,,,,,https://411.ca/business/search?q=Landscaping&st=on,https://411.ca/business/near-me/hard-landscaping?c=25
411.ca - Landscaping,Landscaping,"ON, BC, AB, QC, MB, SK, NS, NB, NL, PE, NT, NU, YT",411.ca,16478656068,,http://outdatedbrowser.com/en,,,,,https://411.ca/business/search?q=Landscaping&st=on,https://411.ca/business/near-me/garbage-removal?c=25
411.ca - Landscaping,Landscaping,"ON, BC, AB, QC, MB, SK, NS, NB, NL, PE, NT, NU, YT",411.ca,14166701504,,http://outdatedbrowser.com/en,,,,,https://411.ca/business/search?q=Landscaping&st=on,https://411.ca/business/near-me/exterior-designer?c=25
411.ca - Landscaping,Landscaping,"ON, BC, AB, QC, MB, SK, NS, NB, NL, PE, NT, NU, YT",411.ca,19059891003,info@hightponitinc.ca,http://outdatedbrowser.com/en,,,,,https://411.ca/business/search?q=Landscaping&st=on,https://411.ca/business/near-me/grading?c=25
411.ca - Landscaping,Landscaping,"ON, BC, AB, QC, MB, SK, NS, NB, NL, PE, NT, NU, YT",411.ca,14164103705,,http://outdatedbrowser.com/en,,,,,https://411.ca/business/search?q=Landscaping&st=on,https://411.ca/business/near-me/paving-contractors?c=25
411.ca - Landscaping,Landscaping,"ON, BC, AB, QC, MB, SK, NS, NB, NL, PE, NT, NU, YT",411.ca,18772278538,dcox@Bartlett.com,http://outdatedbrowser.com/en,,,,,https://411.ca/business/search?q=Landscaping&st=on,https://411.ca/business/near-me/arborists?c=25
411.ca - Landscaping,Landscaping,"ON, BC, AB, QC, MB, SK, NS, NB, NL, PE, NT, NU, YT",411.ca,16472382661,info@hendriktreeservice.ca,http://outdatedbrowser.com/en,,,,,https://411.ca/business/search?q=Landscaping&st=on,https://411.ca/business/near-me/tree-services?c=25
411.ca - Landscaping,Landscaping,"ON, BC, AB, QC, MB, SK, NS, NB, NL, PE, NT, NU, YT",411.ca,19058937081,,http://outdatedbrowser.com/en,,,,,https://411.ca/business/search?q=Landscaping&st=on,https://411.ca/business/near-me/ice-and-snow-removal?c=25
411.ca - Landscaping,Landscaping,"ON, BC, AB, QC, MB, SK, NS, NB, NL, PE, NT, NU, YT",,12896225246,,http://outdatedbrowser.com/en,,,,,https://411.ca/business/search?q=Landscaping&st=on,https://411.ca/business/search?q=landscaping&p=2
411.ca - Landscaping,Landscaping,"ON, BC, AB, QC, MB, SK, NS, NB, NL, PE, NT, NU, YT",Green Thumb Land,16478730956,greenthumb@inbox.com,http://outdatedbrowser.com/en,,,,,https://411.ca/business/search?q=Landscaping&st=on,https://411.ca/business/profile/12145545
411.ca - Landscaping,Landscaping,"ON, BC, AB, QC, MB, SK, NS, NB, NL, PE, NT, NU, YT",Icon Landscaping,14168366000,a.shahravan@gmail.com,http://www.iconlandscaping.com,,,,,https://411.ca/business/search?q=Landscaping&st=on,https://411.ca/business/profile/7691696
411.ca - Landscaping,Landscaping,"ON, BC, AB, QC, MB, SK, NS, NB, NL, PE, NT, NU, YT",Chris's Interlocking Services,16474631754,c.iesalnieks@gmail.com,http://outdatedbrowser.com/en,,,,,https://411.ca/business/search?q=Landscaping&st=on,https://411.ca/business/profile/9660176
411.ca - Landscaping,Landscaping,"ON, BC, AB, QC, MB, SK, NS, NB, NL, PE, NT, NU, YT",Daniel Tree Service,16477634546,pratap.danny@gmail.com,http://outdatedbrowser.com/en,,,,,https://411.ca/business/search?q=Landscaping&st=on,https://411.ca/business/profile/9585904
411.ca - Landscaping,Landscaping,"ON, BC, AB, QC, MB, SK, NS, NB, NL, PE, NT, NU, YT",New Dreamhome Magazine,14166421540,,http://outdatedbrowser.com/en,,,,,https://411.ca/business/search?q=Landscaping&st=on,https://411.ca/business/profile/4116830
411.ca - Landscaping,Landscaping,"ON, BC, AB, QC, MB, SK, NS, NB, NL, PE, NT, NU, YT",Wildrose Gardening,14162217173,,http://outdatedbrowser.com/en,,,,,https://411.ca/business/search?q=Landscaping&st=on,https://411.ca/business/profile/13190457
411.ca - Landscaping,Landscaping,"ON, BC, AB, QC, MB, SK, NS, NB, NL, PE, NT, NU, YT",Abrams Construction,14168310872,,http://outdatedbrowser.com/en,,,,,https://411.ca/business/search?q=Landscaping&st=on,https://411.ca/business/profile/7805107
411.ca - Landscaping,Landscaping,"ON, BC, AB, QC, MB, SK, NS, NB, NL, PE, NT, NU, YT",A Metro Green Landscape Services,14164255543,,http://outdatedbrowser.com/en,,,,,https://411.ca/business/search?q=Landscaping&st=on,https://411.ca/business/profile/7686384
411.ca - Landscaping,Landscaping,"ON, BC, AB, QC, MB, SK, NS, NB, NL, PE, NT, NU, YT",Renaissance Construction,14168559286,,http://outdatedbrowser.com/en,,,,,https://411.ca/business/search?q=Landscaping&st=on,https://411.ca/business/profile/12333401
411.ca - Landscaping,Landscaping,"ON, BC, AB, QC, MB, SK, NS, NB, NL, PE, NT, NU, YT",Landscape Design and Site Planning Inc,14162216556,,http://outdatedbrowser.com/en,,,,,https://411.ca/business/search?q=Landscaping&st=on,https://411.ca/business/profile/13968831
411.ca - Landscaping,Landscaping,"ON, BC, AB, QC, MB, SK, NS, NB, NL, PE, NT, NU, YT",Property Express,14162220203,info@propertyexpress.ca,http://outdatedbrowser.com/en,,,,,https://411.ca/business/search?q=Landscaping&st=on,https://411.ca/business/profile/7637580
411.ca - Landscaping,Landscaping,"ON, BC, AB, QC, MB, SK, NS, NB, NL, PE, NT, NU, YT",Curbz Landscaping,14377475215,ian@curbz.ca,http://outdatedbrowser.com/en,,,,,https://411.ca/business/search?q=Landscaping&st=on,https://411.ca/business/profile/4527677
411.ca - Handyman,Handyman,"ON, BC, AB, QC, MB, SK, NS, NB, NL, PE, NT, NU, YT",,12895972387,,http://outdatedbrowser.com/en,,,,,https://411.ca/business/search?q=Handyman&st=on,https://411.ca/business/search?q=handyman&p=2
411.ca - Handyman,Handyman,"ON, BC, AB, QC, MB, SK, NS, NB, NL, PE, NT, NU, YT",Mr. Handyman,19058501077,,http://www.mrhandyman.ca/,,,,,https://411.ca/business/search?q=Handyman&st=on,https://411.ca/business/profile/1191058
411.ca - Handyman,Handyman,"ON, BC, AB, QC, MB, SK, NS, NB, NL, PE, NT, NU, YT",York Handyman,14168507351,yorkhandymanontario@yahoo.com,http://outdatedbrowser.com/en,,,,,https://411.ca/business/search?q=Handyman&st=on,https://411.ca/business/profile/7682251
411.ca - Handyman,Handyman,"ON, BC, AB, QC, MB, SK, NS, NB, NL, PE, NT, NU, YT",realtor and investro,14165642321,,http://outdatedbrowser.com/en,,,,,https://411.ca/business/search?q=Handyman&st=on,https://411.ca/business/profile/9509161
411.ca - Handyman,Handyman,"ON, BC, AB, QC, MB, SK, NS, NB, NL, PE, NT, NU, YT",H & M Home Decor,14168347823,amadeyo88@hotmail.com,http://outdatedbrowser.com/en,,,,,https://411.ca/business/search?q=Handyman&st=on,https://411.ca/business/profile/7305757
411.ca - Handyman,Handyman,"ON, BC, AB, QC, MB, SK, NS, NB, NL, PE, NT, NU, YT",411.ca,19053050071,,http://outdatedbrowser.com/en,,,,,https://411.ca/business/search?q=Handyman&st=ns,https://411.ca/business/near-me/unknown?c=25
411.ca - Handyman,Handyman,"ON, BC, AB, QC, MB, SK, NS, NB, NL, PE, NT, NU, YT",411.ca,14166629122,6688gan@gmail.com,http://outdatedbrowser.com/en,,,,,https://411.ca/business/search?q=Handyman&st=ns,https://411.ca/business/near-me/gutters-and-downspouts?c=25
411.ca - Handyman,Handyman,"ON, BC, AB, QC, MB, SK, NS, NB, NL, PE, NT, NU, YT",411.ca,16477018719,help@411.ca,http://outdatedbrowser.com/en,,,,,https://411.ca/business/search?q=Handyman&st=ns,https://411.ca/business/near-me/handy-person-service?c=25
411.ca - Handyman,Handyman,"ON, BC, AB, QC, MB, SK, NS, NB, NL, PE, NT, NU, YT",411.ca,16474041776,matt@pixelspread.com,http://outdatedbrowser.com/en,,,,,https://411.ca/business/search?q=Handyman&st=ns,https://411.ca/business/near-me/handyman-service?c=25
411.ca - Handyman,Handyman,"ON, BC, AB, QC, MB, SK, NS, NB, NL, PE, NT, NU, YT",411.ca,14169021909,,http://outdatedbrowser.com/en,,,,,https://411.ca/business/search?q=Handyman&st=ns,https://411.ca/business/near-me/building-contractors?c=25
411.ca - Handyman,Handyman,"ON, BC, AB, QC, MB, SK, NS, NB, NL, PE, NT, NU, YT",411.ca,14168280558,,http://outdatedbrowser.com/en,,,,,https://411.ca/business/search?q=Handyman&st=ns,https://411.ca/business/near-me/home-remodelling?c=25
411.ca - Handyman,Handyman,"ON, BC, AB, QC, MB, SK, NS, NB, NL, PE, NT, NU, YT",Alia Handyman Services,14168198888,alia_bayat@hotmail.com,http://aliahandymanservices.ca,,,,,https://411.ca/business/search?q=Handyman&st=on,https://411.ca/business/profile/7640165
411.ca - Handyman,Handyman,"ON, BC, AB, QC, MB, SK, NS, NB, NL, PE, NT, NU, YT",Steven Handy Man,16474705252,stevenmcrae@hotmail.ca,http://outdatedbrowser.com/en,,,,,https://411.ca/business/search?q=Handyman&st=on,https://411.ca/business/profile/9615663
411.ca - Handyman,Handyman,"ON, BC, AB, QC, MB, SK, NS, NB, NL, PE, NT, NU, YT",Zubie's Sevices,14168447111,kaisidi@hotmail.com,http://outdatedbrowser.com/en,,,,,https://411.ca/business/search?q=Handyman&st=on,https://411.ca/business/profile/7035357
411.ca - Handyman,Handyman,"ON, BC, AB, QC, MB, SK, NS, NB, NL, PE, NT, NU, YT",GTA Handyman,14166554424,,http://outdatedbrowser.com/en,,,,,https://411.ca/business/search?q=Handyman&st=on,https://411.ca/business/profile/7106501
411.ca - Handyman,Handyman,"ON, BC, AB, QC, MB, SK, NS, NB, NL, PE, NT, NU, YT",Handyman Canadian,16479285877,,http://outdatedbrowser.com/en,,,,,https://411.ca/business/search?q=Handyman&st=on,https://411.ca/business/profile/7027805
411.ca - Handyman,Handyman,"ON, BC, AB, QC, MB, SK, NS, NB, NL, PE, NT, NU, YT",HandyMan Renovations,14162585469,,http://outdatedbrowser.com/en,,,,,https://411.ca/business/search?q=Handyman&st=on,https://411.ca/business/profile/7686608
411.ca - Painting,Painting,"ON, BC, AB, QC, MB, SK, NS, NB, NL, PE, NT, NU, YT",411.ca,14168162685,,http://outdatedbrowser.com/en,,,,,https://411.ca/business/search?q=Painting&st=on,https://411.ca/business/near-me/stucco-and-texturing?c=25
411.ca - Painting,Painting,"ON, BC, AB, QC, MB, SK, NS, NB, NL, PE, NT, NU, YT",411.ca,14162291680,,http://outdatedbrowser.com/en,,,,,https://411.ca/business/search?q=Painting&st=on,https://411.ca/business/near-me/special-interest-associations?c=25
411.ca - Painting,Painting,"ON, BC, AB, QC, MB, SK, NS, NB, NL, PE, NT, NU, YT",411.ca,14162452522,decoratingelements1500@gmail.com,http://outdatedbrowser.com/en,,,,,https://411.ca/business/search?q=Painting&st=on,https://411.ca/business/near-me/painters?c=25
411.ca - Painting,Painting,"ON, BC, AB, QC, MB, SK, NS, NB, NL, PE, NT, NU, YT",411.ca,16138274276,ontariocanadianpaintereh1@gmail.com,http://outdatedbrowser.com/en,,,,,https://411.ca/business/search?q=Painting&st=on,https://411.ca/business/near-me/exterior-interior-painting?c=25
411.ca - Painting,Painting,"ON, BC, AB, QC, MB, SK, NS, NB, NL, PE, NT, NU, YT",411.ca,14167517676,,http://outdatedbrowser.com/en,,,,,https://411.ca/business/search?q=Painting&st=on,https://411.ca/business/near-me/window-shutters?c=25
411.ca - Painting,Painting,"ON, BC, AB, QC, MB, SK, NS, NB, NL, PE, NT, NU, YT",411.ca,14163351212,,http://outdatedbrowser.com/en,,,,,https://411.ca/business/search?q=Painting&st=on,https://411.ca/business/near-me/blinds?c=25
411.ca - Painting,Painting,"ON, BC, AB, QC, MB, SK, NS, NB, NL, PE, NT, NU, YT",,14164100164,,http://outdatedbrowser.com/en,,,,,https://411.ca/business/search?q=Painting&st=on,https://411.ca/business/search?q=painting&p=2
411.ca - Painting,Painting,"ON, BC, AB, QC, MB, SK, NS, NB, NL, PE, NT, NU, YT",Bayview Renovations&Painting Co,14164461922,,http://outdatedbrowser.com/en,,,,,https://411.ca/business/search?q=Painting&st=on,https://411.ca/business/profile/2706692
411.ca - Painting,Painting,"ON, BC, AB, QC, MB, SK, NS, NB, NL, PE, NT, NU, YT",Benel Painting,14168205994,,http://outdatedbrowser.com/en,,,,,https://411.ca/business/search?q=Painting&st=on,https://411.ca/business/profile/12645063
411.ca - Painting,Painting,"ON, BC, AB, QC, MB, SK, NS, NB, NL, PE, NT, NU, YT",Jon Painting,14168936740,tozaje@yahoo.com,http://outdatedbrowser.com/en,,,,,https://411.ca/business/search?q=Painting&st=on,https://411.ca/business/profile/7269362
411.ca - Painting,Painting,"ON, BC, AB, QC, MB, SK, NS, NB, NL, PE, NT, NU, YT",Diotte Coating Services,14169918490,cotydiotte_9@hotmail.com,http://outdatedbrowser.com/en,,,,,https://411.ca/business/search?q=Painting&st=on,https://411.ca/business/profile/7260146
411.ca - Painting,Painting,"ON, BC, AB, QC, MB, SK, NS, NB, NL, PE, NT, NU, YT",CMG,14166463050,,http://outdatedbrowser.com/en,,,,,https://411.ca/business/search?q=Painting&st=on,https://411.ca/business/profile/4565234
411.ca - Painting,Painting,"ON, BC, AB, QC, MB, SK, NS, NB, NL, PE, NT, NU, YT",Ontario Painting Contractors Association,14164981897,,http://outdatedbrowser.com/en,,,,,https://411.ca/business/search?q=Painting&st=on,https://411.ca/business/profile/2716844
411.ca - Painting,Painting,"ON, BC, AB, QC, MB, SK, NS, NB, NL, PE, NT, NU, YT",Unparalleled Paint,18665507543,kurt.welch@upaint.ca,http://www.upaint.ca,,,,,https://411.ca/business/search?q=Painting&st=on,https://411.ca/business/profile/7351095
411.ca - Painting,Painting,"ON, BC, AB, QC, MB, SK, NS, NB, NL, PE, NT, NU, YT",Home Renovation Plus,14168874858,pmfaridi@yahoo.ca,http://homerenovationplus.ca,,,,,https://411.ca/business/search?q=Painting&st=on,https://411.ca/business/profile/9573859
411.ca - Painting,Painting,"ON, BC, AB, QC, MB, SK, NS, NB, NL, PE, NT, NU, YT",New Image Painting,14168970923,,http://outdatedbrowser.com/en,,,,,https://411.ca/business/search?q=Painting&st=on,https://411.ca/business/profile/13338747
411.ca - Painting,Painting,"ON, BC, AB, QC, MB, SK, NS, NB, NL, PE, NT, NU, YT",Walker Paintings,14166500808,,http://outdatedbrowser.com/en,,,,,https://411.ca/business/search?q=Painting&st=on,https://411.ca/business/profile/14138201
411.ca - Painting,Painting,"ON, BC, AB, QC, MB, SK, NS, NB, NL, PE, NT, NU, YT",Paints N Ladders,16478367715,paintsnladders1@gmail.com,http://outdatedbrowser.com/en,,,,,https://411.ca/business/search?q=Painting&st=on,https://411.ca/business/profile/7039985
411.ca - Painting,Painting,"ON, BC, AB, QC, MB, SK, NS, NB, NL, PE, NT, NU, YT",MF Auto Inc.,16477804928,ayazhashmi2001@yahoo.com,http://outdatedbrowser.com/en,,,,,https://411.ca/business/search?q=Painting&st=on,https://411.ca/business/profile/7214942
411.ca - Painting,Painting,"ON, BC, AB, QC, MB, SK, NS, NB, NL, PE, NT, NU, YT",Kings,16474064040,,http://outdatedbrowser.com/en,,,,,https://411.ca/business/search?q=Painting&st=on,https://411.ca/business/profile/13758799
411.ca - Carpet Cleaning,Carpet Cleaning,"ON, BC, AB, QC, MB, SK, NS, NB, NL, PE, NT, NU, YT",411.ca,14166652619,,http://outdatedbrowser.com/en,,,,,https://411.ca/business/search?q=Carpet%20Cleaning&st=on,https://411.ca/business/near-me/maids-and-butlers?c=25
411.ca - Carpet Cleaning,Carpet Cleaning,"ON, BC, AB, QC, MB, SK, NS, NB, NL, PE, NT, NU, YT",411.ca,14165282915,,http://outdatedbrowser.com/en,,,,,https://411.ca/business/search?q=Carpet%20Cleaning&st=on,https://411.ca/business/near-me/anti-aging?c=25
411.ca - Carpet Cleaning,Carpet Cleaning,"ON, BC, AB, QC, MB, SK, NS, NB, NL, PE, NT, NU, YT",411.ca,14168394208,riveroscompany@yahoo.ca,http://outdatedbrowser.com/en,,,,,https://411.ca/business/search?q=Carpet%20Cleaning&st=on,https://411.ca/business/near-me/furniture-cleaning?c=25
411.ca - Carpet Cleaning,Carpet Cleaning,"ON, BC, AB, QC, MB, SK, NS, NB, NL, PE, NT, NU, YT",411.ca,16474360404,,http://outdatedbrowser.com/en,,,,,https://411.ca/business/search?q=Carpet%20Cleaning&st=on,https://411.ca/business/near-me/dry-cleaners?c=25
411.ca - Carpet Cleaning,Carpet Cleaning,"ON, BC, AB, QC, MB, SK, NS, NB, NL, PE, NT, NU, YT",411.ca,19058302851,,http://outdatedbrowser.com/en,,,,,https://411.ca/business/search?q=Carpet%20Cleaning&st=on,https://411.ca/business/near-me/salons?c=25
411.ca - Carpet Cleaning,Carpet Cleaning,"ON, BC, AB, QC, MB, SK, NS, NB, NL, PE, NT, NU, YT",411.ca,14163566666,,http://outdatedbrowser.com/en,,,,,https://411.ca/business/search?q=Carpet%20Cleaning&st=on,https://411.ca/business/near-me/carpets-and-rugs?c=25
411.ca - Carpet Cleaning,Carpet Cleaning,"ON, BC, AB, QC, MB, SK, NS, NB, NL, PE, NT, NU, YT",411.ca,14166682870,,http://outdatedbrowser.com/en,,,,,https://411.ca/business/search?q=Carpet%20Cleaning&st=on,https://411.ca/business/near-me/fire-damage-repair?c=25
411.ca - Carpet Cleaning,Carpet Cleaning,"ON, BC, AB, QC, MB, SK, NS, NB, NL, PE, NT, NU, YT",411.ca,14166598611,,http://outdatedbrowser.com/en,,,,,https://411.ca/business/search?q=Carpet%20Cleaning&st=on,https://411.ca/business/near-me/massage-therapy?c=25
411.ca - Carpet Cleaning,Carpet Cleaning,"ON, BC, AB, QC, MB, SK, NS, NB, NL, PE, NT, NU, YT",411.ca,14168552333,,http://outdatedbrowser.com/en,,,,,https://411.ca/business/search?q=Carpet%20Cleaning&st=on,https://411.ca/business/near-me/home-care?c=25
411.ca - Carpet Cleaning,Carpet Cleaning,"ON, BC, AB, QC, MB, SK, NS, NB, NL, PE, NT, NU, YT",411.ca,14166389293,,http://outdatedbrowser.com/en,,,,,https://411.ca/business/search?q=Carpet%20Cleaning&st=on,https://411.ca/business/near-me/home-care-equipment?c=25
411.ca - Carpet Cleaning,Carpet Cleaning,"ON, BC, AB, QC, MB, SK, NS, NB, NL, PE, NT, NU, YT",411.ca,16048163535,,http://outdatedbrowser.com/en,,,,,https://411.ca/business/search?q=Carpet%20Cleaning&st=on,https://411.ca/business/near-me/drapery-and-blinds-cleaning?c=25
411.ca - Carpet Cleaning,Carpet Cleaning,"ON, BC, AB, QC, MB, SK, NS, NB, NL, PE, NT, NU, YT",411.ca,14169539927,,http://outdatedbrowser.com/en,,,,,https://411.ca/business/search?q=Carpet%20Cleaning&st=on,https://411.ca/business/near-me/commercial-cleaning?c=25
411.ca - Carpet Cleaning,Carpet Cleaning,"ON, BC, AB, QC, MB, SK, NS, NB, NL, PE, NT, NU, YT",,14167286869,,http://outdatedbrowser.com/en,,,,,https://411.ca/business/search?q=Carpet%20Cleaning&st=on,https://411.ca/business/search?q=carpet%20cleaning&p=2
411.ca - Carpet Cleaning,Carpet Cleaning,"ON, BC, AB, QC, MB, SK, NS, NB, NL, PE, NT, NU, YT",Arch Industries,14167417247,,http://outdatedbrowser.com/en,,,,,https://411.ca/business/search?q=Carpet%20Cleaning&st=on,https://411.ca/business/profile/6229035
411.ca - Carpet Cleaning,Carpet Cleaning,"ON, BC, AB, QC, MB, SK, NS, NB, NL, PE, NT, NU, YT",Interior Care,14164670200,,http://outdatedbrowser.com/en,,,,,https://411.ca/business/search?q=Carpet%20Cleaning&st=on,https://411.ca/business/profile/7754993
411.ca - Carpet Cleaning,Carpet Cleaning,"ON, BC, AB, QC, MB, SK, NS, NB, NL, PE, NT, NU, YT",Steamatic GTA,14165918588,info@gtasteamatic.com,http://outdatedbrowser.com/en,,,,,https://411.ca/business/search?q=Carpet%20Cleaning&st=on,https://411.ca/business/profile/9364688
411.ca - Carpet Cleaning,Carpet Cleaning,"ON, BC, AB, QC, MB, SK, NS, NB, NL, PE, NT, NU, YT",Prefect Cleaning,16479738800,baojie_cleaning@hotmail.com,http://outdatedbrowser.com/en,,,,,https://411.ca/business/search?q=Carpet%20Cleaning&st=on,https://411.ca/business/profile/7504204
411.ca - Carpet Cleaning,Carpet Cleaning,"ON, BC, AB, QC, MB, SK, NS, NB, NL, PE, NT, NU, YT",WSC Services,14168734010,,http://outdatedbrowser.com/en,,,,,https://411.ca/business/search?q=Carpet%20Cleaning&st=on,https://411.ca/business/profile/2736098
411.ca - Carpet Cleaning,Carpet Cleaning,"ON, BC, AB, QC, MB, SK, NS, NB, NL, PE, NT, NU, YT",Bio-Dry,14168853000,,http://outdatedbrowser.com/en,,,,,https://411.ca/business/search?q=Carpet%20Cleaning&st=on,https://411.ca/business/profile/12765009
411.ca - Carpet Cleaning,Carpet Cleaning,"ON, BC, AB, QC, MB, SK, NS, NB, NL, PE, NT, NU, YT",PATCOR Flooring Accessories Limited,14168599494,,http://outdatedbrowser.com/en,,,,,https://411.ca/business/search?q=Carpet%20Cleaning&st=on,https://411.ca/business/profile/4117587
411.ca - Carpet Cleaning,Carpet Cleaning,"ON, BC, AB, QC, MB, SK, NS, NB, NL, PE, NT, NU, YT",Alex Taylor Contracting Ltd,14162397383,,http://outdatedbrowser.com/en,,,,,https://411.ca/business/search?q=Carpet%20Cleaning&st=on,https://411.ca/business/profile/2677718
411.ca - Carpet Cleaning,Carpet Cleaning,"ON, BC, AB, QC, MB, SK, NS, NB, NL, PE, NT, NU, YT",Burke's Restoration Inc,14167442456,,http://outdatedbrowser.com/en,,,,,https://411.ca/business/search?q=Carpet%20Cleaning&st=on,https://411.ca/business/profile/4525298
411.ca - Carpet Cleaning,Carpet Cleaning,"ON, BC, AB, QC, MB, SK, NS, NB, NL, PE, NT, NU, YT",CHEMSPEC,14164215212,,http://outdatedbrowser.com/en,,,,,https://411.ca/business/search?q=Carpet%20Cleaning&st=on,https://411.ca/business/profile/2702755
411.ca - Carpet Cleaning,Carpet Cleaning,"ON, BC, AB, QC, MB, SK, NS, NB, NL, PE, NT, NU, YT",Allserve,14165091336,,http://outdatedbrowser.com/en,,,,,https://411.ca/business/search?q=Carpet%20Cleaning&st=on,https://411.ca/business/profile/7773323
411.ca - Carpet Cleaning,Carpet Cleaning,"ON, BC, AB, QC, MB, SK, NS, NB, NL, PE, NT, NU, YT",Mobile Massage Therapists,14165624911,,http://outdatedbrowser.com/en,,,,,https://411.ca/business/search?q=Carpet%20Cleaning&st=on,https://411.ca/business/profile/4116665
411.ca - Gutter Cleaning,Gutter Cleaning,"ON, BC, AB, QC, MB, SK, NS, NB, NL, PE, NT, NU, YT",411.ca,16479043949,,http://outdatedbrowser.com/en,,,,,https://411.ca/business/search?q=Gutter%20Cleaning&st=on,https://411.ca/business/near-me/residential-cleaning?c=25
411.ca - Gutter Cleaning,Gutter Cleaning,"ON, BC, AB, QC, MB, SK, NS, NB, NL, PE, NT, NU, YT",,14162393600,,http://outdatedbrowser.com/en,,,,,https://411.ca/business/search?q=Gutter%20Cleaning&st=on,https://411.ca/business/search?q=gutter%20cleaning&p=2
411.ca - Gutter Cleaning,Gutter Cleaning,"ON, BC, AB, QC, MB, SK, NS, NB, NL, PE, NT, NU, YT",NK The Eaves Experts,14167073582,info@eavesexperts.ca,http://outdatedbrowser.com/en,,,,,https://411.ca/business/search?q=Gutter%20Cleaning&st=on,https://411.ca/business/profile/9174404
411.ca - Gutter Cleaning,Gutter Cleaning,"ON, BC, AB, QC, MB, SK, NS, NB, NL, PE, NT, NU, YT",Hordyk Eavestroughs and Gutters,15199989102,david.hordyk@gmail.com,http://u758741.411web.ca/,,,,,https://411.ca/business/search?q=Gutter%20Cleaning&st=on,https://411.ca/business/profile/10661953
411.ca - Gutter Cleaning,Gutter Cleaning,"ON, BC, AB, QC, MB, SK, NS, NB, NL, PE, NT, NU, YT",Eavestrough Cleaning Specialists Inc,14164933932,,http://outdatedbrowser.com/en,,,,,https://411.ca/business/search?q=Gutter%20Cleaning&st=on,https://411.ca/business/profile/2715687
411.ca - Gutter Cleaning,Gutter Cleaning,"ON, BC, AB, QC, MB, SK, NS, NB, NL, PE, NT, NU, YT",Aluminum's Masters,16472917333,Info@Aluminumsmasters.com,http://outdatedbrowser.com/en,,,,,https://411.ca/business/search?q=Gutter%20Cleaning&st=on,https://411.ca/business/profile/12189851
411.ca - Gutter Cleaning,Gutter Cleaning,"ON, BC, AB, QC, MB, SK, NS, NB, NL, PE, NT, NU, YT",GTALUMINUM & CONSTRUCTION,16477055868,gtaaluminum88@gmail.com,http://canadianaluminum.ca/,,,,,https://411.ca/business/search?q=Gutter%20Cleaning&st=on,https://411.ca/business/profile/9211006
411.ca - Gutter Cleaning,Gutter Cleaning,"ON, BC, AB, QC, MB, SK, NS, NB, NL, PE, NT, NU, YT",Boys In Blue,14169094292,bluechip@live.ca,http://outdatedbrowser.com/en,,,,,https://411.ca/business/search?q=Gutter%20Cleaning&st=on,https://411.ca/business/profile/7809803
411.ca - Gutter Cleaning,Gutter Cleaning,"ON, BC, AB, QC, MB, SK, NS, NB, NL, PE, NT, NU, YT",ERA EXTERIOR SERVICES,15879205170,era.exteriors@yahoo.com,http://outdatedbrowser.com/en,,,,,https://411.ca/business/search?q=Gutter%20Cleaning&st=on,https://411.ca/business/profile/9541476
411.ca - Gutter Cleaning,Gutter Cleaning,"ON, BC, AB, QC, MB, SK, NS, NB, NL, PE, NT, NU, YT",Adam Window and Gutters Cleaning Services,14372375986,,http://outdatedbrowser.com/en,,,,,https://411.ca/business/search?q=Gutter%20Cleaning&st=on,https://411.ca/business/profile/14893230
411.ca - Gutter Cleaning,Gutter Cleaning,"ON, BC, AB, QC, MB, SK, NS, NB, NL, PE, NT, NU, YT",3D Pressure Wash & Property Maintenance,16472156970,corplatinum@gmail.com,http://www.kijiji.ca/v-cleaners-cleaning-service/city-of-toronto/eavestrough-cleaning-special-half-price/1048025308?enableSearchNavigationFlag=true,,,,,https://411.ca/business/search?q=Gutter%20Cleaning&st=on,https://411.ca/business/profile/10064379
411.ca - Gutter Cleaning,Gutter Cleaning,"ON, BC, AB, QC, MB, SK, NS, NB, NL, PE, NT, NU, YT",Solid Eavestrough,16477171127,solideavestrough@gmail.com,http://www.solideavestrough.ca,,,,,https://411.ca/business/search?q=Gutter%20Cleaning&st=on,https://411.ca/business/profile/13833753
411.ca - Gutter Cleaning,Gutter Cleaning,"ON, BC, AB, QC, MB, SK, NS, NB, NL, PE, NT, NU, YT",Tip Top Trough,14167817406,info@tiptoptrough.com,http://www.tiptoptrough.com,,,,,https://411.ca/business/search?q=Gutter%20Cleaning&st=on,https://411.ca/business/profile/7756161
411.ca - Pest Control,Pest Control,"ON, BC, AB, QC, MB, SK, NS, NB, NL, PE, NT, NU, YT",411.ca,14167499184,,http://outdatedbrowser.com/en,,,,,https://411.ca/business/search?q=Pest%20Control&st=on,https://411.ca/business/near-me/business-services?c=25
411.ca - Pest Control,Pest Control,"ON, BC, AB, QC, MB, SK, NS, NB, NL, PE, NT, NU, YT",411.ca,14165568363,hmgpest@gmail.com,http://outdatedbrowser.com/en,,,,,https://411.ca/business/search?q=Pest%20Control&st=on,https://411.ca/business/near-me/bed-bugs-removal?c=25
411.ca - Pest Control,Pest Control,"ON, BC, AB, QC, MB, SK, NS, NB, NL, PE, NT, NU, YT",411.ca,14162254481,,http://outdatedbrowser.com/en,,,,,https://411.ca/business/search?q=Pest%20Control&st=on,https://411.ca/business/near-me/pet-shops?c=25
411.ca - Pest Control,Pest Control,"ON, BC, AB, QC, MB, SK, NS, NB, NL, PE, NT, NU, YT",411.ca,17052772751,,http://outdatedbrowser.com/en,,,,,https://411.ca/business/search?q=Pest%20Control&st=on,https://411.ca/business/near-me/gift-store?c=25
411.ca - Pest Control,Pest Control,"ON, BC, AB, QC, MB, SK, NS, NB, NL, PE, NT, NU, YT",411.ca,14166462439,leaside@urbannaturestore.ca,http://outdatedbrowser.com/en,,,,,https://411.ca/business/search?q=Pest%20Control&st=on,https://411.ca/business/near-me/outdoor-living?c=25
411.ca - Pest Control,Pest Control,"ON, BC, AB, QC, MB, SK, NS, NB, NL, PE, NT, NU, YT",411.ca,14162462256,info@icepest.com,http://outdatedbrowser.com/en,,,,,https://411.ca/business/search?q=Pest%20Control&st=on,https://411.ca/business/near-me/wildlife-removal?c=25
411.ca - Pest Control,Pest Control,"ON, BC, AB, QC, MB, SK, NS, NB, NL, PE, NT, NU, YT",,19057386676,,http://outdatedbrowser.com/en,,,,,https://411.ca/business/search?q=Pest%20Control&st=on,https://411.ca/business/search?q=pest%20control&p=2
411.ca - Pest Control,Pest Control,"ON, BC, AB, QC, MB, SK, NS, NB, NL, PE, NT, NU, YT",Royal Forest Pest Control,14168350124,admin@torontoexterminator.ca,http://www.torontoexterminator.ca,,,,,https://411.ca/business/search?q=Pest%20Control&st=on,https://411.ca/business/profile/5102688
411.ca - Pest Control,Pest Control,"ON, BC, AB, QC, MB, SK, NS, NB, NL, PE, NT, NU, YT",Bed Bugs & Beyond,16479286655,info@bedbugsandbeyond.ca,http://bedbugsandbeyond.ca,,,,,https://411.ca/business/search?q=Pest%20Control&st=on,https://411.ca/business/profile/9457411
411.ca - Pest Control,Pest Control,"ON, BC, AB, QC, MB, SK, NS, NB, NL, PE, NT, NU, YT",24/7 pest control,14168442344,info@247pestcontrol.com,http://247pestcontrol.com/,,,,,https://411.ca/business/search?q=Pest%20Control&st=on,https://411.ca/business/profile/7229200
411.ca - Pest Control,Pest Control,"ON, BC, AB, QC, MB, SK, NS, NB, NL, PE, NT, NU, YT",ABDV Pest Control,14167251493,,http://aabsdonvalleypestcontrolinc.ca,,,,,https://411.ca/business/search?q=Pest%20Control&st=on,https://411.ca/business/profile/10134392
411.ca - Pest Control,Pest Control,"ON, BC, AB, QC, MB, SK, NS, NB, NL, PE, NT, NU, YT",Raccoon Guys The,14165640666,,http://outdatedbrowser.com/en,,,,,https://411.ca/business/search?q=Pest%20Control&st=on,https://411.ca/business/profile/13056021
411.ca - Pest Control,Pest Control,"ON, BC, AB, QC, MB, SK, NS, NB, NL, PE, NT, NU, YT",Magical Pest Control,14166657378,info@magicalpest.ca,http://www.magicalpest.ca,,,,,https://411.ca/business/search?q=Pest%20Control&st=on,https://411.ca/business/profile/1000550
411.ca - Pest Control,Pest Control,"ON, BC, AB, QC, MB, SK, NS, NB, NL, PE, NT, NU, YT",Titan Pest Control,14168221703,contact@sansoxygen.com,http://titanpestcontrol.ca,,,,,https://411.ca/business/search?q=Pest%20Control&st=on,https://411.ca/business/profile/9449003
411.ca - Pest Control,Pest Control,"ON, BC, AB, QC, MB, SK, NS, NB, NL, PE, NT, NU, YT",Cain Pest Control,14168764058,info@cainpestcontrol.com,http://www.cainpestcontrol.com,,,,,https://411.ca/business/search?q=Pest%20Control&st=on,https://411.ca/business/profile/4339929
411.ca - Pest Control,Pest Control,"ON, BC, AB, QC, MB, SK, NS, NB, NL, PE, NT, NU, YT",Birdwatch Nature Shoppe,14167859222,birdwatch@bellnet.ca,http://outdatedbrowser.com/en,,,,,https://411.ca/business/search?q=Pest%20Control&st=on,https://411.ca/business/profile/2756124
411.ca - Pest Control,Pest Control,"ON, BC, AB, QC, MB, SK, NS, NB, NL, PE, NT, NU, YT",Pestend Inc,14167499200,,http://outdatedbrowser.com/en,,,,,https://411.ca/business/search?q=Pest%20Control&st=on,https://411.ca/business/profile/13624015
411.ca - Pest Control,Pest Control,"ON, BC, AB, QC, MB, SK, NS, NB, NL, PE, NT, NU, YT",Bestokill Inc,14168363827,bestokill@hotmail.com,http://bestokill.com,,,,,https://411.ca/business/search?q=Pest%20Control&st=on,https://411.ca/business/profile/2971003
411.ca - Pest Control,Pest Control,"ON, BC, AB, QC, MB, SK, NS, NB, NL, PE, NT, NU, YT",Eliminate,14168338192,,http://outdatedbrowser.com/en,,,,,https://411.ca/business/search?q=Pest%20Control&st=on,https://411.ca/business/profile/9161752
411.ca - Appliance Repair,Appliance Repair,"ON, BC, AB, QC, MB, SK, NS, NB, NL, PE, NT, NU, YT",,14167819111,,http://outdatedbrowser.com/en,,,,,https://411.ca/business/search?q=Appliance%20Repair&st=on,https://411.ca/business/search?q=appliance%20repair&p=2
411.ca - Appliance Repair,Appliance Repair,"ON, BC, AB, QC, MB, SK, NS, NB, NL, PE, NT, NU, YT",411.ca,14166639558,,http://outdatedbrowser.com/en,,,,,https://411.ca/business/search?q=Appliance%20Repair&st=bc,https://411.ca/business/near-me/air-purifying?c=25
411.ca - Appliance Repair,Appliance Repair,"ON, BC, AB, QC, MB, SK, NS, NB, NL, PE, NT, NU, YT",411.ca,14167795164,,http://outdatedbrowser.com/en,,,,,https://411.ca/business/search?q=Appliance%20Repair&st=bc,https://411.ca/business/near-me/gps?c=25
411.ca - Appliance Repair,Appliance Repair,"ON, BC, AB, QC, MB, SK, NS, NB, NL, PE, NT, NU, YT",411.ca,14167514668,,http://outdatedbrowser.com/en,,,,,https://411.ca/business/search?q=Appliance%20Repair&st=bc,https://411.ca/business/near-me/used-home-appliances?c=25
411.ca - Appliance Repair,Appliance Repair,"ON, BC, AB, QC, MB, SK, NS, NB, NL, PE, NT, NU, YT",411.ca,16472182233,toptechappliance146@gmail.com,http://outdatedbrowser.com/en,,,,,https://411.ca/business/search?q=Appliance%20Repair&st=bc,https://411.ca/business/near-me/appliance-installation?c=25
411.ca - Appliance Repair,Appliance Repair,"ON, BC, AB, QC, MB, SK, NS, NB, NL, PE, NT, NU, YT",Megapolis Appliance Service,14168576024,service@megapolisapplianceservice.com,http://outdatedbrowser.com/en,,,,,https://411.ca/business/search?q=Appliance%20Repair&st=on,https://411.ca/business/profile/7104571
411.ca - Appliance Repair,Appliance Repair,"ON, BC, AB, QC, MB, SK, NS, NB, NL, PE, NT, NU, YT",V T Services,14166319758,,http://outdatedbrowser.com/en,,,,,https://411.ca/business/search?q=Appliance%20Repair&st=on,https://411.ca/business/profile/2730949
411.ca - Appliance Repair,Appliance Repair,"ON, BC, AB, QC, MB, SK, NS, NB, NL, PE, NT, NU, YT",Scrubby's,16472982939,kypaul.lee@gmail.com,http://outdatedbrowser.com/en,,,,,https://411.ca/business/search?q=Appliance%20Repair&st=on,https://411.ca/business/profile/2702894
411.ca - Appliance Repair,Appliance Repair,"ON, BC, AB, QC, MB, SK, NS, NB, NL, PE, NT, NU, YT",Elite Appliances,14168480670,,http://outdatedbrowser.com/en,,,,,https://411.ca/business/search?q=Appliance%20Repair&st=on,https://411.ca/business/profile/4561604
411.ca - Appliance Repair,Appliance Repair,"ON, BC, AB, QC, MB, SK, NS, NB, NL, PE, NT, NU, YT",Sobie's Appliance Repairs,16472072526,,http://outdatedbrowser.com/en,,,,,https://411.ca/business/search?q=Appliance%20Repair&st=on,https://411.ca/business/profile/7766017
411.ca - Appliance Repair,Appliance Repair,"ON, BC, AB, QC, MB, SK, NS, NB, NL, PE, NT, NU, YT",Chong Gyun Cho Tomothy Uhak,14165901614,,http://outdatedbrowser.com/en,,,,,https://411.ca/business/search?q=Appliance%20Repair&st=on,https://411.ca/business/profile/6356045
411.ca - Appliance Repair,Appliance Repair,"ON, BC, AB, QC, MB, SK, NS, NB, NL, PE, NT, NU, YT",Appliances Repair Toronto,16479319161,,http://www.abcappliancestoronto.ca,,,,,https://411.ca/business/search?q=Appliance%20Repair&st=on,https://411.ca/business/profile/9583797
411.ca - Appliance Repair,Appliance Repair,"ON, BC, AB, QC, MB, SK, NS, NB, NL, PE, NT, NU, YT",Appliance Masters,14164439020,,http://outdatedbrowser.com/en,,,,,https://411.ca/business/search?q=Appliance%20Repair&st=on,https://411.ca/business/profile/13692201
411.ca - Appliance Repair,Appliance Repair,"ON, BC, AB, QC, MB, SK, NS, NB, NL, PE, NT, NU, YT",Richmond Hill Appliance Repair,16475157005,,http://outdatedbrowser.com/en,,,,,https://411.ca/business/search?q=Appliance%20Repair&st=on,https://411.ca/business/profile/14205135
411.ca - Appliance Repair,Appliance Repair,"ON, BC, AB, QC, MB, SK, NS, NB, NL, PE, NT, NU, YT",North York Appliance Repair,14166332531,,http://outdatedbrowser.com/en,,,,,https://411.ca/business/search?q=Appliance%20Repair&st=on,https://411.ca/business/profile/4520919
411.ca - Appliance Repair,Appliance Repair,"ON, BC, AB, QC, MB, SK, NS, NB, NL, PE, NT, NU, YT",Henderson R G,14162686316,,http://outdatedbrowser.com/en,,,,,https://411.ca/business/search?q=Appliance%20Repair&st=on,https://411.ca/business/profile/2685480
411.ca - Appliance Repair,Appliance Repair,"ON, BC, AB, QC, MB, SK, NS, NB, NL, PE, NT, NU, YT",Appliance Repair Center,18555253999,info@appliancerepaircenterinc.ca,http://www.appliancerepaircenterinc.ca,,,,,https://411.ca/business/search?q=Appliance%20Repair&st=on,https://411.ca/business/profile/10242377
411.ca - Appliance Repair,Appliance Repair,"ON, BC, AB, QC, MB, SK, NS, NB, NL, PE, NT, NU, YT",Gary's Appliance Repairs,14167385484,missislater@hotmail.com,http://www.garysappliance.ca,,,,,https://411.ca/business/search?q=Appliance%20Repair&st=on,https://411.ca/business/profile/7692883
411.ca - Moving,Moving,"ON, BC, AB, QC, MB, SK, NS, NB, NL, PE, NT, NU, YT",,14168164455,,http://outdatedbrowser.com/en,,,,,https://411.ca/business/search?q=Moving&st=on,https://411.ca/business/search?q=moving&p=2
411.ca - Moving,Moving,"ON, BC, AB, QC, MB, SK, NS, NB, NL, PE, NT, NU, YT",411.ca,14162214224,,http://outdatedbrowser.com/en,,,,,https://411.ca/business/search?q=Moving&st=bc,https://411.ca/business/near-me/management-consultants?c=25
411.ca - Moving,Moving,"ON, BC, AB, QC, MB, SK, NS, NB, NL, PE, NT, NU, YT",411.ca,14168349846,,http://outdatedbrowser.com/en,,,,,https://411.ca/business/search?q=Moving&st=bc,https://411.ca/business/near-me/industrial-moving?c=25
411.ca - Moving,Moving,"ON, BC, AB, QC, MB, SK, NS, NB, NL, PE, NT, NU, YT",411.ca,18777115577,sales@easymoving.ca,http://outdatedbrowser.com/en,,,,,https://411.ca/business/search?q=Moving&st=bc,https://411.ca/business/near-me/storage?c=25
411.ca - Moving,Moving,"ON, BC, AB, QC, MB, SK, NS, NB, NL, PE, NT, NU, YT",411.ca,14166654441,,http://outdatedbrowser.com/en,,,,,https://411.ca/business/search?q=Moving&st=bc,https://411.ca/business/near-me/self-storage?c=25
411.ca - Moving,Moving,"ON, BC, AB, QC, MB, SK, NS, NB, NL, PE, NT, NU, YT",411.ca,16478850450,thecanadamovers@gmail.com,http://outdatedbrowser.com/en,,,,,https://411.ca/business/search?q=Moving&st=bc,https://411.ca/business/near-me/commercial-movers?c=25
411.ca - Moving,Moving,"ON, BC, AB, QC, MB, SK, NS, NB, NL, PE, NT, NU, YT",411.ca,14164244691,,http://outdatedbrowser.com/en,,,,,https://411.ca/business/search?q=Moving&st=bc,https://411.ca/business/near-me/movers?c=25
411.ca - Moving,Moving,"ON, BC, AB, QC, MB, SK, NS, NB, NL, PE, NT, NU, YT",UPS Movers,16476945853,info@upsmovers.com,http://outdatedbrowser.com/en,,,,,https://411.ca/business/search?q=Moving&st=on,https://411.ca/business/profile/9541903
411.ca - Moving,Moving,"ON, BC, AB, QC, MB, SK, NS, NB, NL, PE, NT, NU, YT",Tender Touch Moving & Storage,19059189796,,http://outdatedbrowser.com/en,,,,,https://411.ca/business/search?q=Moving&st=on,https://411.ca/business/profile/13980679
411.ca - Moving,Moving,"ON, BC, AB, QC, MB, SK, NS, NB, NL, PE, NT, NU, YT",Word Of Mouth Movers,16477486687,,http://outdatedbrowser.com/en,,,,,https://411.ca/business/search?q=Moving&st=on,https://411.ca/business/profile/13744957
411.ca - Moving,Moving,"ON, BC, AB, QC, MB, SK, NS, NB, NL, PE, NT, NU, YT",High Level Movers,14167369681,,http://outdatedbrowser.com/en,,,,,https://411.ca/business/search?q=Moving&st=on,https://411.ca/business/profile/4583738
411.ca - Moving,Moving,"ON, BC, AB, QC, MB, SK, NS, NB, NL, PE, NT, NU, YT",Dream Star Bedding Ltd,14162453226,,http://outdatedbrowser.com/en,,,,,https://411.ca/business/search?q=Moving&st=on,https://411.ca/business/profile/4503122
411.ca - Moving,Moving,"ON, BC, AB, QC, MB, SK, NS, NB, NL, PE, NT, NU, YT",Elite GTA Movers,16478751302,elite.gtamovers@gmail.com,http://www.elitegtamovers.com,,,,,https://411.ca/business/search?q=Moving&st=on,https://411.ca/business/profile/9460200
411.ca - Moving,Moving,"ON, BC, AB, QC, MB, SK, NS, NB, NL, PE, NT, NU, YT",Smart Moving,16479908602,Mikeladzejondo@yahoo.ca,http://outdatedbrowser.com/en,,,,,https://411.ca/business/search?q=Moving&st=on,https://411.ca/business/profile/7203266
411.ca - Moving,Moving,"ON, BC, AB, QC, MB, SK, NS, NB, NL, PE, NT, NU, YT",MAN and a VAN,16478929493,janosrmarton@gmail.com,http://my411.ca/6478929493/,,,,,https://411.ca/business/search?q=Moving&st=on,https://411.ca/business/profile/7027909
411.ca - Moving,Moving,"ON, BC, AB, QC, MB, SK, NS, NB, NL, PE, NT, NU, YT",Central Self Storage,14166616767,,http://outdatedbrowser.com/en,,,,,https://411.ca/business/search?q=Moving&st=on,https://411.ca/business/profile/2735620
411.ca - Moving,Moving,"ON, BC, AB, QC, MB, SK, NS, NB, NL, PE, NT, NU, YT",Vital Movers,16478081297,info@vitalmovers.com,http://www.movingcompanytorontoteam.com,,,,,https://411.ca/business/search?q=Moving&st=on,https://411.ca/business/profile/9471107
411.ca - Moving,Moving,"ON, BC, AB, QC, MB, SK, NS, NB, NL, PE, NT, NU, YT",PrimeCity Woodbridge Movers,12894745047,,http://PrimecityWoodbridgeMovers.com/,,,,,https://411.ca/business/search?q=Moving&st=on,https://411.ca/business/profile/9545534
411.ca - Junk Removal,Junk Removal,"ON, BC, AB, QC, MB, SK, NS, NB, NL, PE, NT, NU, YT",,16478364611,,http://outdatedbrowser.com/en,,,,,https://411.ca/business/search?q=Junk%20Removal&st=on,https://411.ca/business/search?q=junk%20removal&p=2
411.ca - Junk Removal,Junk Removal,"ON, BC, AB, QC, MB, SK, NS, NB, NL, PE, NT, NU, YT",411.ca,14163982500,jgagne@abrams.ca,http://outdatedbrowser.com/en,,,,,https://411.ca/business/search?q=Junk%20Removal&st=bc,https://411.ca/business/near-me/roadside-assistance?c=25
411.ca - Junk Removal,Junk Removal,"ON, BC, AB, QC, MB, SK, NS, NB, NL, PE, NT, NU, YT",411.ca,15194571566,sally.tavares@tryrecycling.com,http://outdatedbrowser.com/en,,,,,https://411.ca/business/search?q=Junk%20Removal&st=bc,https://411.ca/business/near-me/junk-removal?c=25
411.ca - Junk Removal,Junk Removal,"ON, BC, AB, QC, MB, SK, NS, NB, NL, PE, NT, NU, YT",A-Can Cleaning Services,14166303546,,http://outdatedbrowser.com/en,,,,,https://411.ca/business/search?q=Junk%20Removal&st=on,https://411.ca/business/profile/13898024
411.ca - Junk Removal,Junk Removal,"ON, BC, AB, QC, MB, SK, NS, NB, NL, PE, NT, NU, YT",Joe Green Junk Removal,14164353323,joegreen@rogers.com,http://outdatedbrowser.com/en,,,,,https://411.ca/business/search?q=Junk%20Removal&st=on,https://411.ca/business/profile/7340558
411.ca - Junk Removal,Junk Removal,"ON, BC, AB, QC, MB, SK, NS, NB, NL, PE, NT, NU, YT",Des O'leary Disposal,14164550019,desolearydisposal@rogers.com,http://www.junkremovalservices.ca,,,,,https://411.ca/business/search?q=Junk%20Removal&st=on,https://411.ca/business/profile/7677782
411.ca - Junk Removal,Junk Removal,"ON, BC, AB, QC, MB, SK, NS, NB, NL, PE, NT, NU, YT",www.gtatrashanddelivery.com,14165611066,,http://outdatedbrowser.com/en,,,,,https://411.ca/business/search?q=Junk%20Removal&st=on,https://411.ca/business/profile/13364793
411.ca - Junk Removal,Junk Removal,"ON, BC, AB, QC, MB, SK, NS, NB, NL, PE, NT, NU, YT",Junk Nation Ltd.,16479988775,,http://outdatedbrowser.com/en,,,,,https://411.ca/business/search?q=Junk%20Removal&st=on,https://411.ca/business/profile/9588986
411.ca - Junk Removal,Junk Removal,"ON, BC, AB, QC, MB, SK, NS, NB, NL, PE, NT, NU, YT",RT Junk Removal,16478602383,rafael.rpereira@globo.com,http://outdatedbrowser.com/en,,,,,https://411.ca/business/search?q=Junk%20Removal&st=on,https://411.ca/business/profile/10664229
411.ca - Junk Removal,Junk Removal,"ON, BC, AB, QC, MB, SK, NS, NB, NL, PE, NT, NU, YT",Personalized Pet Portraits,18774367487,,http://www.ateliercanada.com,,,,,https://411.ca/business/search?q=Junk%20Removal&st=on,https://411.ca/business/profile/10115034
411.ca - Junk Removal,Junk Removal,"ON, BC, AB, QC, MB, SK, NS, NB, NL, PE, NT, NU, YT",Canada Junk Removal,18889795865,info@canadajunk.com,http://canadajunk.com/,,,,,https://411.ca/business/search?q=Junk%20Removal&st=on,https://411.ca/business/profile/7518835
411.ca - Junk Removal,Junk Removal,"ON, BC, AB, QC, MB, SK, NS, NB, NL, PE, NT, NU, YT",Lawn Care & Junk Removal,16472160763,,http://outdatedbrowser.com/en,,,,,https://411.ca/business/search?q=Junk%20Removal&st=on,https://411.ca/business/profile/9767762
411.ca - Junk Removal,Junk Removal,"ON, BC, AB, QC, MB, SK, NS, NB, NL, PE, NT, NU, YT",For Junk,16475309678,,http://u749907.411web.ca/,,,,,https://411.ca/business/search?q=Junk%20Removal&st=on,https://411.ca/business/profile/10663595
411.ca - Junk Removal,Junk Removal,"ON, BC, AB, QC, MB, SK, NS, NB, NL, PE, NT, NU, YT",Junk Gone,16477011899,,http://outdatedbrowser.com/en,,,,,https://411.ca/business/search?q=Junk%20Removal&st=on,https://411.ca/business/profile/9455966
411.ca - Junk Removal,Junk Removal,"ON, BC, AB, QC, MB, SK, NS, NB, NL, PE, NT, NU, YT",Junk Works,16477278980,,http://www.junk-works.ca/locations/toronto-north,,,,,https://411.ca/business/search?q=Junk%20Removal&st=on,https://411.ca/business/profile/10123451
411.ca - Junk Removal,Junk Removal,"ON, BC, AB, QC, MB, SK, NS, NB, NL, PE, NT, NU, YT",yard,14168991384,,http://toronto.kijiji.ca/c-services-other-TREE-YARD-CLEANUP-PLANTING-LANDSCAPING-UNIVERSAL-LABORER-W0QQAdIdZ577247953,,,,,https://411.ca/business/search?q=Junk%20Removal&st=on,https://411.ca/business/profile/9427008
411.ca - Locksmith,Locksmith,"ON, BC, AB, QC, MB, SK, NS, NB, NL, PE, NT, NU, YT",,14168806960,,http://outdatedbrowser.com/en,,,,,https://411.ca/business/search?q=Locksmith&st=on,https://411.ca/business/search?q=locksmith&p=2
411.ca - Locksmith,Locksmith,"ON, BC, AB, QC, MB, SK, NS, NB, NL, PE, NT, NU, YT",TriMark Maintenance,14163983678,,http://www.trimarkmaintenance.com,,,,,https://411.ca/business/search?q=Locksmith&st=on,https://411.ca/business/profile/2700870
411.ca - Locksmith,Locksmith,"ON, BC, AB, QC, MB, SK, NS, NB, NL, PE, NT, NU, YT",JJ Locksmiths,16479334522,,http://outdatedbrowser.com/en,,,,,https://411.ca/business/search?q=Locksmith&st=on,https://411.ca/business/profile/13215347
411.ca - Locksmith,Locksmith,"ON, BC, AB, QC, MB, SK, NS, NB, NL, PE, NT, NU, YT",FC Locksmith,14166194912,,https://www.fc-locksmith.com,,,,,https://411.ca/business/search?q=Locksmith&st=on,https://411.ca/business/profile/7719411
411.ca - Locksmith,Locksmith,"ON, BC, AB, QC, MB, SK, NS, NB, NL, PE, NT, NU, YT",Citywide Locksmiths,14167891213,antiquedahw@gmail.com,http://www.cwladh.com,,,,,https://411.ca/business/search?q=Locksmith&st=on,https://411.ca/business/profile/1189032
411.ca - Locksmith,Locksmith,"ON, BC, AB, QC, MB, SK, NS, NB, NL, PE, NT, NU, YT",KDL Locksmith,14163030255,kdl_locksmith@yahoo.ca,http://www.kdllock.ca,,,,,https://411.ca/business/search?q=Locksmith&st=on,https://411.ca/business/profile/952940
411.ca - Locksmith,Locksmith,"ON, BC, AB, QC, MB, SK, NS, NB, NL, PE, NT, NU, YT",Lock Installer,14168762648,,http://u670975.411web.ca,,,,,https://411.ca/business/search?q=Locksmith&st=on,https://411.ca/business/profile/9161132
411.ca - Locksmith,Locksmith,"ON, BC, AB, QC, MB, SK, NS, NB, NL, PE, NT, NU, YT",Dan's Towing,17052687713,,http://outdatedbrowser.com/en,,,,,https://411.ca/business/search?q=Locksmith&st=on,https://411.ca/business/profile/2886877
411.ca - Locksmith,Locksmith,"ON, BC, AB, QC, MB, SK, NS, NB, NL, PE, NT, NU, YT",CENTURY LOCKSMITHS,14167897066,,http://outdatedbrowser.com/en,,,,,https://411.ca/business/search?q=Locksmith&st=on,https://411.ca/business/profile/12385459
411.ca - Locksmith,Locksmith,"ON, BC, AB, QC, MB, SK, NS, NB, NL, PE, NT, NU, YT",Car Key Replacement,16473671509,,http://carkeyreplacements.ca,,,,,https://411.ca/business/search?q=Locksmith&st=on,https://411.ca/business/profile/10081801
411.ca - Locksmith,Locksmith,"ON, BC, AB, QC, MB, SK, NS, NB, NL, PE, NT, NU, YT",Locksmith On The Way Inc,18884551323,,http://www.locksmithtorontoontario.com,,,,,https://411.ca/business/search?q=Locksmith&st=on,https://411.ca/business/profile/7741884
411.ca - Locksmith,Locksmith,"ON, BC, AB, QC, MB, SK, NS, NB, NL, PE, NT, NU, YT",Reilly's Lock and Security Systems,14169215101,sl@reillylock.com,http://reillylock.com,,,,,https://411.ca/business/search?q=Locksmith&st=on,https://411.ca/business/profile/1196029
411.ca - Security Systems,Security Systems,"ON, BC, AB, QC, MB, SK, NS, NB, NL, PE, NT, NU, YT",411.ca,14167437575,,http://outdatedbrowser.com/en,,,,,https://411.ca/business/search?q=Security%20Systems&st=on,https://411.ca/business/near-me/video-equipment?c=25
411.ca - Security Systems,Security Systems,"ON, BC, AB, QC, MB, SK, NS, NB, NL, PE, NT, NU, YT",411.ca,14169015812,,http://outdatedbrowser.com/en,,,,,https://411.ca/business/search?q=Security%20Systems&st=on,https://411.ca/business/near-me/home-alarms?c=25
411.ca - Security Systems,Security Systems,"ON, BC, AB, QC, MB, SK, NS, NB, NL, PE, NT, NU, YT",411.ca,14162767671,,http://outdatedbrowser.com/en,,,,,https://411.ca/business/search?q=Security%20Systems&st=on,https://411.ca/business/near-me/wireless-technologies?c=25
411.ca - Security Systems,Security Systems,"ON, BC, AB, QC, MB, SK, NS, NB, NL, PE, NT, NU, YT",411.ca,19057307485,,http://outdatedbrowser.com/en,,,,,https://411.ca/business/search?q=Security%20Systems&st=on,https://411.ca/business/near-me/security-monitoring?c=25
411.ca - Security Systems,Security Systems,"ON, BC, AB, QC, MB, SK, NS, NB, NL, PE, NT, NU, YT",411.ca,18332924868,jbon@cyberhunter.solutions,http://outdatedbrowser.com/en,,,,,https://411.ca/business/search?q=Security%20Systems&st=on,https://411.ca/business/near-me/security-systems?c=25
411.ca - Security Systems,Security Systems,"ON, BC, AB, QC, MB, SK, NS, NB, NL, PE, NT, NU, YT",411.ca,14167523010,sales@canmill.com,http://outdatedbrowser.com/en,,,,,https://411.ca/business/search?q=Security%20Systems&st=on,https://411.ca/business/near-me/security?c=25
411.ca - Security Systems,Security Systems,"ON, BC, AB, QC, MB, SK, NS, NB, NL, PE, NT, NU, YT",411.ca,14166658143,,http://outdatedbrowser.com/en,,,,,https://411.ca/business/search?q=Security%20Systems&st=on,https://411.ca/business/near-me/ladders?c=25
411.ca - Security Systems,Security Systems,"ON, BC, AB, QC, MB, SK, NS, NB, NL, PE, NT, NU, YT",,14168324662,,http://outdatedbrowser.com/en,,,,,https://411.ca/business/search?q=Security%20Systems&st=on,https://411.ca/business/search?q=security%20systems&p=2
411.ca - Security Systems,Security Systems,"ON, BC, AB, QC, MB, SK, NS, NB, NL, PE, NT, NU, YT",Identica Corp,14166400681,,http://outdatedbrowser.com/en,,,,,https://411.ca/business/search?q=Security%20Systems&st=on,https://411.ca/business/profile/13225549
411.ca - Security Systems,Security Systems,"ON, BC, AB, QC, MB, SK, NS, NB, NL, PE, NT, NU, YT",Golan Alarm,14167840505,,http://outdatedbrowser.com/en,,,,,https://411.ca/business/search?q=Security%20Systems&st=on,https://411.ca/business/profile/6128107
411.ca - Security Systems,Security Systems,"ON, BC, AB, QC, MB, SK, NS, NB, NL, PE, NT, NU, YT",Kelron Inc,14164447823,,http://outdatedbrowser.com/en,,,,,https://411.ca/business/search?q=Security%20Systems&st=on,https://411.ca/business/profile/2706291
411.ca - Security Systems,Security Systems,"ON, BC, AB, QC, MB, SK, NS, NB, NL, PE, NT, NU, YT",Security Technologies,14165448262,,http://www.profilon.ca,,,,,https://411.ca/business/search?q=Security%20Systems&st=on,https://411.ca/business/profile/2723735
411.ca - Security Systems,Security Systems,"ON, BC, AB, QC, MB, SK, NS, NB, NL, PE, NT, NU, YT",New Enterprise,14167376618,,http://outdatedbrowser.com/en,,,,,https://411.ca/business/search?q=Security%20Systems&st=on,https://411.ca/business/profile/7627982
411.ca - Security Systems,Security Systems,"ON, BC, AB, QC, MB, SK, NS, NB, NL, PE, NT, NU, YT",Into Electronics,14164458274,,http://outdatedbrowser.com/en,,,,,https://411.ca/business/search?q=Security%20Systems&st=on,https://411.ca/business/profile/2706596
411.ca - Security Systems,Security Systems,"ON, BC, AB, QC, MB, SK, NS, NB, NL, PE, NT, NU, YT",Alen Corporation,16472341360,alen.corporation@yahoo.com,http://outdatedbrowser.com/en,,,,,https://411.ca/business/search?q=Security%20Systems&st=on,https://411.ca/business/profile/14331853
411.ca - Security Systems,Security Systems,"ON, BC, AB, QC, MB, SK, NS, NB, NL, PE, NT, NU, YT",FrequencyWare Inc.,16474765255,info@frequencyware.com,http://www.frequencyware.com,,,,,https://411.ca/business/search?q=Security%20Systems&st=on,https://411.ca/business/profile/13361061
411.ca - Security Systems,Security Systems,"ON, BC, AB, QC, MB, SK, NS, NB, NL, PE, NT, NU, YT",Foscam Canada,14168004563,sales@foscamcanada.com,http://u772511.411web.ca/,,,,,https://411.ca/business/search?q=Security%20Systems&st=on,https://411.ca/business/profile/13641735
411.ca - Security Systems,Security Systems,"ON, BC, AB, QC, MB, SK, NS, NB, NL, PE, NT, NU, YT",Systems.,18889393733,,http://www.safetechalarms.com,,,,,https://411.ca/business/search?q=Security%20Systems&st=on,https://411.ca/business/profile/1187232
411.ca - Siding,Siding,"ON, BC, AB, QC, MB, SK, NS, NB, NL, PE, NT, NU, YT",,16135452617,,http://outdatedbrowser.com/en,,,,,https://411.ca/business/search?q=Siding&st=on,https://411.ca/business/search?q=siding&p=2
411.ca - Siding,Siding,"ON, BC, AB, QC, MB, SK, NS, NB, NL, PE, NT, NU, YT",Ace Siding & Roofing,15195411481,,http://outdatedbrowser.com/en,,,,,https://411.ca/business/search?q=Siding&st=on,https://411.ca/business/profile/5103711
411.ca - Siding,Siding,"ON, BC, AB, QC, MB, SK, NS, NB, NL, PE, NT, NU, YT",411.ca,19056782112,,http://outdatedbrowser.com/en,,,,,https://411.ca/business/search?q=Siding&st=ab,https://411.ca/business/near-me/metals?c=25
411.ca - Siding,Siding,"ON, BC, AB, QC, MB, SK, NS, NB, NL, PE, NT, NU, YT",411.ca,19059901800,info@window-land.com,http://outdatedbrowser.com/en,,,,,https://411.ca/business/search?q=Siding&st=ab,https://411.ca/business/near-me/windows?c=25
411.ca - Siding,Siding,"ON, BC, AB, QC, MB, SK, NS, NB, NL, PE, NT, NU, YT",Royal Peaks Roofing&Siding,19057687663,,http://outdatedbrowser.com/en,,,,,https://411.ca/business/search?q=Siding&st=on,https://411.ca/business/profile/4617292
411.ca - Siding,Siding,"ON, BC, AB, QC, MB, SK, NS, NB, NL, PE, NT, NU, YT",Above Russ Roofing and Siding Solutions,14169108033,gashawkass@yahoo.ca,http://outdatedbrowser.com/en,,,,,https://411.ca/business/search?q=Siding&st=on,https://411.ca/business/profile/7747501
411.ca - Siding,Siding,"ON, BC, AB, QC, MB, SK, NS, NB, NL, PE, NT, NU, YT",Rexdale Aluminum,14168545571,,http://outdatedbrowser.com/en,,,,,https://411.ca/business/search?q=Siding&st=on,https://411.ca/business/profile/13112959
411.ca - Siding,Siding,"ON, BC, AB, QC, MB, SK, NS, NB, NL, PE, NT, NU, YT",SV Commercial Siding,19057617910,,http://outdatedbrowser.com/en,,,,,https://411.ca/business/search?q=Siding&st=on,https://411.ca/business/profile/14095579
411.ca - Siding,Siding,"ON, BC, AB, QC, MB, SK, NS, NB, NL, PE, NT, NU, YT",Custom Aluminum Windows&Siding Ltd,14166221329,,http://outdatedbrowser.com/en,,,,,https://411.ca/business/search?q=Siding&st=on,https://411.ca/business/profile/4578465
411.ca - Siding,Siding,"ON, BC, AB, QC, MB, SK, NS, NB, NL, PE, NT, NU, YT",Kaycan Ltd,14167470887,,http://outdatedbrowser.com/en,,,,,https://411.ca/business/search?q=Siding&st=on,https://411.ca/business/profile/4582556
411.ca - Siding,Siding,"ON, BC, AB, QC, MB, SK, NS, NB, NL, PE, NT, NU, YT",Valutec Windows & Renovations,14162313686,,http://outdatedbrowser.com/en,,,,,https://411.ca/business/search?q=Siding&st=on,https://411.ca/business/profile/12326595
411.ca - Siding,Siding,"ON, BC, AB, QC, MB, SK, NS, NB, NL, PE, NT, NU, YT",Home Siding Co Inc,14162217257,,http://outdatedbrowser.com/en,,,,,https://411.ca/business/search?q=Siding&st=on,https://411.ca/business/profile/14158345
411.ca - Siding,Siding,"ON, BC, AB, QC, MB, SK, NS, NB, NL, PE, NT, NU, YT",Moncada Windows Doors & Siding,16477921380,,http://outdatedbrowser.com/en,,,,,https://411.ca/business/search?q=Siding&st=on,https://411.ca/business/profile/13777859
411.ca - Siding,Siding,"ON, BC, AB, QC, MB, SK, NS, NB, NL, PE, NT, NU, YT",Ultimate Siding,14165708054,,http://outdatedbrowser.com/en,,,,,https://411.ca/business/search?q=Siding&st=on,https://411.ca/business/profile/6240390
411.ca - Siding,Siding,"ON, BC, AB, QC, MB, SK, NS, NB, NL, PE, NT, NU, YT",Ari Aluminum,14168416333,info@arialuminum.ca,http://u677129.411web.ca,,,,,https://411.ca/business/search?q=Siding&st=on,https://411.ca/business/profile/9610920
411.ca - Siding,Siding,"ON, BC, AB, QC, MB, SK, NS, NB, NL, PE, NT, NU, YT",M Aluminum,14163984362,,http://outdatedbrowser.com/en,,,,,https://411.ca/business/search?q=Siding&st=on,https://411.ca/business/profile/2700901
411.ca - Siding,Siding,"ON, BC, AB, QC, MB, SK, NS, NB, NL, PE, NT, NU, YT",High Quality Roofing & Siding,14164935289,,http://outdatedbrowser.com/en,,,,,https://411.ca/business/search?q=Siding&st=on,https://411.ca/business/profile/13112875
411.ca - Siding,Siding,"ON, BC, AB, QC, MB, SK, NS, NB, NL, PE, NT, NU, YT",Royal Custom Aluminum Installations Inc,16476912973,,http://outdatedbrowser.com/en,,,,,https://411.ca/business/search?q=Siding&st=on,https://411.ca/business/profile/12585063
411.ca - Concrete,Concrete,"ON, BC, AB, QC, MB, SK, NS, NB, NL, PE, NT, NU, YT",,19052652324,,http://outdatedbrowser.com/en,,,,,https://411.ca/business/search?q=Concrete&st=on,https://411.ca/business/search?q=concrete&p=2
411.ca - Concrete,Concrete,"ON, BC, AB, QC, MB, SK, NS, NB, NL, PE, NT, NU, YT",411.ca,16477610283,,http://outdatedbrowser.com/en,,,,,https://411.ca/business/search?q=Concrete&st=bc,https://411.ca/business/near-me/concrete-construction-accessories?c=25
411.ca - Concrete,Concrete,"ON, BC, AB, QC, MB, SK, NS, NB, NL, PE, NT, NU, YT",411.ca,14168267172,inchbyinchhealthyhomes@gmail.com,http://outdatedbrowser.com/en,,,,,https://411.ca/business/search?q=Concrete&st=bc,https://411.ca/business/near-me/waterproofing-contractors?c=25
411.ca - Concrete,Concrete,"ON, BC, AB, QC, MB, SK, NS, NB, NL, PE, NT, NU, YT",411.ca,15195902695,,http://outdatedbrowser.com/en,,,,,https://411.ca/business/search?q=Concrete&st=bc,https://411.ca/business/near-me/insulation-materials?c=25
411.ca - Concrete,Concrete,"ON, BC, AB, QC, MB, SK, NS, NB, NL, PE, NT, NU, YT",411.ca,14163226868,,http://outdatedbrowser.com/en,,,,,https://411.ca/business/search?q=Concrete&st=bc,https://411.ca/business/near-me/building-supplies?c=25
411.ca - Concrete,Concrete,"ON, BC, AB, QC, MB, SK, NS, NB, NL, PE, NT, NU, YT",411.ca,16479667867,,http://outdatedbrowser.com/en,,,,,https://411.ca/business/search?q=Concrete&st=bc,https://411.ca/business/near-me/concrete-pumping?c=25
411.ca - Concrete,Concrete,"ON, BC, AB, QC, MB, SK, NS, NB, NL, PE, NT, NU, YT",Quadform Ltd,14167694944,,http://outdatedbrowser.com/en,,,,,https://411.ca/business/search?q=Concrete&st=on,https://411.ca/business/profile/2752941
411.ca - Concrete,Concrete,"ON, BC, AB, QC, MB, SK, NS, NB, NL, PE, NT, NU, YT",Triplecrete Limited,14167425090,,http://triplecrete.com,,,,,https://411.ca/business/search?q=Concrete&st=on,https://411.ca/business/profile/2744567
411.ca - Concrete,Concrete,"ON, BC, AB, QC, MB, SK, NS, NB, NL, PE, NT, NU, YT",Any-Wall Concrete Forming Inc,14167428537,,http://outdatedbrowser.com/en,,,,,https://411.ca/business/search?q=Concrete&st=on,https://411.ca/business/profile/2744731
411.ca - Concrete,Concrete,"ON, BC, AB, QC, MB, SK, NS, NB, NL, PE, NT, NU, YT",Go 2 Waterproofing & Concrete,14167418628,,http://outdatedbrowser.com/en,,,,,https://411.ca/business/search?q=Concrete&st=on,https://411.ca/business/profile/13460695
411.ca - Concrete,Concrete,"ON, BC, AB, QC, MB, SK, NS, NB, NL, PE, NT, NU, YT",Dirm,14166389081,,http://outdatedbrowser.com/en,,,,,https://411.ca/business/search?q=Concrete&st=on,https://411.ca/business/profile/2732444
411.ca - Concrete,Concrete,"ON, BC, AB, QC, MB, SK, NS, NB, NL, PE, NT, NU, YT",Amvic Building System,14164105674,info@amvicsystem.com,http://www.amvicsystem.com,,,,,https://411.ca/business/search?q=Concrete&st=on,https://411.ca/business/profile/6228641
411.ca - Concrete,Concrete,"ON, BC, AB, QC, MB, SK, NS, NB, NL, PE, NT, NU, YT",Royal Stone Interlock and Concrete,19052642263,,http://outdatedbrowser.com/en,,,,,https://411.ca/business/search?q=Concrete&st=on,https://411.ca/business/profile/7626028
411.ca - Concrete,Concrete,"ON, BC, AB, QC, MB, SK, NS, NB, NL, PE, NT, NU, YT",Sunrise Contracting,14167411258,,http://outdatedbrowser.com/en,,,,,https://411.ca/business/search?q=Concrete&st=on,https://411.ca/business/profile/2743910
411.ca - Concrete,Concrete,"ON, BC, AB, QC, MB, SK, NS, NB, NL, PE, NT, NU, YT",Metrix Ready Mix LTD,19057447400,,http://outdatedbrowser.com/en,,,,,https://411.ca/business/search?q=Concrete&st=on,https://411.ca/business/profile/13937111
411.ca - Concrete,Concrete,"ON, BC, AB, QC, MB, SK, NS, NB, NL, PE, NT, NU, YT",Mega Wall Concrete Formin,14162079912,,http://outdatedbrowser.com/en,,,,,https://411.ca/business/search?q=Concrete&st=on,https://411.ca/business/profile/12451951
411.ca - Concrete,Concrete,"ON, BC, AB, QC, MB, SK, NS, NB, NL, PE, NT, NU, YT",Modernscape Concrete Design Inc,14166357227,,http://outdatedbrowser.com/en,,,,,https://411.ca/business/search?q=Concrete&st=on,https://411.ca/business/profile/14065191
411.ca - Concrete,Concrete,"ON, BC, AB, QC, MB, SK, NS, NB, NL, PE, NT, NU, YT",Ontario Formwork Co,14164495242,,http://outdatedbrowser.com/en,,,,,https://411.ca/business/search?q=Concrete&st=on,https://411.ca/business/profile/2959140
411.ca - Concrete,Concrete,"ON, BC, AB, QC, MB, SK, NS, NB, NL, PE, NT, NU, YT",Nova-Con Concrete Finishing,14163057665,novaconconcretefinishing@gmail.com,http://novaconconcretefinishing.ca,,,,,https://411.ca/business/search?q=Concrete&st=on,https://411.ca/business/profile/10807654
411.ca - Tree Service,Tree Service,"ON, BC, AB, QC, MB, SK, NS, NB, NL, PE, NT, NU, YT",411.ca,14169676141,,http://outdatedbrowser.com/en,,,,,https://411.ca/business/search?q=Tree%20Service&st=on,https://411.ca/business/near-me/television-producers?c=25
411.ca - Tree Service,Tree Service,"ON, BC, AB, QC, MB, SK, NS, NB, NL, PE, NT, NU, YT",,14163774544,,http://outdatedbrowser.com/en,,,,,https://411.ca/business/search?q=Tree%20Service&st=on,https://411.ca/business/search?q=tree%20service&p=2
411.ca - Tree Service,Tree Service,"ON, BC, AB, QC, MB, SK, NS, NB, NL, PE, NT, NU, YT",Grey's Tree Service,14162428159,,http://outdatedbrowser.com/en,,,,,https://411.ca/business/search?q=Tree%20Service&st=on,https://411.ca/business/profile/2678602
411.ca - Tree Service,Tree Service,"ON, BC, AB, QC, MB, SK, NS, NB, NL, PE, NT, NU, YT",Aftermath Tree Care,16478587129,lehxy369.sb71@gmail.com,http://outdatedbrowser.com/en,,,,,https://411.ca/business/search?q=Tree%20Service&st=on,https://411.ca/business/profile/9820361
411.ca - Tree Service,Tree Service,"ON, BC, AB, QC, MB, SK, NS, NB, NL, PE, NT, NU, YT",Ramapad Manufacturing Inc,14167894181,,http://outdatedbrowser.com/en,,,,,https://411.ca/business/search?q=Tree%20Service&st=on,https://411.ca/business/profile/2757035
411.ca - Tree Service,Tree Service,"ON, BC, AB, QC, MB, SK, NS, NB, NL, PE, NT, NU, YT",Hudson Tree Services,16472244339,,http://hudsontree.ca,,,,,https://411.ca/business/search?q=Tree%20Service&st=on,https://411.ca/business/profile/9163726
411.ca - Tree Service,Tree Service,"ON, BC, AB, QC, MB, SK, NS, NB, NL, PE, NT, NU, YT",INGLEWOOD TREE SERVICE,14169049797,,http://outdatedbrowser.com/en,,,,,https://411.ca/business/search?q=Tree%20Service&st=on,https://411.ca/business/profile/13843343
411.ca - Tree Service,Tree Service,"ON, BC, AB, QC, MB, SK, NS, NB, NL, PE, NT, NU, YT",BARTLET TREE EXPERTS,17056468733,,http://www.bartlett.com,,,,,https://411.ca/business/search?q=Tree%20Service&st=on,https://411.ca/business/profile/1209867
411.ca - Tree Service,Tree Service,"ON, BC, AB, QC, MB, SK, NS, NB, NL, PE, NT, NU, YT",CBL Tree Service,17059312227,,http://outdatedbrowser.com/en,,,,,https://411.ca/business/search?q=Tree%20Service&st=on,https://411.ca/business/profile/9508409
411.ca - Tree Service,Tree Service,"ON, BC, AB, QC, MB, SK, NS, NB, NL, PE, NT, NU, YT",Harmony Tree Service,14168448484,harmonytreeservice@gmail.com,http://www.harmonytreeservice.ca,,,,,https://411.ca/business/search?q=Tree%20Service&st=on,https://411.ca/business/profile/9156036
411.ca - Tree Service,Tree Service,"ON, BC, AB, QC, MB, SK, NS, NB, NL, PE, NT, NU, YT",Jacob Tree Service,14164178733,,http://outdatedbrowser.com/en,,,,,https://411.ca/business/search?q=Tree%20Service&st=on,https://411.ca/business/profile/7686520
411.ca - Tree Service,Tree Service,"ON, BC, AB, QC, MB, SK, NS, NB, NL, PE, NT, NU, YT",OK Tree Service,16472158767,,http://outdatedbrowser.com/en,,,,,https://411.ca/business/search?q=Tree%20Service&st=on,https://411.ca/business/profile/13825445
411.ca - Tree Service,Tree Service,"ON, BC, AB, QC, MB, SK, NS, NB, NL, PE, NT, NU, YT",Central Tree Care Ltd,14164365118,,http://outdatedbrowser.com/en,,,,,https://411.ca/business/search?q=Tree%20Service&st=on,https://411.ca/business/profile/6481415
411.ca - Snow Removal,Snow Removal,"ON, BC, AB, QC, MB, SK, NS, NB, NL, PE, NT, NU, YT",,14162458245,,http://outdatedbrowser.com/en,,,,,https://411.ca/business/search?q=Snow%20Removal&st=on,https://411.ca/business/search?q=snow%20removal&p=2
411.ca - Snow Removal,Snow Removal,"ON, BC, AB, QC, MB, SK, NS, NB, NL, PE, NT, NU, YT",H & J Services,14162432476,info@handjservices.org,http://outdatedbrowser.com/en,,,,,https://411.ca/business/search?q=Snow%20Removal&st=on,https://411.ca/business/profile/7341011
411.ca - Snow Removal,Snow Removal,"ON, BC, AB, QC, MB, SK, NS, NB, NL, PE, NT, NU, YT",411.ca,14168410586,,http://outdatedbrowser.com/en,,,,,https://411.ca/business/search?q=Snow%20Removal&st=ab,https://411.ca/business/near-me/property-maintenance?c=25
411.ca - Snow Removal,Snow Removal,"ON, BC, AB, QC, MB, SK, NS, NB, NL, PE, NT, NU, YT",411.ca,14166357669,ya@ru.ru,http://outdatedbrowser.com/en,,,,,https://411.ca/business/search?q=Snow%20Removal&st=ab,https://411.ca/business/near-me/commercial-fishing?c=25
411.ca - Snow Removal,Snow Removal,"ON, BC, AB, QC, MB, SK, NS, NB, NL, PE, NT, NU, YT",411.ca,14165505571,service@rowegardening.com,http://outdatedbrowser.com/en,,,,,https://411.ca/business/search?q=Snow%20Removal&st=ab,https://411.ca/business/near-me/snow-and-ice-removal?c=25
411.ca - Snow Removal,Snow Removal,"ON, BC, AB, QC, MB, SK, NS, NB, NL, PE, NT, NU, YT",Cal Jet Performance Inc,14167453498,help@411.ca,http://outdatedbrowser.com/en,,,,,https://411.ca/business/search?q=Snow%20Removal&st=on,https://411.ca/business/profile/6277715
411.ca - Snow Removal,Snow Removal,"ON, BC, AB, QC, MB, SK, NS, NB, NL, PE, NT, NU, YT",North Star Back Hoe,16472229724,northstarbackhoe@gmail.com,http://outdatedbrowser.com/en,,,,,https://411.ca/business/search?q=Snow%20Removal&st=on,https://411.ca/business/profile/9600997
411.ca - Snow Removal,Snow Removal,"ON, BC, AB, QC, MB, SK, NS, NB, NL, PE, NT, NU, YT",Ryan B Snow Removal,14162393633,help@411.ca,http://outdatedbrowser.com/en,,,,,https://411.ca/business/search?q=Snow%20Removal&st=on,https://411.ca/business/profile/13945861
411.ca - Snow Removal,Snow Removal,"ON, BC, AB, QC, MB, SK, NS, NB, NL, PE, NT, NU, YT",Walrick Landscaping&Snow Removal Ltd,14162215279,help@411.ca,http://outdatedbrowser.com/en,,,,,https://411.ca/business/search?q=Snow%20Removal&st=on,https://411.ca/business/profile/4578286
411.ca - Snow Removal,Snow Removal,"ON, BC, AB, QC, MB, SK, NS, NB, NL, PE, NT, NU, YT",James Graham Group,14164252383,info@jamesgrahamgroup.com,http://outdatedbrowser.com/en,,,,,https://411.ca/business/search?q=Snow%20Removal&st=on,https://411.ca/business/profile/7693971
411.ca - Snow Removal,Snow Removal,"ON, BC, AB, QC, MB, SK, NS, NB, NL, PE, NT, NU, YT",Mr. Plow King,16478390335,service@mrplowking.ca,http://mrplowking.ca,,,,,https://411.ca/business/search?q=Snow%20Removal&st=on,https://411.ca/business/profile/10003786
411.ca - Snow Removal,Snow Removal,"ON, BC, AB, QC, MB, SK, NS, NB, NL, PE, NT, NU, YT",1795456 Ontario Ltd,14162224999,help@411.ca,http://outdatedbrowser.com/en,,,,,https://411.ca/business/search?q=Snow%20Removal&st=on,https://411.ca/business/profile/4554380
411.ca - Snow Removal,Snow Removal,"ON, BC, AB, QC, MB, SK, NS, NB, NL, PE, NT, NU, YT",Lawrence/Avenue Road - Landscaping and Snow Removal,14164802027,peterroz@bell.net,http://outdatedbrowser.com/en,,,,,https://411.ca/business/search?q=Snow%20Removal&st=on,https://411.ca/business/profile/7033561
411.ca - Roofing,Roofing,"ON, BC, AB, QC",Alex Roofing,14166716508,sashabel@ymail.com,http://alexroofing.ca,,,,,https://411.ca/business/search?q=Roofing&st=on,https://411.ca/business/profile/13914685
411.ca - Plumbing,Plumbing,"ON, BC, AB, QC",The Problem Solver,14167096099,theproblemsolvergta@gmail.com,http://theproblemsolvergta.ca,,,,,https://411.ca/business/search?q=Plumbing&st=on,https://411.ca/business/profile/10009117
411.ca - Plumbing,Plumbing,"ON, BC, AB, QC",YONGE PLUMBING SYSTEM,14162213003,,http://outdatedbrowser.com/en,,,,,https://411.ca/business/search?q=Plumbing&st=on,https://411.ca/business/profile/7747837
411.ca - HVAC,HVAC,"ON, BC, AB, QC",The AC & Furnace Depot,14163233768,info@acandfurnacedepot.com,http://www.acandfurnacedepot.com,,,,,https://411.ca/business/search?q=HVAC&st=on,https://411.ca/business/profile/7632555
411.ca - HVAC,HVAC,"ON, BC, AB, QC",Maple Tech Mechanical,14162290271,sree@mapletechhvac.com,http://www.mapletechhvac.com,,,,,https://411.ca/business/search?q=HVAC&st=on,https://411.ca/business/profile/7752025
411.ca - HVAC,HVAC,"ON, BC, AB, QC",A Plus Services,14166178599,rtraph@hotmail.com,http://outdatedbrowser.com/en,,,,,https://411.ca/business/search?q=HVAC&st=on,https://411.ca/business/profile/7500806
411.ca - Plumbing,Plumbing,"ON, BC, AB, QC",,14168804151,info@randzplumbing.ca,http://www.randzplumbing.ca,,,,,https://411.ca/business/search?q=Plumbing&st=on,https://411.ca/business/profile/2735734
411.ca - Plumbing,Plumbing,"ON, BC, AB, QC",Add your business,16478082080,allan.patry@gmail.com,http://www.theurbanplumber.com,,,,,https://411.ca/business/search?q=Plumbing&st=on,https://411.ca/business/profile/9440334
411.ca - Roofing,Roofing,"ON, BC, AB, QC",,14166249957,alidealroofing@hotmail.com,http://outdatedbrowser.com/en,,,,,https://411.ca/business/search?q=Roofing&st=on,https://411.ca/business/profile/7688788
411.ca - Roofing,Roofing,"ON, BC, AB, QC",,14168886734,milanoroofing@hotmail.com,http://www.milanoroofing.com,,,,,https://411.ca/business/search?q=Roofing&st=on,https://411.ca/business/profile/9811638
411.ca - Lawn Care,Lawn Care,"ON, BC, AB, QC",,14169020969,masterworklandscaping@yahoo.com,http://outdatedbrowser.com/en,,,,,https://411.ca/business/search?q=Lawn%20Care&st=on,https://411.ca/business/profile/7056318
411.ca - Lawn Care,Lawn Care,"ON, BC, AB, QC",,16475287515,rnoble244@hotmail.com,http://my411.ca/RnobleLandscape/,,,,,https://411.ca/business/search?q=Lawn%20Care&st=on,https://411.ca/business/profile/10099555
411.ca - Lawn Care,Lawn Care,"ON, BC, AB, QC",,16477105034,fazal-akbari@hotmail.com,http://outdatedbrowser.com/en,,,,,https://411.ca/business/search?q=Lawn%20Care&st=on,https://411.ca/business/profile/10221214
411.ca - Lawn Care,Lawn Care,"ON, BC, AB, QC",,14168340289,carms_landscaping@hotmail.com,http://outdatedbrowser.com/en,,,,,https://411.ca/business/search?q=Lawn%20Care&st=on,https://411.ca/business/profile/7086461
411.ca - Lawn Care,Lawn Care,"ON, BC, AB, QC",,14163713227,info@greenspace-landscaping.com,http://greenspace-landscaping.com,,,,,https://411.ca/business/search?q=Lawn%20Care&st=on,https://411.ca/business/profile/7515456
411.ca - Lawn Care,Lawn Care,"ON, BC, AB, QC",,14164279944,info@newimagelandscaping.ca,http://outdatedbrowser.com/en,,,,,https://411.ca/business/search?q=Lawn%20Care&st=on,https://411.ca/business/profile/9084810
411.ca - Electrician,Electrician,"ON, BC, AB, QC",,14166366986,ubiquitous@sympatico.ca,http://outdatedbrowser.com/en,,,,,https://411.ca/business/search?q=Electrician&st=on,https://411.ca/business/profile/4534077
411.ca - Pest Control,Pest Control,"ON, BC, AB, QC",,14168896234,cornwallservices@sympatico.ca,http://outdatedbrowser.com/en,,,,,https://411.ca/business/search?q=Pest%20Control&st=on,https://411.ca/business/profile/7517949
411.ca - Appliance Repair,Appliance Repair,"ON, BC, AB, QC",,19057388473,sales@classappliance.ca,http://classappliance.ca,,,,,https://411.ca/business/search?q=Appliance%20Repair&st=on,https://411.ca/business/profile/3014905
411.ca - Appliance Repair,Appliance Repair,"ON, BC, AB, QC",,14164445029,info@service4appliances.ca,http://www.appliancerepairman.ca/,,,,,https://411.ca/business/search?q=Appliance%20Repair&st=on,https://411.ca/business/profile/7233857
411.ca - Moving,Moving,"ON, BC, AB, QC",,14162221178,tess@mabinicanada.com,http://www.mabini.com,,,,,https://411.ca/business/search?q=Moving&st=on,https://411.ca/business/profile/4550038
411.ca - Junk Removal,Junk Removal,"ON, BC, AB, QC",,14164959032,joshroher@yahoo.ca,http://outdatedbrowser.com/en,,,,,https://411.ca/business/search?q=Junk%20Removal&st=on,https://411.ca/business/profile/2716309
411.ca - Junk Removal,Junk Removal,"ON, BC, AB, QC",,14169909299,info@oraclelegalservices.ca,http://oraclelegalservices.ca,,,,,https://411.ca/business/search?q=Junk%20Removal&st=on,https://411.ca/business/profile/9310699
411.ca - Junk Removal,Junk Removal,"ON, BC, AB, QC",,14167332467,questions@redbins.ca,http://www.redbins.ca/,,,,,https://411.ca/business/search?q=Junk%20Removal&st=on,https://411.ca/business/profile/4348521
411.ca - Junk Removal,Junk Removal,"ON, BC, AB, QC",,14164544633,niki@trxtrainstation.com,http://www.trxtrainstation.com,,,,,https://411.ca/business/search?q=Junk%20Removal&st=on,https://411.ca/business/profile/9031817
411.ca - Handyman,Handyman,"ON, BC, AB, QC",,14167229550,doktorhandyman@yahoo.ca,http://www.doktorhandyman.homestars.com,,,,,https://411.ca/business/search?q=Handyman&st=on,https://411.ca/business/profile/7686976
411.ca - Handyman,Handyman,"ON, BC, AB, QC",,16472335236,geoff@ketchumenterprises.ca,http://toronto.en.craigslist.ca/drh/sks/2589324396.html,,,,,https://411.ca/business/search?q=Handyman&st=on,https://411.ca/business/profile/7032961
411.ca - Handyman,Handyman,"ON, BC, AB, QC",,14162408757,hc6409@handymanconnection.com,http://etobicoke.handymanconnection.com/default.aspx,,,,,https://411.ca/business/search?q=Handyman&st=on,https://411.ca/business/profile/12170169
411.ca - Painting,Painting,"ON, BC, AB, QC",,14167027863,help@411.ca,http://outdatedbrowser.com/en,,,,,https://411.ca/business/search?q=Painting&st=on,https://411.ca/business/profile/4361116
411.ca - Roofing,Roofing,"ON, BC, AB, QC",,16477043529,bagdasarov25@gmail.com,http://www.highskillzroofing.ca,,,,,https://411.ca/business/search?q=Roofing&st=on,https://411.ca/business/profile/10372280
411.ca - Roofing,Roofing,"ON, BC, AB, QC",,14165644498,sunnyviewroofing@hotmail.ca,http://outdatedbrowser.com/en,,,,,https://411.ca/business/search?q=Roofing&st=on,https://411.ca/business/profile/7791250
411.ca - Lawn Care,Lawn Care,"ON, BC, AB, QC",,14164147010,bob.bowen@gtasodinstallers.com,http://gtasodinstallers.com/,,,,,https://411.ca/business/search?q=Lawn%20Care&st=on,https://411.ca/business/profile/9142490
411.ca - Lawn Care,Lawn Care,"ON, BC, AB, QC",,14163167588,Stonedgelandscaping@hotmail.com,http://www.stonedgelandscaping.com/,,,,,https://411.ca/business/search?q=Lawn%20Care&st=on,https://411.ca/business/profile/9889320
411.ca - Lawn Care,Lawn Care,"ON, BC, AB, QC",,14166306630,carlodefrancesca@hotmail.com,http://outdatedbrowser.com/en,,,,,https://411.ca/business/search?q=Lawn%20Care&st=on,https://411.ca/business/profile/7759541
411.ca - Lawn Care,Lawn Care,"ON, BC, AB, QC",,14167892218,performancelandscaping@sympatico.ca,http://outdatedbrowser.com/en,,,,,https://411.ca/business/search?q=Lawn%20Care&st=on,https://411.ca/business/profile/2756906
411.ca - Lawn Care,Lawn Care,"ON, BC, AB, QC",,14169302136,greenworriorscontractors@gmail.com,http://www.greenutlawncare.com,,,,,https://411.ca/business/search?q=Lawn%20Care&st=on,https://411.ca/business/profile/12155841
411.ca - Pest Control,Pest Control,"ON, BC, AB, QC",,14167845333,Aanteater12@hush.com,http://outdatedbrowser.com/en,,,,,https://411.ca/business/search?q=Pest%20Control&st=on,https://411.ca/business/profile/4550552
411.ca - Junk Removal,Junk Removal,"ON, BC, AB, QC",,18558063519,leads@garbagebindumpsterrentals.ca,http://www.econobins.ca,,,,,https://411.ca/business/search?q=Junk%20Removal&st=on,https://411.ca/business/profile/9794306
411.ca - Junk Removal,Junk Removal,"ON, BC, AB, QC",,14168257879,info@mohicaninc.com,http://outdatedbrowser.com/en,,,,,https://411.ca/business/search?q=Junk%20Removal&st=on,https://411.ca/business/profile/9724905
411.ca - Junk Removal,Junk Removal,"ON, BC, AB, QC",,14164909000,abbi73103@gmail.com,http://www.abbie-moving.ca,,,,,https://411.ca/business/search?q=Junk%20Removal&st=on,https://411.ca/business/profile/7682314
411.ca - Moving,Moving,"ON, BC, AB, QC",,14168795230,topteammovers@gmail.com,http://www.topteammovers.ca,,,,,https://411.ca/business/search?q=Moving&st=on,https://411.ca/business/profile/12199051
411.ca - Handyman,Handyman,"ON, BC, AB, QC",,16479906037,measure320@hotmail.com,http://outdatedbrowser.com/en,,,,,https://411.ca/business/search?q=Handyman&st=on,https://411.ca/business/profile/7510440
411.ca - Handyman,Handyman,"ON, BC, AB, QC",,14168571277,,http://www.gtamarble.ca,,,,,https://411.ca/business/search?q=Handyman&st=on,https://411.ca/business/profile/9512943
411.ca - Electrician,Electrician,"ON, BC, AB, QC",,14167447911,help@411.ca,http://outdatedbrowser.com/en,,,,,https://411.ca/business/search?q=Electrician&st=on,https://411.ca/business/profile/14261129
411.ca - Pest Control,Pest Control,"ON, BC, AB, QC",,16477973776,,http://www.tsrpestcontrol.ca,,,,,https://411.ca/business/search?q=Pest%20Control&st=on,https://411.ca/business/profile/9920663
411.ca - Painting,Painting,"ON, BC, AB, QC",,16475508580,olympics.painters@gmail.com,http://u685471.411web.ca,,,,,https://411.ca/business/search?q=Painting&st=on,https://411.ca/business/profile/10418547
411.ca - Painting,Painting,"ON, BC, AB, QC",,14168878649,jeffdeanpainting@gmail.com,http://torontopaintingservice.ca,,,,,https://411.ca/business/search?q=Painting&st=on,https://411.ca/business/profile/10178573
411.ca - Roofing,Roofing,"ON, BC, AB, QC",,14162448198,silvia@starroofing.ca,http://outdatedbrowser.com/en,,,,,https://411.ca/business/search?q=Roofing&st=on,https://411.ca/business/profile/2679256
411.ca - Plumbing,Plumbing,"ON, BC, AB, QC",,14167454796,,http://outdatedbrowser.com/en,,,,,https://411.ca/business/search?q=Plumbing&st=on,https://411.ca/business/profile/13690383
411.ca - Junk Removal,Junk Removal,"ON, BC, AB, QC",,16474648887,salvatore_dellaterza@hotmail.ca,http://www.365renovations.com/,,,,,https://411.ca/business/search?q=Junk%20Removal&st=on,https://411.ca/business/profile/7810718
411.ca - Painting,Painting,"ON, BC, AB, QC",,16477180059,qichao_cao@yahoo.ca,http://www.rossrenovation.ca/,,,,,https://411.ca/business/search?q=Painting&st=on,https://411.ca/business/profile/10527295
411.ca - Snow Removal,Snow Removal,"ON, BC, AB, QC, MB, SK, NS, NB, NL, PE, NT, NU, YT",DURAN'S LAWN CARE AND SNOW REMOVAL,14168445843,,http://outdatedbrowser.com/en,,,,,https://411.ca/business/search?q=Snow%20Removal&st=on,https://411.ca/business/profile/12192685
411.ca - Duct Cleaning,Duct Cleaning,"ON, BC, AB, QC, MB, SK, NS, NB, NL, PE, NT, NU, YT",411.ca,14167205096,harrisephraim6@gmail.com,http://outdatedbrowser.com/en,,,,,https://411.ca/business/search?q=Duct%20Cleaning&st=on,https://411.ca/business/near-me/kitchen-exhaust-cleaning?c=25
411.ca - Duct Cleaning,Duct Cleaning,"ON, BC, AB, QC, MB, SK, NS, NB, NL, PE, NT, NU, YT",411.ca,14166337593,,http://outdatedbrowser.com/en,,,,,https://411.ca/business/search?q=Duct%20Cleaning&st=on,https://411.ca/business/near-me/department-stores?c=25
411.ca - Duct Cleaning,Duct Cleaning,"ON, BC, AB, QC, MB, SK, NS, NB, NL, PE, NT, NU, YT",,14164560106,,http://outdatedbrowser.com/en,,,,,https://411.ca/business/search?q=Duct%20Cleaning&st=on,https://411.ca/business/search?q=duct%20cleaning&p=2
411.ca - Duct Cleaning,Duct Cleaning,"ON, BC, AB, QC, MB, SK, NS, NB, NL, PE, NT, NU, YT",Wayne's Air Duct Cleaning,14167828666,help@411.ca,http://outdatedbrowser.com/en,,,,,https://411.ca/business/search?q=Duct%20Cleaning&st=on,https://411.ca/business/profile/14202311
411.ca - Duct Cleaning,Duct Cleaning,"ON, BC, AB, QC, MB, SK, NS, NB, NL, PE, NT, NU, YT",A Q Home Services,14164939307,,http://outdatedbrowser.com/en,,,,,https://411.ca/business/search?q=Duct%20Cleaning&st=on,https://411.ca/business/profile/4538234
411.ca - Duct Cleaning,Duct Cleaning,"ON, BC, AB, QC, MB, SK, NS, NB, NL, PE, NT, NU, YT",Toronto Air Duct Cleaning,14165141010,help@411.ca,http://outdatedbrowser.com/en,,,,,https://411.ca/business/search?q=Duct%20Cleaning&st=on,https://411.ca/business/profile/12522071
411.ca - Duct Cleaning,Duct Cleaning,"ON, BC, AB, QC, MB, SK, NS, NB, NL, PE, NT, NU, YT",Four Seasons Duct Cleaning,16478870099,,http://outdatedbrowser.com/en,,,,,https://411.ca/business/search?q=Duct%20Cleaning&st=on,https://411.ca/business/profile/7774160
411.ca - Duct Cleaning,Duct Cleaning,"ON, BC, AB, QC, MB, SK, NS, NB, NL, PE, NT, NU, YT",GEORGIAN DUCT CLEANING INC,17054359554,,http://outdatedbrowser.com/en,,,,,https://411.ca/business/search?q=Duct%20Cleaning&st=on,https://411.ca/business/profile/1311673
411.ca - Duct Cleaning,Duct Cleaning,"ON, BC, AB, QC, MB, SK, NS, NB, NL, PE, NT, NU, YT",Super Clean Systems,14167574130,help@411.ca,http://outdatedbrowser.com/en,,,,,https://411.ca/business/search?q=Duct%20Cleaning&st=on,https://411.ca/business/profile/7774303
411.ca - Duct Cleaning,Duct Cleaning,"ON, BC, AB, QC, MB, SK, NS, NB, NL, PE, NT, NU, YT",CleanFreshAir Services Inc,14164501476,info@cleanfreshair.ca,http://www.cleanfreshair.ca,,,,,https://411.ca/business/search?q=Duct%20Cleaning&st=on,https://411.ca/business/profile/9806608
411.ca - Duct Cleaning,Duct Cleaning,"ON, BC, AB, QC, MB, SK, NS, NB, NL, PE, NT, NU, YT",Air Filters Corporation,19055997395,,http://outdatedbrowser.com/en,,,,,https://411.ca/business/search?q=Duct%20Cleaning&st=on,https://411.ca/business/profile/7774168
411.ca - Duct Cleaning,Duct Cleaning,"ON, BC, AB, QC, MB, SK, NS, NB, NL, PE, NT, NU, YT",Sears,14166146700,help@411.ca,http://outdatedbrowser.com/en,,,,,https://411.ca/business/search?q=Duct%20Cleaning&st=on,https://411.ca/business/profile/13878813
411.ca - Duct Cleaning,Duct Cleaning,"ON, BC, AB, QC, MB, SK, NS, NB, NL, PE, NT, NU, YT",Clean Air,14163036506,aircare@live.ca,http://www.breathecleanerair.ca,,,,,https://411.ca/business/search?q=Duct%20Cleaning&st=on,https://411.ca/business/profile/7685385
411.ca - Insulation,Insulation,"ON, BC, AB, QC, MB, SK, NS, NB, NL, PE, NT, NU, YT",411.ca,19053359963,,http://outdatedbrowser.com/en,,,,,https://411.ca/business/search?q=Insulation&st=on,https://411.ca/business/near-me/home-and-building-inspection?c=25
411.ca - Insulation,Insulation,"ON, BC, AB, QC, MB, SK, NS, NB, NL, PE, NT, NU, YT",411.ca,14169222448,,http://outdatedbrowser.com/en,,,,,https://411.ca/business/search?q=Insulation&st=on,https://411.ca/business/near-me/environmental-consultants?c=25
411.ca - Insulation,Insulation,"ON, BC, AB, QC, MB, SK, NS, NB, NL, PE, NT, NU, YT",411.ca,14163984585,info@alertglass.ca,http://outdatedbrowser.com/en,,,,,https://411.ca/business/search?q=Insulation&st=on,https://411.ca/business/near-me/glass?c=25
411.ca - Insulation,Insulation,"ON, BC, AB, QC, MB, SK, NS, NB, NL, PE, NT, NU, YT",411.ca,14169092049,,http://outdatedbrowser.com/en,,,,,https://411.ca/business/search?q=Insulation&st=on,https://411.ca/business/near-me/drywall-contractors?c=25
411.ca - Insulation,Insulation,"ON, BC, AB, QC, MB, SK, NS, NB, NL, PE, NT, NU, YT",411.ca,14164947772,,http://outdatedbrowser.com/en,,,,,https://411.ca/business/search?q=Insulation&st=on,https://411.ca/business/near-me/acoustic-engineers?c=25
411.ca - Insulation,Insulation,"ON, BC, AB, QC, MB, SK, NS, NB, NL, PE, NT, NU, YT",411.ca,14167440191,,http://outdatedbrowser.com/en,,,,,https://411.ca/business/search?q=Insulation&st=on,https://411.ca/business/near-me/acoustic-materials?c=25
411.ca - Insulation,Insulation,"ON, BC, AB, QC, MB, SK, NS, NB, NL, PE, NT, NU, YT",411.ca,16478303668,,http://outdatedbrowser.com/en,,,,,https://411.ca/business/search?q=Insulation&st=on,https://411.ca/business/near-me/concrete-sealer?c=25
411.ca - Insulation,Insulation,"ON, BC, AB, QC, MB, SK, NS, NB, NL, PE, NT, NU, YT",411.ca,14162663494,info@progressiveinteriors.ca,http://outdatedbrowser.com/en,,,,,https://411.ca/business/search?q=Insulation&st=on,https://411.ca/business/near-me/isolation-contractors?c=25
411.ca - Insulation,Insulation,"ON, BC, AB, QC, MB, SK, NS, NB, NL, PE, NT, NU, YT",,14167436688,,http://outdatedbrowser.com/en,,,,,https://411.ca/business/search?q=Insulation&st=on,https://411.ca/business/search?q=insulation&p=2
411.ca - Insulation,Insulation,"ON, BC, AB, QC, MB, SK, NS, NB, NL, PE, NT, NU, YT",Vantage Insulation (Foam Division);,14167495060,,http://outdatedbrowser.com/en,,,,,https://411.ca/business/search?q=Insulation&st=on,https://411.ca/business/profile/4540053
411.ca - Insulation,Insulation,"ON, BC, AB, QC, MB, SK, NS, NB, NL, PE, NT, NU, YT",Dominion Insulation Inc,14167436681,,http://outdatedbrowser.com/en,,,,,https://411.ca/business/search?q=Insulation&st=on,https://411.ca/business/profile/13497979
411.ca - Insulation,Insulation,"ON, BC, AB, QC, MB, SK, NS, NB, NL, PE, NT, NU, YT",Trend Insulation Ltd,14162933995,,http://outdatedbrowser.com/en,,,,,https://411.ca/business/search?q=Insulation&st=on,https://411.ca/business/profile/6316185
411.ca - Insulation,Insulation,"ON, BC, AB, QC, MB, SK, NS, NB, NL, PE, NT, NU, YT",Concord Insulation,19058511559,,http://outdatedbrowser.com/en,,,,,https://411.ca/business/search?q=Insulation&st=on,https://411.ca/business/profile/6210024
411.ca - Insulation,Insulation,"ON, BC, AB, QC, MB, SK, NS, NB, NL, PE, NT, NU, YT",Waddell Paul,14162506891,,http://outdatedbrowser.com/en,,,,,https://411.ca/business/search?q=Insulation&st=on,https://411.ca/business/profile/4115540
411.ca - Mold Remediation,Mold Remediation,"ON, BC, AB, QC, MB, SK, NS, NB, NL, PE, NT, NU, YT",,14168190395,,http://outdatedbrowser.com/en,,,,,https://411.ca/business/search?q=Mold%20Remediation&st=on,https://411.ca/business/search?q=mold%20remediation&p=2
411.ca - Mold Remediation,Mold Remediation,"ON, BC, AB, QC, MB, SK, NS, NB, NL, PE, NT, NU, YT",GeoFocus Mould Solutions,18882956653,info@mould-solutions.com,http://www.mould-solutions.com,,,,,https://411.ca/business/search?q=Mold%20Remediation&st=on,https://411.ca/business/profile/7697688
411.ca - Mold Remediation,Mold Remediation,"ON, BC, AB, QC, MB, SK, NS, NB, NL, PE, NT, NU, YT",411.ca,19057470003,,http://outdatedbrowser.com/en,,,,,https://411.ca/business/search?q=Mold%20Remediation&st=qc,https://411.ca/business/near-me/mold-inspection-and-removal?c=25
411.ca - Mold Remediation,Mold Remediation,"ON, BC, AB, QC, MB, SK, NS, NB, NL, PE, NT, NU, YT",JCH Environmental Inc,19052371349,jch@jchenvironmental.ca,http://outdatedbrowser.com/en,,,,,https://411.ca/business/search?q=Mold%20Remediation&st=on,https://411.ca/business/profile/7633218
411.ca - Mold Remediation,Mold Remediation,"ON, BC, AB, QC, MB, SK, NS, NB, NL, PE, NT, NU, YT",Atalaia Abatement Services,16474302465,zagatolancia222@hotmail.com,http://atalaiaabatementservices.ca,,,,,https://411.ca/business/search?q=Mold%20Remediation&st=on,https://411.ca/business/profile/10232658
411.ca - Mold Remediation,Mold Remediation,"ON, BC, AB, QC, MB, SK, NS, NB, NL, PE, NT, NU, YT",Rapid Mold Removal,18885026653,,http://outdatedbrowser.com/en,,,,,https://411.ca/business/search?q=Mold%20Remediation&st=on,https://411.ca/business/profile/9493297
411.ca - Mold Remediation,Mold Remediation,"ON, BC, AB, QC, MB, SK, NS, NB, NL, PE, NT, NU, YT",Alert Restoration Inc.,19053018196,,http://alertreno.ca,,,,,https://411.ca/business/search?q=Mold%20Remediation&st=on,https://411.ca/business/profile/9742548
411.ca - Mold Remediation,Mold Remediation,"ON, BC, AB, QC, MB, SK, NS, NB, NL, PE, NT, NU, YT",Air Detectives,18669516291,dana@airdetectives.ca,http://outdatedbrowser.com/en,,,,,https://411.ca/business/search?q=Mold%20Remediation&st=on,https://411.ca/business/profile/7678137
411.ca - Mold Remediation,Mold Remediation,"ON, BC, AB, QC, MB, SK, NS, NB, NL, PE, NT, NU, YT",Mold.ca,14165040333,customerservice@mri-mold.ca,http://outdatedbrowser.com/en,,,,,https://411.ca/business/search?q=Mold%20Remediation&st=on,https://411.ca/business/profile/4557040
411.ca - Mold Remediation,Mold Remediation,"ON, BC, AB, QC, MB, SK, NS, NB, NL, PE, NT, NU, YT",C & I Environmental Solutions,14167293189,leo@CandIEnvironmentalSolutions.com,http://www.candienvironmentalsolutions.com/,,,,,https://411.ca/business/search?q=Mold%20Remediation&st=on,https://411.ca/business/profile/9154219
411.ca - Mold Remediation,Mold Remediation,"ON, BC, AB, QC, MB, SK, NS, NB, NL, PE, NT, NU, YT",Belanger Environmental,14164619007,info@belangerenvironmental.com,http://www.belangerenvironmental.com,,,,,https://411.ca/business/search?q=Mold%20Remediation&st=on,https://411.ca/business/profile/9202031
411.ca - Mold Remediation,Mold Remediation,"ON, BC, AB, QC, MB, SK, NS, NB, NL, PE, NT, NU, YT",A N A Contracting Inc.,14162825914,infoanacontracting@live.com,http://www.anacontracting.com,,,,,https://411.ca/business/search?q=Mold%20Remediation&st=on,https://411.ca/business/profile/7677956
411.ca - Water Damage Restoration,Water Damage Restoration,"ON, BC, AB, QC, MB, SK, NS, NB, NL, PE, NT, NU, YT",,19058569783,,http://outdatedbrowser.com/en,,,,,https://411.ca/business/search?q=Water%20Damage%20Restoration&st=on,https://411.ca/business/search?q=water%20damage%20restoration&p=2
411.ca - Water Damage Restoration,Water Damage Restoration,"ON, BC, AB, QC, MB, SK, NS, NB, NL, PE, NT, NU, YT",MJ Fast Respond C.S. Inc,14168711884,mjfastrespond@hotmail.com,http://outdatedbrowser.com/en,,,,,https://411.ca/business/search?q=Water%20Damage%20Restoration&st=on,https://411.ca/business/profile/7629601
411.ca - Water Damage Restoration,Water Damage Restoration,"ON, BC, AB, QC, MB, SK, NS, NB, NL, PE, NT, NU, YT",411.ca,14167790137,info@ctrestore.ca,http://outdatedbrowser.com/en,,,,,https://411.ca/business/search?q=Water%20Damage%20Restoration&st=ab,https://411.ca/business/near-me/restoration-contractor?c=25
411.ca - Water Damage Restoration,Water Damage Restoration,"ON, BC, AB, QC, MB, SK, NS, NB, NL, PE, NT, NU, YT",Capitol Carpet Cleaners,14167443400,,http://outdatedbrowser.com/en,,,,,https://411.ca/business/search?q=Water%20Damage%20Restoration&st=on,https://411.ca/business/profile/6365099
411.ca - Water Damage Restoration,Water Damage Restoration,"ON, BC, AB, QC, MB, SK, NS, NB, NL, PE, NT, NU, YT",Calatis Steel Limited,14167427103,,http://www.calatissteelltd.ca,,,,,https://411.ca/business/search?q=Water%20Damage%20Restoration&st=on,https://411.ca/business/profile/2744661
411.ca - Water Damage Restoration,Water Damage Restoration,"ON, BC, AB, QC, MB, SK, NS, NB, NL, PE, NT, NU, YT",Flood Services Canada,18003850398,info@floodservices.ca,http://floodservices.ca,,,,,https://411.ca/business/search?q=Water%20Damage%20Restoration&st=on,https://411.ca/business/profile/12198093
411.ca - Water Damage Restoration,Water Damage Restoration,"ON, BC, AB, QC, MB, SK, NS, NB, NL, PE, NT, NU, YT",Restoration 1 Toronto,16477170817,toronto@restoration1.ca,http://www.toronto.restoration1.ca,,,,,https://411.ca/business/search?q=Water%20Damage%20Restoration&st=on,https://411.ca/business/profile/12180585
411.ca - Water Damage Restoration,Water Damage Restoration,"ON, BC, AB, QC, MB, SK, NS, NB, NL, PE, NT, NU, YT",RC Restorclean Services,14163982491,,http://outdatedbrowser.com/en,,,,,https://411.ca/business/search?q=Water%20Damage%20Restoration&st=on,https://411.ca/business/profile/2700821
411.ca - Water Damage Restoration,Water Damage Restoration,"ON, BC, AB, QC, MB, SK, NS, NB, NL, PE, NT, NU, YT",A So-Klean,14162249296,,http://outdatedbrowser.com/en,,,,,https://411.ca/business/search?q=Water%20Damage%20Restoration&st=on,https://411.ca/business/profile/13162757
411.ca - Water Damage Restoration,Water Damage Restoration,"ON, BC, AB, QC, MB, SK, NS, NB, NL, PE, NT, NU, YT",Restoration 1,16473504797,,http://outdatedbrowser.com/en,,,,,https://411.ca/business/search?q=Water%20Damage%20Restoration&st=on,https://411.ca/business/profile/13781871
411.ca - Water Damage Restoration,Water Damage Restoration,"ON, BC, AB, QC, MB, SK, NS, NB, NL, PE, NT, NU, YT",GTA Restoration,14168000000,tony@gtarestoration.com,https://gtarestoration.com/,,,,,https://411.ca/business/search?q=Water%20Damage%20Restoration&st=on,https://411.ca/business/profile/9722361
411.ca - Water Damage Restoration,Water Damage Restoration,"ON, BC, AB, QC, MB, SK, NS, NB, NL, PE, NT, NU, YT",BY Monica,14167006414,,http://outdatedbrowser.com/en,,,,,https://411.ca/business/search?q=Water%20Damage%20Restoration&st=on,https://411.ca/business/profile/4117063
411.ca - Water Damage Restoration,Water Damage Restoration,"ON, BC, AB, QC, MB, SK, NS, NB, NL, PE, NT, NU, YT",Tailorwood Restoration,16472040979,info@tailorwoodrestoration.com,http://tailorwoodrestoration.com,,,,,https://411.ca/business/search?q=Water%20Damage%20Restoration&st=on,https://411.ca/business/profile/9776772
411.ca - Water Damage Restoration,Water Damage Restoration,"ON, BC, AB, QC, MB, SK, NS, NB, NL, PE, NT, NU, YT",Flood Doctor,16479323030,info@flooddoctor.ca,https://www.flooddoctor.ca,,,,,https://411.ca/business/search?q=Water%20Damage%20Restoration&st=on,https://411.ca/business/profile/9971969
411.ca - Window Installation,Window Installation,"ON, BC, AB, QC, MB, SK, NS, NB, NL, PE, NT, NU, YT",411.ca,14166618814,,http://outdatedbrowser.com/en,,,,,https://411.ca/business/search?q=Window%20Installation&st=on,https://411.ca/business/near-me/hardware-manufacturers?c=25
411.ca - Window Installation,Window Installation,"ON, BC, AB, QC, MB, SK, NS, NB, NL, PE, NT, NU, YT",Thermoluxe,14167369331,info@thermoluxe.com,http://outdatedbrowser.com/en,,,,,https://411.ca/business/search?q=Window%20Installation&st=on,https://411.ca/business/search?q=window%20installation&p=2
411.ca - Window Installation,Window Installation,"ON, BC, AB, QC, MB, SK, NS, NB, NL, PE, NT, NU, YT",Thermo-Bilt Window Industries Ltd,14167560798,info@thermobiltwindows.ca,http://www.thermobiltwindows.ca/,,,,,https://411.ca/business/search?q=Window%20Installation&st=on,https://411.ca/business/profile/13781875
411.ca - Window Installation,Window Installation,"ON, BC, AB, QC, MB, SK, NS, NB, NL, PE, NT, NU, YT",Mennie Canada Limited,14167480087,,http://outdatedbrowser.com/en,,,,,https://411.ca/business/search?q=Window%20Installation&st=on,https://411.ca/business/profile/13516797
411.ca - Window Installation,Window Installation,"ON, BC, AB, QC, MB, SK, NS, NB, NL, PE, NT, NU, YT",Tiip International Inc,14167442634,,http://outdatedbrowser.com/en,,,,,https://411.ca/business/search?q=Window%20Installation&st=on,https://411.ca/business/profile/13581373
411.ca - Window Installation,Window Installation,"ON, BC, AB, QC, MB, SK, NS, NB, NL, PE, NT, NU, YT",Duke Windows,14166637972,,http://outdatedbrowser.com/en,,,,,https://411.ca/business/search?q=Window%20Installation&st=on,https://411.ca/business/profile/2736073
411.ca - Window Installation,Window Installation,"ON, BC, AB, QC, MB, SK, NS, NB, NL, PE, NT, NU, YT",Sunview Doors Ltd,14167455355,,http://outdatedbrowser.com/en,,,,,https://411.ca/business/search?q=Window%20Installation&st=on,https://411.ca/business/profile/2745956
411.ca - Window Installation,Window Installation,"ON, BC, AB, QC, MB, SK, NS, NB, NL, PE, NT, NU, YT",Upper Canada Specialty Hardware Ltd,14166968358,,http://outdatedbrowser.com/en,,,,,https://411.ca/business/search?q=Window%20Installation&st=on,https://411.ca/business/profile/13678013
411.ca - Window Installation,Window Installation,"ON, BC, AB, QC, MB, SK, NS, NB, NL, PE, NT, NU, YT",Northview Windows & Doors,14167367276,,http://www.northviewcanada.com,,,,,https://411.ca/business/search?q=Window%20Installation&st=on,https://411.ca/business/profile/6200584
411.ca - Window Installation,Window Installation,"ON, BC, AB, QC, MB, SK, NS, NB, NL, PE, NT, NU, YT",Affordable Windows & Doors,14165909402,,http://outdatedbrowser.com/en,,,,,https://411.ca/business/search?q=Window%20Installation&st=on,https://411.ca/business/profile/6259909
411.ca - Window Installation,Window Installation,"ON, BC, AB, QC, MB, SK, NS, NB, NL, PE, NT, NU, YT",Falcon Overhead Doors Docks Ltd,14162261441,falcondoors@hotmail.com,http://outdatedbrowser.com/en,,,,,https://411.ca/business/search?q=Window%20Installation&st=on,https://411.ca/business/profile/954231
411.ca - Window Installation,Window Installation,"ON, BC, AB, QC, MB, SK, NS, NB, NL, PE, NT, NU, YT",Deluxe Windows,14166462994,,http://outdatedbrowser.com/en,,,,,https://411.ca/business/search?q=Window%20Installation&st=on,https://411.ca/business/profile/12706847
411.ca - Door Installation,Door Installation,"ON, BC, AB, QC, MB, SK, NS, NB, NL, PE, NT, NU, YT",,14166339360,,http://outdatedbrowser.com/en,,,,,https://411.ca/business/search?q=Door%20Installation&st=on,https://411.ca/business/search?q=door%20installation&p=2
411.ca - Door Installation,Door Installation,"ON, BC, AB, QC, MB, SK, NS, NB, NL, PE, NT, NU, YT",peragon security,19054316156,donandrews465@yahoo.ca,http://outdatedbrowser.com/en,,,,,https://411.ca/business/search?q=Door%20Installation&st=on,https://411.ca/business/profile/13352807
411.ca - Door Installation,Door Installation,"ON, BC, AB, QC, MB, SK, NS, NB, NL, PE, NT, NU, YT",Padesu Inc,14166624700,,http://outdatedbrowser.com/en,,,,,https://411.ca/business/search?q=Door%20Installation&st=on,https://411.ca/business/profile/12459209
411.ca - Door Installation,Door Installation,"ON, BC, AB, QC, MB, SK, NS, NB, NL, PE, NT, NU, YT",Supreme Door,14165508490,,http://outdatedbrowser.com/en,,,,,https://411.ca/business/search?q=Door%20Installation&st=on,https://411.ca/business/profile/12511617
411.ca - Drywall,Drywall,"ON, BC, AB, QC, MB, SK, NS, NB, NL, PE, NT, NU, YT",,14167463339,,http://outdatedbrowser.com/en,,,,,https://411.ca/business/search?q=Drywall&st=on,https://411.ca/business/search?q=drywall&p=2
411.ca - Drywall,Drywall,"ON, BC, AB, QC, MB, SK, NS, NB, NL, PE, NT, NU, YT",Building Products Of Canada Corp,14167471100,,http://outdatedbrowser.com/en,,,,,https://411.ca/business/search?q=Drywall&st=on,https://411.ca/business/profile/4525721
411.ca - Drywall,Drywall,"ON, BC, AB, QC, MB, SK, NS, NB, NL, PE, NT, NU, YT",411.ca,14162527177,,http://outdatedbrowser.com/en,,,,,https://411.ca/business/search?q=Drywall&st=qc,https://411.ca/business/near-me/surplus-stores?c=25
411.ca - Drywall,Drywall,"ON, BC, AB, QC, MB, SK, NS, NB, NL, PE, NT, NU, YT",411.ca,14162428622,,http://outdatedbrowser.com/en,,,,,https://411.ca/business/search?q=Drywall&st=qc,https://411.ca/business/near-me/liquidators?c=25
411.ca - Drywall,Drywall,"ON, BC, AB, QC, MB, SK, NS, NB, NL, PE, NT, NU, YT",411.ca,14162558060,,http://outdatedbrowser.com/en,,,,,https://411.ca/business/search?q=Drywall&st=qc,https://411.ca/business/near-me/millwork?c=25
411.ca - Drywall,Drywall,"ON, BC, AB, QC, MB, SK, NS, NB, NL, PE, NT, NU, YT",411.ca,14167452722,,http://outdatedbrowser.com/en,,,,,https://411.ca/business/search?q=Drywall&st=qc,https://411.ca/business/near-me/plastering-contractors?c=25
411.ca - Drywall,Drywall,"ON, BC, AB, QC, MB, SK, NS, NB, NL, PE, NT, NU, YT",411.ca,14164874029,dicksonhome@bellnet.ca,http://outdatedbrowser.com/en,,,,,https://411.ca/business/search?q=Drywall&st=qc,https://411.ca/business/near-me/bbq-equipment?c=25
411.ca - Drywall,Drywall,"ON, BC, AB, QC, MB, SK, NS, NB, NL, PE, NT, NU, YT",Gordon Industrial Materials Ltd - Gordonply,14166655577,,http://outdatedbrowser.com/en,,,,,https://411.ca/business/search?q=Drywall&st=on,https://411.ca/business/profile/13823275
411.ca - Drywall,Drywall,"ON, BC, AB, QC, MB, SK, NS, NB, NL, PE, NT, NU, YT",The Lumber Guys Inc.,14167463016,,http://outdatedbrowser.com/en,,,,,https://411.ca/business/search?q=Drywall&st=on,https://411.ca/business/profile/14096499
411.ca - Drywall,Drywall,"ON, BC, AB, QC, MB, SK, NS, NB, NL, PE, NT, NU, YT",Central Fairbank Lumber,19057608601,,http://outdatedbrowser.com/en,,,,,https://411.ca/business/search?q=Drywall&st=on,https://411.ca/business/profile/5414355
411.ca - Drywall,Drywall,"ON, BC, AB, QC, MB, SK, NS, NB, NL, PE, NT, NU, YT",Bernardi Building Supply,16475599302,,http://outdatedbrowser.com/en,,,,,https://411.ca/business/search?q=Drywall&st=on,https://411.ca/business/profile/14206199
411.ca - Drywall,Drywall,"ON, BC, AB, QC, MB, SK, NS, NB, NL, PE, NT, NU, YT",8 + Inc,14164448898,,http://outdatedbrowser.com/en,,,,,https://411.ca/business/search?q=Drywall&st=on,https://411.ca/business/profile/4549075
411.ca - Demolition,Demolition,"ON, BC, AB, QC, MB, SK, NS, NB, NL, PE, NT, NU, YT",,14166654484,,http://outdatedbrowser.com/en,,,,,https://411.ca/business/search?q=Demolition&st=on,https://411.ca/business/search?q=demolition&p=2
411.ca - Demolition,Demolition,"ON, BC, AB, QC, MB, SK, NS, NB, NL, PE, NT, NU, YT",U Gold Demolition and Waste Removal,14168237056,yurigoldshtein@yahoo.ca,http://my411.ca/UGoldDemolitionandWasteRemoval/,,,,,https://411.ca/business/search?q=Demolition&st=on,https://411.ca/business/profile/7678898
411.ca - Demolition,Demolition,"ON, BC, AB, QC, MB, SK, NS, NB, NL, PE, NT, NU, YT",Toronto Demolition Co,14167460834,,http://outdatedbrowser.com/en,,,,,https://411.ca/business/search?q=Demolition&st=on,https://411.ca/business/profile/6315257
411.ca - Demolition,Demolition,"ON, BC, AB, QC, MB, SK, NS, NB, NL, PE, NT, NU, YT",Core Excavation Ltd,14163987800,,http://outdatedbrowser.com/en,,,,,https://411.ca/business/search?q=Demolition&st=on,https://411.ca/business/profile/12882733
411.ca - Demolition,Demolition,"ON, BC, AB, QC, MB, SK, NS, NB, NL, PE, NT, NU, YT",Tounnie Demolition& Con,14167555750,,http://outdatedbrowser.com/en,,,,,https://411.ca/business/search?q=Demolition&st=on,https://411.ca/business/profile/4526657
411.ca - Demolition,Demolition,"ON, BC, AB, QC, MB, SK, NS, NB, NL, PE, NT, NU, YT",AK Demolition Ltd,16478878244,,http://outdatedbrowser.com/en,,,,,https://411.ca/business/search?q=Demolition&st=on,https://411.ca/business/profile/13168375
411.ca - Demolition,Demolition,"ON, BC, AB, QC, MB, SK, NS, NB, NL, PE, NT, NU, YT",Valex Demolition Unlimited,14168258190,,http://outdatedbrowser.com/en,,,,,https://411.ca/business/search?q=Demolition&st=on,https://411.ca/business/profile/7686950
411.ca - Demolition,Demolition,"ON, BC, AB, QC, MB, SK, NS, NB, NL, PE, NT, NU, YT",Fast Excavating & Demolition Systems Limited,14167495582,,http://outdatedbrowser.com/en,,,,,https://411.ca/business/search?q=Demolition&st=on,https://411.ca/business/profile/2747669
411.ca - Demolition,Demolition,"ON, BC, AB, QC, MB, SK, NS, NB, NL, PE, NT, NU, YT",Demtec Demolition,14166149930,,http://outdatedbrowser.com/en,,,,,https://411.ca/business/search?q=Demolition&st=on,https://411.ca/business/profile/12765295
411.ca - Demolition,Demolition,"ON, BC, AB, QC, MB, SK, NS, NB, NL, PE, NT, NU, YT",310 Demo,14163981551,,http://www.310demo.com,,,,,https://411.ca/business/search?q=Demolition&st=on,https://411.ca/business/profile/4226108
411.ca - Demolition,Demolition,"ON, BC, AB, QC, MB, SK, NS, NB, NL, PE, NT, NU, YT",Krown Disposal,14168741711,,http://outdatedbrowser.com/en,,,,,https://411.ca/business/search?q=Demolition&st=on,https://411.ca/business/profile/13997819
411.ca - Demolition,Demolition,"ON, BC, AB, QC, MB, SK, NS, NB, NL, PE, NT, NU, YT",Rogers Comm Partnership,14169162344,,http://outdatedbrowser.com/en,,,,,https://411.ca/business/search?q=Demolition&st=on,https://411.ca/business/profile/12419249
411.ca - Demolition,Demolition,"ON, BC, AB, QC, MB, SK, NS, NB, NL, PE, NT, NU, YT",Rogers Comm Partnership,14164900834,,http://outdatedbrowser.com/en,,,,,https://411.ca/business/search?q=Demolition&st=on,https://411.ca/business/profile/4579251
411.ca - Demolition,Demolition,"ON, BC, AB, QC, MB, SK, NS, NB, NL, PE, NT, NU, YT",Rogers Comm Partnership,14168490296,,http://outdatedbrowser.com/en,,,,,https://411.ca/business/search?q=Demolition&st=on,https://411.ca/business/profile/4561213
411.ca - Fence Repair,Fence Repair,"ON, BC, AB, QC, MB, SK, NS, NB, NL, PE, NT, NU, YT",,14166135866,,http://outdatedbrowser.com/en,,,,,https://411.ca/business/search?q=Fence%20Repair&st=on,https://411.ca/business/search?q=fence%20repair&p=2
411.ca - Fence Repair,Fence Repair,"ON, BC, AB, QC, MB, SK, NS, NB, NL, PE, NT, NU, YT",411.ca,14168357557,,http://outdatedbrowser.com/en,,,,,https://411.ca/business/search?q=Fence%20Repair&st=ab,https://411.ca/business/near-me/fence-rentals?c=25
411.ca - Fence Repair,Fence Repair,"ON, BC, AB, QC, MB, SK, NS, NB, NL, PE, NT, NU, YT",411.ca,14166308483,,http://outdatedbrowser.com/en,,,,,https://411.ca/business/search?q=Fence%20Repair&st=ab,https://411.ca/business/near-me/enclosures?c=25
411.ca - Fence Repair,Fence Repair,"ON, BC, AB, QC, MB, SK, NS, NB, NL, PE, NT, NU, YT",411.ca,14165625979,,http://outdatedbrowser.com/en,,,,,https://411.ca/business/search?q=Fence%20Repair&st=ab,https://411.ca/business/near-me/aluminium-railings?c=25
411.ca - Fence Repair,Fence Repair,"ON, BC, AB, QC, MB, SK, NS, NB, NL, PE, NT, NU, YT",411.ca,19057733975,,http://outdatedbrowser.com/en,,,,,https://411.ca/business/search?q=Fence%20Repair&st=ab,https://411.ca/business/near-me/railings?c=25
411.ca - Fence Repair,Fence Repair,"ON, BC, AB, QC, MB, SK, NS, NB, NL, PE, NT, NU, YT",411.ca,14167468080,,http://outdatedbrowser.com/en,,,,,https://411.ca/business/search?q=Fence%20Repair&st=ab,https://411.ca/business/near-me/fence-contractors?c=25
411.ca - Fence Repair,Fence Repair,"ON, BC, AB, QC, MB, SK, NS, NB, NL, PE, NT, NU, YT",411.ca,19058910441,,http://outdatedbrowser.com/en,,,,,https://411.ca/business/search?q=Fence%20Repair&st=ab,https://411.ca/business/near-me/fences?c=25
411.ca - Fence Repair,Fence Repair,"ON, BC, AB, QC, MB, SK, NS, NB, NL, PE, NT, NU, YT",NY METAL INC,18772737641,,http://outdatedbrowser.com/en,,,,,https://411.ca/business/search?q=Fence%20Repair&st=on,https://411.ca/business/profile/13354425
411.ca - Fence Repair,Fence Repair,"ON, BC, AB, QC, MB, SK, NS, NB, NL, PE, NT, NU, YT",Diamond Star Ltd,14164976495,diamondstarltd@rogers.com,http://www.diamondstarltd.com/,,,,,https://411.ca/business/search?q=Fence%20Repair&st=on,https://411.ca/business/profile/13448113
source,category,region,business_name,phone,email,website,address,city,province,postal_code,listing_url,detail_url
Hotfrog - Plumbing,Plumbing,Canada,,+15068717155,,https://www.hotfrog.ar,,,,,https://www.hotfrog.ca/search/ca/plumbing,
Hotfrog - Plumbing,Plumbing,Canada,,+17052308336,,https://www.hotfrog.ar,,,,,https://www.hotfrog.ca/search/ca/plumbing,
Hotfrog - Plumbing,Plumbing,Canada,,+15198081398,,https://www.hotfrog.ar,,,,,https://www.hotfrog.ca/search/ca/plumbing,
Hotfrog - Plumbing,Plumbing,Canada,,+16132294464,,https://www.hotfrog.ar,,,,,https://www.hotfrog.ca/search/ca/plumbing,
Hotfrog - Plumbing,Plumbing,Canada,,+16138888578,,https://www.hotfrog.ar,,,,,https://www.hotfrog.ca/search/ca/plumbing,
Hotfrog - Plumbing,Plumbing,Canada,,+14388856999,,https://www.hotfrog.ar,,,,,https://www.hotfrog.ca/search/ca/plumbing,
Hotfrog - Plumbing,Plumbing,Canada,,+15063819564,,https://www.hotfrog.ar,,,,,https://www.hotfrog.ca/search/ca/plumbing,
Hotfrog - Plumbing,Plumbing,Canada,,+18192139625,,https://www.hotfrog.ar,,,,,https://www.hotfrog.ca/search/ca/plumbing,
Hotfrog - Plumbing,Plumbing,Canada,,+19053368706,,https://www.hotfrog.ar,,,,,https://www.hotfrog.ca/search/ca/plumbing,
Hotfrog - Plumbing,Plumbing,Canada,,+15874003435,,https://www.hotfrog.ar,,,,,https://www.hotfrog.ca/search/ca/plumbing,
Hotfrog - Plumbing,Plumbing,Canada,,+15199397294,,https://www.hotfrog.ar,,,,,https://www.hotfrog.ca/search/ca/plumbing,
Hotfrog - Plumbing,Plumbing,Canada,,+16138362736,,https://www.hotfrog.ar,,,,,https://www.hotfrog.ca/search/ca/plumbing,
Hotfrog - HVAC,HVAC,Canada,,+15067177971,,https://www.hotfrog.ar,,,,,https://www.hotfrog.ca/search/ca/hvac,
Hotfrog - HVAC,HVAC,Canada,,+17055214822,,https://www.hotfrog.ar,,,,,https://www.hotfrog.ca/search/ca/hvac,
Hotfrog - HVAC,HVAC,Canada,,+16132266741,,https://www.hotfrog.ar,,,,,https://www.hotfrog.ca/search/ca/hvac,
Hotfrog - HVAC,HVAC,Canada,,+19058336968,,https://www.hotfrog.ar,,,,,https://www.hotfrog.ca/search/ca/hvac,
Hotfrog - HVAC,HVAC,Canada,,+19056370102,,https://www.hotfrog.ar,,,,,https://www.hotfrog.ca/search/ca/hvac,
Hotfrog - HVAC,HVAC,Canada,,+17804786280,,https://www.hotfrog.ar,,,,,https://www.hotfrog.ca/search/ca/hvac,
Hotfrog - HVAC,HVAC,Canada,,+14162914066,,https://www.hotfrog.ar,,,,,https://www.hotfrog.ca/search/ca/hvac,
Hotfrog - HVAC,HVAC,Canada,,+16132554034,,https://www.hotfrog.ar,,,,,https://www.hotfrog.ca/search/ca/hvac,
Hotfrog - HVAC,HVAC,Canada,,+14166671527,,https://www.hotfrog.ar,,,,,https://www.hotfrog.ca/search/ca/hvac,
Hotfrog - HVAC,HVAC,Canada,,+14162717414,,https://www.hotfrog.ar,,,,,https://www.hotfrog.ca/search/ca/hvac,
Hotfrog - HVAC,HVAC,Canada,,+14038990864,,https://www.hotfrog.ar,,,,,https://www.hotfrog.ca/search/ca/hvac,
Hotfrog - HVAC,HVAC,Canada,,+18556704822,,https://www.hotfrog.ar,,,,,https://www.hotfrog.ca/search/ca/hvac,
Hotfrog - Electrician,Electrician,Canada,Hotfrog Argentina,+17806441010,,https://www.hotfrog.ar,,,,,https://www.hotfrog.ca/search/ca/electrician,
Hotfrog - Electrician,Electrician,Canada,Hotfrog Argentina,+12049865190,,https://www.hotfrog.ar,,,,,https://www.hotfrog.ca/search/ca/electrician,
Hotfrog - Electrician,Electrician,Canada,Hotfrog Argentina,+14036861125,,https://www.hotfrog.ar,,,,,https://www.hotfrog.ca/search/ca/electrician,
Hotfrog - Electrician,Electrician,Canada,Hotfrog Argentina,+16478085814,,https://www.hotfrog.ar,,,,,https://www.hotfrog.ca/search/ca/electrician,
Hotfrog - Electrician,Electrician,Canada,Hotfrog Argentina,+12505091445,,https://www.hotfrog.ar,,,,,https://www.hotfrog.ca/search/ca/electrician,
Hotfrog - Electrician,Electrician,Canada,Hotfrog Argentina,+12896560656,,https://www.hotfrog.ar,,,,,https://www.hotfrog.ca/search/ca/electrician,
Hotfrog - Electrician,Electrician,Canada,Hotfrog Argentina,+15192335683,,https://www.hotfrog.ar,,,,,https://www.hotfrog.ca/search/ca/electrician,
Hotfrog - Electrician,Electrician,Canada,Hotfrog Argentina,+19056813940,,https://www.hotfrog.ar,,,,,https://www.hotfrog.ca/search/ca/electrician,
Hotfrog - Electrician,Electrician,Canada,Hotfrog Argentina,+14504304075,,https://www.hotfrog.ar,,,,,https://www.hotfrog.ca/search/ca/electrician,
Hotfrog - Roofing,Roofing,Canada,,+17056449221,,https://www.hotfrog.ar,,,,,https://www.hotfrog.ca/search/ca/roofing,
Hotfrog - Roofing,Roofing,Canada,,+17809687777,,https://www.hotfrog.ar,,,,,https://www.hotfrog.ca/search/ca/roofing,
Hotfrog - Roofing,Roofing,Canada,,+19024657106,,https://www.hotfrog.ar,,,,,https://www.hotfrog.ca/search/ca/roofing,
Hotfrog - Roofing,Roofing,Canada,,+12503004894,,https://www.hotfrog.ar,,,,,https://www.hotfrog.ca/search/ca/roofing,
Hotfrog - Roofing,Roofing,Canada,,+12268214101,,https://www.hotfrog.ar,,,,,https://www.hotfrog.ca/search/ca/roofing,
Hotfrog - Roofing,Roofing,Canada,,+18073556030,,https://www.hotfrog.ar,,,,,https://www.hotfrog.ca/search/ca/roofing,
Hotfrog - Roofing,Roofing,Canada,,+13068250482,,https://www.hotfrog.ar,,,,,https://www.hotfrog.ca/search/ca/roofing,
Hotfrog - Roofing,Roofing,Canada,,+16475621576,,https://www.hotfrog.ar,,,,,https://www.hotfrog.ca/search/ca/roofing,
Hotfrog - Roofing,Roofing,Canada,,+16479169562,,https://www.hotfrog.ar,,,,,https://www.hotfrog.ca/search/ca/roofing,
Hotfrog - Roofing,Roofing,Canada,,+17824404829,,https://www.hotfrog.ar,,,,,https://www.hotfrog.ca/search/ca/roofing,
Hotfrog - Roofing,Roofing,Canada,,+16475602688,,https://www.hotfrog.ar,,,,,https://www.hotfrog.ca/search/ca/roofing,
Hotfrog - Roofing,Roofing,Canada,,+12269771132,,https://www.hotfrog.ar,,,,,https://www.hotfrog.ca/search/ca/roofing,
Hotfrog - Landscaping,Landscaping,Canada,,+16138185650,,https://www.hotfrog.ar,,,,,https://www.hotfrog.ca/search/ca/landscaping,
Hotfrog - Landscaping,Landscaping,Canada,,+15877418719,,https://www.hotfrog.ar,,,,,https://www.hotfrog.ca/search/ca/landscaping,
Hotfrog - Landscaping,Landscaping,Canada,,+12506610772,,https://www.hotfrog.ar,,,,,https://www.hotfrog.ca/search/ca/landscaping,
Hotfrog - Landscaping,Landscaping,Canada,,+18883212666,,https://www.hotfrog.ar,,,,,https://www.hotfrog.ca/search/ca/landscaping,
Hotfrog - Landscaping,Landscaping,Canada,,+14167043637,,https://www.hotfrog.ar,,,,,https://www.hotfrog.ca/search/ca/landscaping,
Hotfrog - Landscaping,Landscaping,Canada,,+17057896834,,https://www.hotfrog.ar,,,,,https://www.hotfrog.ca/search/ca/landscaping,
Hotfrog - Landscaping,Landscaping,Canada,,+19058200550,,https://www.hotfrog.ar,,,,,https://www.hotfrog.ca/search/ca/landscaping,
Hotfrog - Landscaping,Landscaping,Canada,,+16137967401,,https://www.hotfrog.ar,,,,,https://www.hotfrog.ca/search/ca/landscaping,
Hotfrog - Landscaping,Landscaping,Canada,,+17034993890,,https://www.hotfrog.ar,,,,,https://www.hotfrog.ca/search/ca/landscaping,
Hotfrog - Landscaping,Landscaping,Canada,,+19056380790,,https://www.hotfrog.ar,,,,,https://www.hotfrog.ca/search/ca/landscaping,
Hotfrog - Landscaping,Landscaping,Canada,,+14377475215,,https://www.hotfrog.ar,,,,,https://www.hotfrog.ca/search/ca/landscaping,
Hotfrog - Handyman,Handyman,Canada,,+16473269185,,https://www.hotfrog.ar,,,,,https://www.hotfrog.ca/search/ca/handyman,
Hotfrog - Handyman,Handyman,Canada,,+16137698591,,https://www.hotfrog.ar,,,,,https://www.hotfrog.ca/search/ca/handyman,
Hotfrog - Handyman,Handyman,Canada,,+14372646010,,https://www.hotfrog.ar,,,,,https://www.hotfrog.ca/search/ca/handyman,
Hotfrog - Handyman,Handyman,Canada,,+14167104008,,https://www.hotfrog.ar,,,,,https://www.hotfrog.ca/search/ca/handyman,
Hotfrog - Handyman,Handyman,Canada,,+16043528610,,https://www.hotfrog.ar,,,,,https://www.hotfrog.ca/search/ca/handyman,
Hotfrog - Handyman,Handyman,Canada,,+14168495416,,https://www.hotfrog.ar,,,,,https://www.hotfrog.ca/search/ca/handyman,
Hotfrog - Handyman,Handyman,Canada,,+14163001995,,https://www.hotfrog.ar,,,,,https://www.hotfrog.ca/search/ca/handyman,
Hotfrog - Handyman,Handyman,Canada,,+16043695334,,https://www.hotfrog.ar,,,,,https://www.hotfrog.ca/search/ca/handyman,
Hotfrog - Handyman,Handyman,Canada,,+16474570918,,https://www.hotfrog.ar,,,,,https://www.hotfrog.ca/search/ca/handyman,
Hotfrog - Handyman,Handyman,Canada,,+16478721200,,https://www.hotfrog.ar,,,,,https://www.hotfrog.ca/search/ca/handyman,
Hotfrog - Handyman,Handyman,Canada,,+14165683547,,https://www.hotfrog.ar,,,,,https://www.hotfrog.ca/search/ca/handyman,
Hotfrog - Handyman,Handyman,Canada,,+12508265398,,https://www.hotfrog.ar,,,,,https://www.hotfrog.ca/search/ca/handyman,
Hotfrog - Painting,Painting,Canada,,+16473269185,,https://www.hotfrog.ar,,,,,https://www.hotfrog.ca/search/ca/painting,
Hotfrog - Painting,Painting,Canada,,+17785330532,,https://www.hotfrog.ar,,,,,https://www.hotfrog.ca/search/ca/painting,
Hotfrog - Painting,Painting,Canada,,+12368836227,,https://www.hotfrog.ar,,,,,https://www.hotfrog.ca/search/ca/painting,
Hotfrog - Painting,Painting,Canada,,+18257604634,,https://www.hotfrog.ar,,,,,https://www.hotfrog.ca/search/ca/painting,
Hotfrog - Painting,Painting,Canada,,+12262000283,,https://www.hotfrog.ar,,,,,https://www.hotfrog.ca/search/ca/painting,
Hotfrog - Painting,Painting,Canada,,+17787439198,,https://www.hotfrog.ar,,,,,https://www.hotfrog.ca/search/ca/painting,
Hotfrog - Painting,Painting,Canada,,+12507357850,,https://www.hotfrog.ar,,,,,https://www.hotfrog.ca/search/ca/painting,
Hotfrog - Painting,Painting,Canada,,+19054418777,,https://www.hotfrog.ar,,,,,https://www.hotfrog.ca/search/ca/painting,
Hotfrog - Painting,Painting,Canada,,+15195510371,,https://www.hotfrog.ar,,,,,https://www.hotfrog.ca/search/ca/painting,
Hotfrog - Painting,Painting,Canada,,+16045728897,,https://www.hotfrog.ar,,,,,https://www.hotfrog.ca/search/ca/painting,
Hotfrog - Painting,Painting,Canada,,+14314517370,,https://www.hotfrog.ar,,,,,https://www.hotfrog.ca/search/ca/painting,
Hotfrog - Painting,Painting,Canada,,+12265042243,,https://www.hotfrog.ar,,,,,https://www.hotfrog.ca/search/ca/painting,
Hotfrog - Painting,Painting,Canada,,+16047514870,,https://www.hotfrog.ar,,,,,https://www.hotfrog.ca/search/ca/painting,
Hotfrog - Carpet Cleaning,Carpet Cleaning,Canada,,+17809862810,,https://www.hotfrog.ar,,,,,https://www.hotfrog.ca/search/ca/carpet-cleaning,
Hotfrog - Carpet Cleaning,Carpet Cleaning,Canada,,+16047716835,,https://www.hotfrog.ar,,,,,https://www.hotfrog.ca/search/ca/carpet-cleaning,
Hotfrog - Carpet Cleaning,Carpet Cleaning,Canada,,+16047220459,,https://www.hotfrog.ar,,,,,https://www.hotfrog.ca/search/ca/carpet-cleaning,
Hotfrog - Carpet Cleaning,Carpet Cleaning,Canada,,+16139311039,,https://www.hotfrog.ar,,,,,https://www.hotfrog.ca/search/ca/carpet-cleaning,
Hotfrog - Carpet Cleaning,Carpet Cleaning,Canada,,+19026281412,,https://www.hotfrog.ar,,,,,https://www.hotfrog.ca/search/ca/carpet-cleaning,
Hotfrog - Carpet Cleaning,Carpet Cleaning,Canada,,+16046749367,,https://www.hotfrog.ar,,,,,https://www.hotfrog.ca/search/ca/carpet-cleaning,
Hotfrog - Carpet Cleaning,Carpet Cleaning,Canada,,+12503832630,,https://www.hotfrog.ar,,,,,https://www.hotfrog.ca/search/ca/carpet-cleaning,
Hotfrog - Carpet Cleaning,Carpet Cleaning,Canada,,+17788294557,,https://www.hotfrog.ar,,,,,https://www.hotfrog.ca/search/ca/carpet-cleaning,
Hotfrog - Carpet Cleaning,Carpet Cleaning,Canada,,+17787711055,,https://www.hotfrog.ar,,,,,https://www.hotfrog.ca/search/ca/carpet-cleaning,
Hotfrog - Carpet Cleaning,Carpet Cleaning,Canada,,+19524769925,,https://www.hotfrog.ar,,,,,https://www.hotfrog.ca/search/ca/carpet-cleaning,
Hotfrog - Carpet Cleaning,Carpet Cleaning,Canada,,+16047858566,,https://www.hotfrog.ar,,,,,https://www.hotfrog.ca/search/ca/carpet-cleaning,
Hotfrog - Gutter Cleaning,Gutter Cleaning,Canada,,+12507185078,,https://www.hotfrog.ar,,,,,https://www.hotfrog.ca/search/ca/gutter-cleaning,
Hotfrog - Gutter Cleaning,Gutter Cleaning,Canada,,+12506568907,,https://www.hotfrog.ar,,,,,https://www.hotfrog.ca/search/ca/gutter-cleaning,
Hotfrog - Gutter Cleaning,Gutter Cleaning,Canada,,+17788933566,,https://www.hotfrog.ar,,,,,https://www.hotfrog.ca/search/ca/gutter-cleaning,
Hotfrog - Gutter Cleaning,Gutter Cleaning,Canada,,+19053809835,,https://www.hotfrog.ar,,,,,https://www.hotfrog.ca/search/ca/gutter-cleaning,
Hotfrog - Gutter Cleaning,Gutter Cleaning,Canada,,+17788968653,,https://www.hotfrog.ar,,,,,https://www.hotfrog.ca/search/ca/gutter-cleaning,
Hotfrog - Gutter Cleaning,Gutter Cleaning,Canada,,+12503311071,,https://www.hotfrog.ar,,,,,https://www.hotfrog.ca/search/ca/gutter-cleaning,
Hotfrog - Gutter Cleaning,Gutter Cleaning,Canada,,+18196618821,,https://www.hotfrog.ar,,,,,https://www.hotfrog.ca/search/ca/gutter-cleaning,
Hotfrog - Gutter Cleaning,Gutter Cleaning,Canada,,+12502037670,,https://www.hotfrog.ar,,,,,https://www.hotfrog.ca/search/ca/gutter-cleaning,
Hotfrog - Gutter Cleaning,Gutter Cleaning,Canada,,+17808078778,,https://www.hotfrog.ar,,,,,https://www.hotfrog.ca/search/ca/gutter-cleaning,
Hotfrog - Gutter Cleaning,Gutter Cleaning,Canada,,+19055803730,,https://www.hotfrog.ar,,,,,https://www.hotfrog.ca/search/ca/gutter-cleaning,
Hotfrog - Gutter Cleaning,Gutter Cleaning,Canada,,+14033718738,,https://www.hotfrog.ar,,,,,https://www.hotfrog.ca/search/ca/gutter-cleaning,
Hotfrog - Gutter Cleaning,Gutter Cleaning,Canada,Top 12 Best gutter cleaning in Ca,+12508083128,,https://www.hotfrog.ar,,,,,https://www.hotfrog.ca/search/ca/gutter-cleaning,https://www.hotfrog.ca/search/ca/gutter-cleaning/5
Hotfrog - Gutter Cleaning,Gutter Cleaning,Canada,Top 12 Best gutter cleaning in Ca,+17785835057,,https://www.hotfrog.ar,,,,,https://www.hotfrog.ca/search/ca/gutter-cleaning,https://www.hotfrog.ca/search/ca/gutter-cleaning/4
Hotfrog - Gutter Cleaning,Gutter Cleaning,Canada,Top 12 Best gutter cleaning in Ca,+14372238366,,https://www.hotfrog.ar,,,,,https://www.hotfrog.ca/search/ca/gutter-cleaning,https://www.hotfrog.ca/search/ca/gutter-cleaning/3
Hotfrog - Gutter Cleaning,Gutter Cleaning,Canada,Top 12 Best gutter cleaning in Ca,+14033718738,,https://www.hotfrog.ar,,,,,https://www.hotfrog.ca/search/ca/gutter-cleaning,https://www.hotfrog.ca/search/ca/gutter-cleaning/2
Hotfrog - Carpet Cleaning,Carpet Cleaning,Canada,Top 12 Best carpet cleaning in Ca,+14167706363,,https://www.hotfrog.ar,,,,,https://www.hotfrog.ca/search/ca/carpet-cleaning,https://www.hotfrog.ca/search/ca/carpet-cleaning/5
Hotfrog - Carpet Cleaning,Carpet Cleaning,Canada,Top 12 Best carpet cleaning in Ca,+12502626830,,https://www.hotfrog.ar,,,,,https://www.hotfrog.ca/search/ca/carpet-cleaning,https://www.hotfrog.ca/search/ca/carpet-cleaning/4
Hotfrog - Carpet Cleaning,Carpet Cleaning,Canada,Top 12 Best carpet cleaning in Ca,+19053373117,,https://www.hotfrog.ar,,,,,https://www.hotfrog.ca/search/ca/carpet-cleaning,https://www.hotfrog.ca/search/ca/carpet-cleaning/3
Hotfrog - Carpet Cleaning,Carpet Cleaning,Canada,Top 12 Best carpet cleaning in Ca,+14039758155,,https://www.hotfrog.ar,,,,,https://www.hotfrog.ca/search/ca/carpet-cleaning,https://www.hotfrog.ca/search/ca/carpet-cleaning/2
Hotfrog - Painting,Painting,Canada,Top 12 Best painting in Ca,+16478839669,,https://www.hotfrog.ar,,,,,https://www.hotfrog.ca/search/ca/painting,https://www.hotfrog.ca/search/ca/painting/5
Hotfrog - Painting,Painting,Canada,Top 12 Best painting in Ca,+16047391558,,https://www.hotfrog.ar,,,,,https://www.hotfrog.ca/search/ca/painting,https://www.hotfrog.ca/search/ca/painting/4
Hotfrog - Painting,Painting,Canada,Top 12 Best painting in Ca,+14032521366,,https://www.hotfrog.ar,,,,,https://www.hotfrog.ca/search/ca/painting,https://www.hotfrog.ca/search/ca/painting/3
Hotfrog - Painting,Painting,Canada,Top 12 Best painting in Ca,+19056163925,,https://www.hotfrog.ar,,,,,https://www.hotfrog.ca/search/ca/painting,https://www.hotfrog.ca/search/ca/painting/2
Hotfrog - Handyman,Handyman,Canada,Top 12 Best handyman in Ca,+15192561582,,https://www.hotfrog.ar,,,,,https://www.hotfrog.ca/search/ca/handyman,https://www.hotfrog.ca/search/ca/handyman/5
Hotfrog - Handyman,Handyman,Canada,Top 12 Best handyman in Ca,+16138999003,,https://www.hotfrog.ar,,,,,https://www.hotfrog.ca/search/ca/handyman,https://www.hotfrog.ca/search/ca/handyman/4
Hotfrog - Handyman,Handyman,Canada,Top 12 Best handyman in Ca,+17788839311,,https://www.hotfrog.ar,,,,,https://www.hotfrog.ca/search/ca/handyman,https://www.hotfrog.ca/search/ca/handyman/3
Hotfrog - Handyman,Handyman,Canada,Top 12 Best handyman in Ca,+16139781596,,https://www.hotfrog.ar,,,,,https://www.hotfrog.ca/search/ca/handyman,https://www.hotfrog.ca/search/ca/handyman/2
Hotfrog - Landscaping,Landscaping,Canada,Top 12 Best landscaping in Ca,+19056839919,,https://www.hotfrog.ar,,,,,https://www.hotfrog.ca/search/ca/landscaping,https://www.hotfrog.ca/search/ca/landscaping/5
Hotfrog - Landscaping,Landscaping,Canada,Top 12 Best landscaping in Ca,+14035855585,,https://www.hotfrog.ar,,,,,https://www.hotfrog.ca/search/ca/landscaping,https://www.hotfrog.ca/search/ca/landscaping/4
Hotfrog - Landscaping,Landscaping,Canada,Top 12 Best landscaping in Ca,+16472193304,,https://www.hotfrog.ar,,,,,https://www.hotfrog.ca/search/ca/landscaping,https://www.hotfrog.ca/search/ca/landscaping/3
Hotfrog - Landscaping,Landscaping,Canada,Top 12 Best landscaping in Ca,+16476970907,,https://www.hotfrog.ar,,,,,https://www.hotfrog.ca/search/ca/landscaping,https://www.hotfrog.ca/search/ca/landscaping/2
Hotfrog - Roofing,Roofing,Canada,Top 12 Best roofing in Ca,+18254611641,,https://www.hotfrog.ar,,,,,https://www.hotfrog.ca/search/ca/roofing,https://www.hotfrog.ca/search/ca/roofing/5
Hotfrog - Roofing,Roofing,Canada,Top 12 Best roofing in Ca,+15146388282,,https://www.hotfrog.ar,,,,,https://www.hotfrog.ca/search/ca/roofing,https://www.hotfrog.ca/search/ca/roofing/4
Hotfrog - Roofing,Roofing,Canada,Top 12 Best roofing in Ca,+18075482811,,https://www.hotfrog.ar,,,,,https://www.hotfrog.ca/search/ca/roofing,https://www.hotfrog.ca/search/ca/roofing/3
Hotfrog - Roofing,Roofing,Canada,Top 12 Best roofing in Ca,+14169184008,,https://www.hotfrog.ar,,,,,https://www.hotfrog.ca/search/ca/roofing,https://www.hotfrog.ca/search/ca/roofing/2
Hotfrog - Electrician,Electrician,Canada,Top 12 Best electrician in Ca,+16477287919,,https://www.hotfrog.ar,,,,,https://www.hotfrog.ca/search/ca/electrician,https://www.hotfrog.ca/search/ca/electrician/5
Hotfrog - Electrician,Electrician,Canada,Top 12 Best electrician in Ca,+14035980936,,https://www.hotfrog.ar,,,,,https://www.hotfrog.ca/search/ca/electrician,https://www.hotfrog.ca/search/ca/electrician/4
Hotfrog - Electrician,Electrician,Canada,Top 12 Best electrician in Ca,+14166609923,,https://www.hotfrog.ar,,,,,https://www.hotfrog.ca/search/ca/electrician,https://www.hotfrog.ca/search/ca/electrician/3
Hotfrog - Electrician,Electrician,Canada,Top 12 Best electrician in Ca,+15148850247,,https://www.hotfrog.ar,,,,,https://www.hotfrog.ca/search/ca/electrician,https://www.hotfrog.ca/search/ca/electrician/2
Hotfrog - HVAC,HVAC,Canada,Top 12 Best hvac in Ca,+16472939752,,https://www.hotfrog.ar,,,,,https://www.hotfrog.ca/search/ca/hvac,https://www.hotfrog.ca/search/ca/hvac/5
Hotfrog - HVAC,HVAC,Canada,Top 12 Best hvac in Ca,+14163665877,,https://www.hotfrog.ar,,,,,https://www.hotfrog.ca/search/ca/hvac,https://www.hotfrog.ca/search/ca/hvac/4
Hotfrog - HVAC,HVAC,Canada,Top 12 Best hvac in Ca,+14038889032,,https://www.hotfrog.ar,,,,,https://www.hotfrog.ca/search/ca/hvac,https://www.hotfrog.ca/search/ca/hvac/3
Hotfrog - HVAC,HVAC,Canada,Top 12 Best hvac in Ca,+18003635739,,https://www.hotfrog.ar,,,,,https://www.hotfrog.ca/search/ca/hvac,https://www.hotfrog.ca/search/ca/hvac/2
Hotfrog - Plumbing,Plumbing,Canada,Newfold digital,8008628921,,https://newfold.com,,,,,https://www.hotfrog.ca/search/ca/plumbing,https://www.newfold.com/
Hotfrog - Plumbing,Plumbing,Canada,Privacy Policy,+61861861510,,https://legal.hotfrog.com/privacy-policy/,,,,,https://www.hotfrog.ca/search/ca/plumbing,https://legal.hotfrog.com/privacy-policy/
Hotfrog - Plumbing,Plumbing,Canada,Top 12 Best plumbing in Ca,+12508706199,,https://www.hotfrog.ar,,,,,https://www.hotfrog.ca/search/ca/plumbing,https://www.hotfrog.ca/search/ca/plumbing/5
Hotfrog - Plumbing,Plumbing,Canada,Top 12 Best plumbing in Ca,+12508332727,,https://www.hotfrog.ar,,,,,https://www.hotfrog.ca/search/ca/plumbing,https://www.hotfrog.ca/search/ca/plumbing/4
Hotfrog - Plumbing,Plumbing,Canada,Top 12 Best plumbing in Ca,+17054993200,,https://www.hotfrog.ar,,,,,https://www.hotfrog.ca/search/ca/plumbing,https://www.hotfrog.ca/search/ca/plumbing/3
Hotfrog - Plumbing,Plumbing,Canada,Top 12 Best plumbing in Ca,+14038375979,,https://www.hotfrog.ar,,,,,https://www.hotfrog.ca/search/ca/plumbing,https://www.hotfrog.ca/search/ca/plumbing/2
Hotfrog - Pest Control,Pest Control,Canada,Hotfrog Argentina,+16479216966,,https://www.hotfrog.ar,,,,,https://www.hotfrog.ca/search/ca/pest-control,
Hotfrog - Pest Control,Pest Control,Canada,Hotfrog Argentina,+14168711423,,https://www.hotfrog.ar,,,,,https://www.hotfrog.ca/search/ca/pest-control,
Hotfrog - Pest Control,Pest Control,Canada,Hotfrog Argentina,+16479806503,,https://www.hotfrog.ar,,,,,https://www.hotfrog.ca/search/ca/pest-control,
Hotfrog - Pest Control,Pest Control,Canada,Hotfrog Argentina,+18775070642,,https://www.hotfrog.ar,,,,,https://www.hotfrog.ca/search/ca/pest-control,
Hotfrog - Pest Control,Pest Control,Canada,Hotfrog Argentina,+17056879477,,https://www.hotfrog.ar,,,,,https://www.hotfrog.ca/search/ca/pest-control,
Hotfrog - Pest Control,Pest Control,Canada,Hotfrog Argentina,+16045599060,,https://www.hotfrog.ar,,,,,https://www.hotfrog.ca/search/ca/pest-control,
Hotfrog - Pest Control,Pest Control,Canada,Hotfrog Argentina,+19056878775,,https://www.hotfrog.ar,,,,,https://www.hotfrog.ca/search/ca/pest-control,
Hotfrog - Pest Control,Pest Control,Canada,Hotfrog Argentina,+13063847707,,https://www.hotfrog.ar,,,,,https://www.hotfrog.ca/search/ca/pest-control,
Hotfrog - Pest Control,Pest Control,Canada,Hotfrog Argentina,+16474038823,,https://www.hotfrog.ar,,,,,https://www.hotfrog.ca/search/ca/pest-control,
Hotfrog - Pest Control,Pest Control,Canada,Hotfrog Argentina,+16475600326,,https://www.hotfrog.ar,,,,,https://www.hotfrog.ca/search/ca/pest-control,
Hotfrog - Pest Control,Pest Control,Canada,Hotfrog Argentina,+16472871929,,https://www.hotfrog.ar,,,,,https://www.hotfrog.ca/search/ca/pest-control,
Hotfrog - Appliance Repair,Appliance Repair,Canada,,+19058845000,,https://www.hotfrog.ar,,,,,https://www.hotfrog.ca/search/ca/appliance-repair,
Hotfrog - Appliance Repair,Appliance Repair,Canada,,+17052417363,,https://www.hotfrog.ar,,,,,https://www.hotfrog.ca/search/ca/appliance-repair,
Hotfrog - Appliance Repair,Appliance Repair,Canada,,+14379221157,,https://www.hotfrog.ar,,,,,https://www.hotfrog.ca/search/ca/appliance-repair,
Hotfrog - Appliance Repair,Appliance Repair,Canada,,+17788877383,,https://www.hotfrog.ar,,,,,https://www.hotfrog.ca/search/ca/appliance-repair,
Hotfrog - Appliance Repair,Appliance Repair,Canada,,+19053034600,,https://www.hotfrog.ar,,,,,https://www.hotfrog.ca/search/ca/appliance-repair,
Hotfrog - Appliance Repair,Appliance Repair,Canada,,+17784018231,,https://www.hotfrog.ar,,,,,https://www.hotfrog.ca/search/ca/appliance-repair,
Hotfrog - Appliance Repair,Appliance Repair,Canada,,+16474927773,,https://www.hotfrog.ar,,,,,https://www.hotfrog.ca/search/ca/appliance-repair,
Hotfrog - Appliance Repair,Appliance Repair,Canada,,+16048136382,,https://www.hotfrog.ar,,,,,https://www.hotfrog.ca/search/ca/appliance-repair,
Hotfrog - Appliance Repair,Appliance Repair,Canada,,+15876021041,,https://www.hotfrog.ar,,,,,https://www.hotfrog.ca/search/ca/appliance-repair,
Hotfrog - Appliance Repair,Appliance Repair,Canada,,+12892759559,,https://www.hotfrog.ar,,,,,https://www.hotfrog.ca/search/ca/appliance-repair,
Hotfrog - Appliance Repair,Appliance Repair,Canada,,+16478126915,,https://www.hotfrog.ar,,,,,https://www.hotfrog.ca/search/ca/appliance-repair,
Hotfrog - Appliance Repair,Appliance Repair,Canada,,+18777231777,,https://www.hotfrog.ar,,,,,https://www.hotfrog.ca/search/ca/appliance-repair,
Hotfrog - Moving,Moving,Canada,Hotfrog Argentina,+14035241449,,https://www.hotfrog.ar,,,,,https://www.hotfrog.ca/search/ca/moving,
Hotfrog - Moving,Moving,Canada,Hotfrog Argentina,+14167374414,,https://www.hotfrog.ar,,,,,https://www.hotfrog.ca/search/ca/moving,
Hotfrog - Moving,Moving,Canada,Hotfrog Argentina,+19059758583,,https://www.hotfrog.ar,,,,,https://www.hotfrog.ca/search/ca/moving,
Hotfrog - Moving,Moving,Canada,Hotfrog Argentina,+17804546683,,https://www.hotfrog.ar,,,,,https://www.hotfrog.ca/search/ca/moving,
Hotfrog - Moving,Moving,Canada,Hotfrog Argentina,+14038799927,,https://www.hotfrog.ar,,,,,https://www.hotfrog.ca/search/ca/moving,
Hotfrog - Moving,Moving,Canada,Hotfrog Argentina,+17809982422,,https://www.hotfrog.ar,,,,,https://www.hotfrog.ca/search/ca/moving,
Hotfrog - Moving,Moving,Canada,Hotfrog Argentina,+16048338174,,https://www.hotfrog.ar,,,,,https://www.hotfrog.ca/search/ca/moving,
Hotfrog - Moving,Moving,Canada,Hotfrog Argentina,+16048515901,,https://www.hotfrog.ar,,,,,https://www.hotfrog.ca/search/ca/moving,
Hotfrog - Moving,Moving,Canada,Hotfrog Argentina,+17804657000,,https://www.hotfrog.ar,,,,,https://www.hotfrog.ca/search/ca/moving,
Hotfrog - Moving,Moving,Canada,Hotfrog Argentina,+16136004000,,https://www.hotfrog.ar,,,,,https://www.hotfrog.ca/search/ca/moving,
Hotfrog - Moving,Moving,Canada,Hotfrog Argentina,+15148190354,,https://www.hotfrog.ar,,,,,https://www.hotfrog.ca/search/ca/moving,
Hotfrog - Moving,Moving,Canada,Hotfrog Argentina,+16047413403,,https://www.hotfrog.ar,,,,,https://www.hotfrog.ca/search/ca/moving,
Hotfrog - Junk Removal,Junk Removal,Canada,,+16477046132,,https://www.hotfrog.ar,,,,,https://www.hotfrog.ca/search/ca/junk-removal,
Hotfrog - Junk Removal,Junk Removal,Canada,,+15144818692,,https://www.hotfrog.ar,,,,,https://www.hotfrog.ca/search/ca/junk-removal,
Hotfrog - Junk Removal,Junk Removal,Canada,,+16047865219,,https://www.hotfrog.ar,,,,,https://www.hotfrog.ca/search/ca/junk-removal,
Hotfrog - Junk Removal,Junk Removal,Canada,,+16047803134,,https://www.hotfrog.ar,,,,,https://www.hotfrog.ca/search/ca/junk-removal,
Hotfrog - Junk Removal,Junk Removal,Canada,,+14375332032,,https://www.hotfrog.ar,,,,,https://www.hotfrog.ca/search/ca/junk-removal,
Hotfrog - Junk Removal,Junk Removal,Canada,,+18885865888,,https://www.hotfrog.ar,,,,,https://www.hotfrog.ca/search/ca/junk-removal,
Hotfrog - Junk Removal,Junk Removal,Canada,,+12366226155,,https://www.hotfrog.ar,,,,,https://www.hotfrog.ca/search/ca/junk-removal,
Hotfrog - Junk Removal,Junk Removal,Canada,,+14037145865,,https://www.hotfrog.ar,,,,,https://www.hotfrog.ca/search/ca/junk-removal,
Hotfrog - Junk Removal,Junk Removal,Canada,,+16049107549,,https://www.hotfrog.ar,,,,,https://www.hotfrog.ca/search/ca/junk-removal,
Hotfrog - Junk Removal,Junk Removal,Canada,,+18885195865,,https://www.hotfrog.ar,,,,,https://www.hotfrog.ca/search/ca/junk-removal,
Hotfrog - Junk Removal,Junk Removal,Canada,,+18772694445,,https://www.hotfrog.ar,,,,,https://www.hotfrog.ca/search/ca/junk-removal,
Hotfrog - Locksmith,Locksmith,Canada,,+19059101453,,https://www.hotfrog.ar,,,,,https://www.hotfrog.ca/search/ca/locksmith,
Hotfrog - Locksmith,Locksmith,Canada,,+16478397683,,https://www.hotfrog.ar,,,,,https://www.hotfrog.ca/search/ca/locksmith,
Hotfrog - Locksmith,Locksmith,Canada,,+14168311040,,https://www.hotfrog.ar,,,,,https://www.hotfrog.ca/search/ca/locksmith,
Hotfrog - Locksmith,Locksmith,Canada,,+19059701864,,https://www.hotfrog.ar,,,,,https://www.hotfrog.ca/search/ca/locksmith,
Hotfrog - Locksmith,Locksmith,Canada,,+12892700256,,https://www.hotfrog.ar,,,,,https://www.hotfrog.ca/search/ca/locksmith,
Hotfrog - Locksmith,Locksmith,Canada,,+16478896919,,https://www.hotfrog.ar,,,,,https://www.hotfrog.ca/search/ca/locksmith,
Hotfrog - Locksmith,Locksmith,Canada,,+16477817937,,https://www.hotfrog.ar,,,,,https://www.hotfrog.ca/search/ca/locksmith,
Hotfrog - Locksmith,Locksmith,Canada,,+17788587175,,https://www.hotfrog.ar,,,,,https://www.hotfrog.ca/search/ca/locksmith,
Hotfrog - Security Systems,Security Systems,Canada,,+16132286000,,https://www.hotfrog.ar,,,,,https://www.hotfrog.ca/search/ca/security-systems,
Hotfrog - Security Systems,Security Systems,Canada,,+19026780588,,https://www.hotfrog.ar,,,,,https://www.hotfrog.ca/search/ca/security-systems,
Hotfrog - Security Systems,Security Systems,Canada,,+15198358182,,https://www.hotfrog.ar,,,,,https://www.hotfrog.ca/search/ca/security-systems,
Hotfrog - Security Systems,Security Systems,Canada,,+17804481776,,https://www.hotfrog.ar,,,,,https://www.hotfrog.ca/search/ca/security-systems,
Hotfrog - Security Systems,Security Systems,Canada,,+15149351755,,https://www.hotfrog.ar,,,,,https://www.hotfrog.ca/search/ca/security-systems,
Hotfrog - Security Systems,Security Systems,Canada,,+14169892445,,https://www.hotfrog.ar,,,,,https://www.hotfrog.ca/search/ca/security-systems,
Hotfrog - Security Systems,Security Systems,Canada,,+17809182565,,https://www.hotfrog.ar,,,,,https://www.hotfrog.ca/search/ca/security-systems,
Hotfrog - Security Systems,Security Systems,Canada,,+16138808080,,https://www.hotfrog.ar,,,,,https://www.hotfrog.ca/search/ca/security-systems,
Hotfrog - Security Systems,Security Systems,Canada,,+17804749011,,https://www.hotfrog.ar,,,,,https://www.hotfrog.ca/search/ca/security-systems,
Hotfrog - Security Systems,Security Systems,Canada,,+19027893549,,https://www.hotfrog.ar,,,,,https://www.hotfrog.ca/search/ca/security-systems,
Hotfrog - Security Systems,Security Systems,Canada,,+16043247777,,https://www.hotfrog.ar,,,,,https://www.hotfrog.ca/search/ca/security-systems,
Hotfrog - Security Systems,Security Systems,Canada,,+19053334566,,https://www.hotfrog.ar,,,,,https://www.hotfrog.ca/search/ca/security-systems,
Hotfrog - Siding,Siding,Canada,,+19055480091,,https://www.hotfrog.ar,,,,,https://www.hotfrog.ca/search/ca/siding,
Hotfrog - Siding,Siding,Canada,,+12894350266,,https://www.hotfrog.ar,,,,,https://www.hotfrog.ca/search/ca/siding,
Hotfrog - Siding,Siding,Canada,,+15198904901,,https://www.hotfrog.ar,,,,,https://www.hotfrog.ca/search/ca/siding,
Hotfrog - Siding,Siding,Canada,,+14162704420,,https://www.hotfrog.ar,,,,,https://www.hotfrog.ca/search/ca/siding,
Hotfrog - Siding,Siding,Canada,,+16472715033,,https://www.hotfrog.ar,,,,,https://www.hotfrog.ca/search/ca/siding,
Hotfrog - Siding,Siding,Canada,,+14169371003,,https://www.hotfrog.ar,,,,,https://www.hotfrog.ca/search/ca/siding,
Hotfrog - Siding,Siding,Canada,,+14167101400,,https://www.hotfrog.ar,,,,,https://www.hotfrog.ca/search/ca/siding,
Hotfrog - Siding,Siding,Canada,,+19057369621,,https://www.hotfrog.ar,,,,,https://www.hotfrog.ca/search/ca/siding,
Hotfrog - Siding,Siding,Canada,,+15193128727,,https://www.hotfrog.ar,,,,,https://www.hotfrog.ca/search/ca/siding,
Hotfrog - Siding,Siding,Canada,,+17783842087,,https://www.hotfrog.ar,,,,,https://www.hotfrog.ca/search/ca/siding,
Hotfrog - Siding,Siding,Canada,,+12042237740,,https://www.hotfrog.ar,,,,,https://www.hotfrog.ca/search/ca/siding,
Hotfrog - Siding,Siding,Canada,,+17273328816,,https://www.hotfrog.ar,,,,,https://www.hotfrog.ca/search/ca/siding,
Hotfrog - Concrete,Concrete,Canada,,+13438090758,,https://www.hotfrog.ar,,,,,https://www.hotfrog.ca/search/ca/concrete,
Hotfrog - Concrete,Concrete,Canada,,+13067007372,,https://www.hotfrog.ar,,,,,https://www.hotfrog.ca/search/ca/concrete,
Hotfrog - Concrete,Concrete,Canada,,+19055467057,,https://www.hotfrog.ar,,,,,https://www.hotfrog.ca/search/ca/concrete,
Hotfrog - Concrete,Concrete,Canada,,+12042162616,,https://www.hotfrog.ar,,,,,https://www.hotfrog.ca/search/ca/concrete,
Hotfrog - Concrete,Concrete,Canada,,+15198906089,,https://www.hotfrog.ar,,,,,https://www.hotfrog.ca/search/ca/concrete,
Hotfrog - Concrete,Concrete,Canada,,+15062262777,,https://www.hotfrog.ar,,,,,https://www.hotfrog.ca/search/ca/concrete,
Hotfrog - Concrete,Concrete,Canada,,+17802364201,,https://www.hotfrog.ar,,,,,https://www.hotfrog.ca/search/ca/concrete,
Hotfrog - Concrete,Concrete,Canada,,+17808198423,,https://www.hotfrog.ar,,,,,https://www.hotfrog.ca/search/ca/concrete,
Hotfrog - Concrete,Concrete,Canada,,+16046155050,,https://www.hotfrog.ar,,,,,https://www.hotfrog.ca/search/ca/concrete,
Hotfrog - Concrete,Concrete,Canada,,+16043404509,,https://www.hotfrog.ar,,,,,https://www.hotfrog.ca/search/ca/concrete,
Hotfrog - Concrete,Concrete,Canada,,+19056802568,,https://www.hotfrog.ar,,,,,https://www.hotfrog.ca/search/ca/concrete,
Hotfrog - Concrete,Concrete,Canada,,+17788369513,,https://www.hotfrog.ar,,,,,https://www.hotfrog.ca/search/ca/concrete,
Hotfrog - Tree Service,Tree Service,Canada,,+14036901269,,https://www.hotfrog.ar,,,,,https://www.hotfrog.ca/search/ca/tree-service,
Hotfrog - Tree Service,Tree Service,Canada,,+16137772302,,https://www.hotfrog.ar,,,,,https://www.hotfrog.ca/search/ca/tree-service,
Hotfrog - Tree Service,Tree Service,Canada,,+12362333202,,https://www.hotfrog.ar,,,,,https://www.hotfrog.ca/search/ca/tree-service,
Hotfrog - Tree Service,Tree Service,Canada,,+12264558286,,https://www.hotfrog.ar,,,,,https://www.hotfrog.ca/search/ca/tree-service,
Hotfrog - Tree Service,Tree Service,Canada,,+16139027464,,https://www.hotfrog.ar,,,,,https://www.hotfrog.ca/search/ca/tree-service,
Hotfrog - Tree Service,Tree Service,Canada,,+17785819201,,https://www.hotfrog.ar,,,,,https://www.hotfrog.ca/search/ca/tree-service,
Hotfrog - Tree Service,Tree Service,Canada,,+19029568590,,https://www.hotfrog.ar,,,,,https://www.hotfrog.ca/search/ca/tree-service,
Hotfrog - Tree Service,Tree Service,Canada,,+14032702996,,https://www.hotfrog.ar,,,,,https://www.hotfrog.ca/search/ca/tree-service,
Hotfrog - Tree Service,Tree Service,Canada,,+15488000656,,https://www.hotfrog.ar,,,,,https://www.hotfrog.ca/search/ca/tree-service,
Hotfrog - Tree Service,Tree Service,Canada,,+16043734657,,https://www.hotfrog.ar,,,,,https://www.hotfrog.ca/search/ca/tree-service,
Hotfrog - Tree Service,Tree Service,Canada,,+12502724537,,https://www.hotfrog.ar,,,,,https://www.hotfrog.ca/search/ca/tree-service,
Hotfrog - Tree Service,Tree Service,Canada,,+16045888733,,https://www.hotfrog.ar,,,,,https://www.hotfrog.ca/search/ca/tree-service,
Hotfrog - Tree Service,Tree Service,Canada,Top 12 Best tree service in Ca,+17809192302,,https://www.hotfrog.ar,,,,,https://www.hotfrog.ca/search/ca/tree-service,https://www.hotfrog.ca/search/ca/tree-service/5
Hotfrog - Tree Service,Tree Service,Canada,Top 12 Best tree service in Ca,+12505084445,,https://www.hotfrog.ar,,,,,https://www.hotfrog.ca/search/ca/tree-service,https://www.hotfrog.ca/search/ca/tree-service/4
Hotfrog - Tree Service,Tree Service,Canada,Top 12 Best tree service in Ca,+14169903355,,https://www.hotfrog.ar,,,,,https://www.hotfrog.ca/search/ca/tree-service,https://www.hotfrog.ca/search/ca/tree-service/3
Hotfrog - Tree Service,Tree Service,Canada,Top 12 Best tree service in Ca,+18775582441,,https://www.hotfrog.ar,,,,,https://www.hotfrog.ca/search/ca/tree-service,https://www.hotfrog.ca/search/ca/tree-service/2
Hotfrog - Concrete,Concrete,Canada,Top 12 Best concrete in Ca,+12267781988,,https://www.hotfrog.ar,,,,,https://www.hotfrog.ca/search/ca/concrete,https://www.hotfrog.ca/search/ca/concrete/5
Hotfrog - Concrete,Concrete,Canada,Top 12 Best concrete in Ca,+12502480805,,https://www.hotfrog.ar,,,,,https://www.hotfrog.ca/search/ca/concrete,https://www.hotfrog.ca/search/ca/concrete/4
Hotfrog - Concrete,Concrete,Canada,Top 12 Best concrete in Ca,+16044481809,,https://www.hotfrog.ar,,,,,https://www.hotfrog.ca/search/ca/concrete,https://www.hotfrog.ca/search/ca/concrete/3
Hotfrog - Concrete,Concrete,Canada,Top 12 Best concrete in Ca,+12267024486,,https://www.hotfrog.ar,,,,,https://www.hotfrog.ca/search/ca/concrete,https://www.hotfrog.ca/search/ca/concrete/2
Hotfrog - Siding,Siding,Canada,Top 12 Best siding in Ca,+16049377730,,https://www.hotfrog.ar,,,,,https://www.hotfrog.ca/search/ca/siding,https://www.hotfrog.ca/search/ca/siding/5
Hotfrog - Siding,Siding,Canada,Top 12 Best siding in Ca,+15198964747,,https://www.hotfrog.ar,,,,,https://www.hotfrog.ca/search/ca/siding,https://www.hotfrog.ca/search/ca/siding/4
Hotfrog - Siding,Siding,Canada,Top 12 Best siding in Ca,+12269893744,,https://www.hotfrog.ar,,,,,https://www.hotfrog.ca/search/ca/siding,https://www.hotfrog.ca/search/ca/siding/3
Hotfrog - Siding,Siding,Canada,Top 12 Best siding in Ca,+19057369621,,https://www.hotfrog.ar,,,,,https://www.hotfrog.ca/search/ca/siding,https://www.hotfrog.ca/search/ca/siding/2
Hotfrog - Security Systems,Security Systems,Canada,Top 12 Best security systems in Ca,+16042322407,,https://www.hotfrog.ar,,,,,https://www.hotfrog.ca/search/ca/security-systems,https://www.hotfrog.ca/search/ca/security-systems/5
Hotfrog - Security Systems,Security Systems,Canada,Top 12 Best security systems in Ca,+15147355411,,https://www.hotfrog.ar,,,,,https://www.hotfrog.ca/search/ca/security-systems,https://www.hotfrog.ca/search/ca/security-systems/4
Hotfrog - Security Systems,Security Systems,Canada,Top 12 Best security systems in Ca,+14167922298,,https://www.hotfrog.ar,,,,,https://www.hotfrog.ca/search/ca/security-systems,https://www.hotfrog.ca/search/ca/security-systems/3
Hotfrog - Security Systems,Security Systems,Canada,Top 12 Best security systems in Ca,+12042551438,,https://www.hotfrog.ar,,,,,https://www.hotfrog.ca/search/ca/security-systems,https://www.hotfrog.ca/search/ca/security-systems/2
Hotfrog - Locksmith,Locksmith,Canada,Top 12 Best locksmith in Ca,+15877472656,,https://www.hotfrog.ar,,,,,https://www.hotfrog.ca/search/ca/locksmith,https://www.hotfrog.ca/search/ca/locksmith/5
Hotfrog - Locksmith,Locksmith,Canada,Top 12 Best locksmith in Ca,+16478125189,,https://www.hotfrog.ar,,,,,https://www.hotfrog.ca/search/ca/locksmith,https://www.hotfrog.ca/search/ca/locksmith/4
Hotfrog - Locksmith,Locksmith,Canada,Top 12 Best locksmith in Ca,+16473179210,,https://www.hotfrog.ar,,,,,https://www.hotfrog.ca/search/ca/locksmith,https://www.hotfrog.ca/search/ca/locksmith/3
Hotfrog - Locksmith,Locksmith,Canada,Top 12 Best locksmith in Ca,+16473709808,,https://www.hotfrog.ar,,,,,https://www.hotfrog.ca/search/ca/locksmith,https://www.hotfrog.ca/search/ca/locksmith/2
Hotfrog - Junk Removal,Junk Removal,Canada,Top 12 Best junk removal in Ca,+19029015865,,https://www.hotfrog.ar,,,,,https://www.hotfrog.ca/search/ca/junk-removal,https://www.hotfrog.ca/search/ca/junk-removal/5
Hotfrog - Junk Removal,Junk Removal,Canada,Top 12 Best junk removal in Ca,+16134079500,,https://www.hotfrog.ar,,,,,https://www.hotfrog.ca/search/ca/junk-removal,https://www.hotfrog.ca/search/ca/junk-removal/4
Hotfrog - Junk Removal,Junk Removal,Canada,Top 12 Best junk removal in Ca,+18772694445,,https://www.hotfrog.ar,,,,,https://www.hotfrog.ca/search/ca/junk-removal,https://www.hotfrog.ca/search/ca/junk-removal/3
Hotfrog - Junk Removal,Junk Removal,Canada,Top 12 Best junk removal in Ca,+14166185912,,https://www.hotfrog.ar,,,,,https://www.hotfrog.ca/search/ca/junk-removal,https://www.hotfrog.ca/search/ca/junk-removal/2
Hotfrog - Moving,Moving,Canada,Top 12 Best moving in Ca,+18259254983,,https://www.hotfrog.ar,,,,,https://www.hotfrog.ca/search/ca/moving,https://www.hotfrog.ca/search/ca/moving/5
Hotfrog - Moving,Moving,Canada,Top 12 Best moving in Ca,+17808074363,,https://www.hotfrog.ar,,,,,https://www.hotfrog.ca/search/ca/moving,https://www.hotfrog.ca/search/ca/moving/4
Hotfrog - Moving,Moving,Canada,Top 12 Best moving in Ca,+18778668464,,https://www.hotfrog.ar,,,,,https://www.hotfrog.ca/search/ca/moving,https://www.hotfrog.ca/search/ca/moving/3
Hotfrog - Moving,Moving,Canada,Top 12 Best moving in Ca,+12502280054,,https://www.hotfrog.ar,,,,,https://www.hotfrog.ca/search/ca/moving,https://www.hotfrog.ca/search/ca/moving/2
Hotfrog - Appliance Repair,Appliance Repair,Canada,Top 12 Best appliance repair in Ca,+15877150672,,https://www.hotfrog.ar,,,,,https://www.hotfrog.ca/search/ca/appliance-repair,https://www.hotfrog.ca/search/ca/appliance-repair/5
Hotfrog - Appliance Repair,Appliance Repair,Canada,Top 12 Best appliance repair in Ca,+19056728367,,https://www.hotfrog.ar,,,,,https://www.hotfrog.ca/search/ca/appliance-repair,https://www.hotfrog.ca/search/ca/appliance-repair/4
Hotfrog - Appliance Repair,Appliance Repair,Canada,Top 12 Best appliance repair in Ca,+12508373500,,https://www.hotfrog.ar,,,,,https://www.hotfrog.ca/search/ca/appliance-repair,https://www.hotfrog.ca/search/ca/appliance-repair/3
Hotfrog - Appliance Repair,Appliance Repair,Canada,Top 12 Best appliance repair in Ca,+19027491000,,https://www.hotfrog.ar,,,,,https://www.hotfrog.ca/search/ca/appliance-repair,https://www.hotfrog.ca/search/ca/appliance-repair/2
Hotfrog - Pest Control,Pest Control,Canada,Top 12 Best pest control in Ca,+17054453686,,https://www.hotfrog.ar,,,,,https://www.hotfrog.ca/search/ca/pest-control,https://www.hotfrog.ca/search/ca/pest-control/5
Hotfrog - Pest Control,Pest Control,Canada,Top 12 Best pest control in Ca,+18778387278,,https://www.hotfrog.ar,,,,,https://www.hotfrog.ca/search/ca/pest-control,https://www.hotfrog.ca/search/ca/pest-control/4
Hotfrog - Pest Control,Pest Control,Canada,Top 12 Best pest control in Ca,+16139664444,,https://www.hotfrog.ar,,,,,https://www.hotfrog.ca/search/ca/pest-control,https://www.hotfrog.ca/search/ca/pest-control/3
Hotfrog - Pest Control,Pest Control,Canada,Top 12 Best pest control in Ca,+19056707378,,https://www.hotfrog.ar,,,,,https://www.hotfrog.ca/search/ca/pest-control,https://www.hotfrog.ca/search/ca/pest-control/2
Hotfrog - Snow Removal,Snow Removal,Canada,,+16049927500,,https://www.hotfrog.ar,,,,,https://www.hotfrog.ca/search/ca/snow-removal,
Hotfrog - Snow Removal,Snow Removal,Canada,,+15878406200,,https://www.hotfrog.ar,,,,,https://www.hotfrog.ca/search/ca/snow-removal,
Hotfrog - Snow Removal,Snow Removal,Canada,,+16042291840,,https://www.hotfrog.ar,,,,,https://www.hotfrog.ca/search/ca/snow-removal,
Hotfrog - Snow Removal,Snow Removal,Canada,,+16478000014,,https://www.hotfrog.ar,,,,,https://www.hotfrog.ca/search/ca/snow-removal,
Hotfrog - Snow Removal,Snow Removal,Canada,,+16132294803,,https://www.hotfrog.ar,,,,,https://www.hotfrog.ca/search/ca/snow-removal,
Hotfrog - Snow Removal,Snow Removal,Canada,,+15195036039,,https://www.hotfrog.ar,,,,,https://www.hotfrog.ca/search/ca/snow-removal,
Hotfrog - Snow Removal,Snow Removal,Canada,,+14312778258,,https://www.hotfrog.ar,,,,,https://www.hotfrog.ca/search/ca/snow-removal,
Hotfrog - Snow Removal,Snow Removal,Canada,,+19024104915,,https://www.hotfrog.ar,,,,,https://www.hotfrog.ca/search/ca/snow-removal,
Hotfrog - Snow Removal,Snow Removal,Canada,,+16474590802,,https://www.hotfrog.ar,,,,,https://www.hotfrog.ca/search/ca/snow-removal,
Hotfrog - Duct Cleaning,Duct Cleaning,Canada,Hotfrog Argentina,+14163324795,,https://www.hotfrog.ar,,,,,https://www.hotfrog.ca/search/ca/duct-cleaning,
Hotfrog - Duct Cleaning,Duct Cleaning,Canada,Hotfrog Argentina,+13063803113,,https://www.hotfrog.ar,,,,,https://www.hotfrog.ca/search/ca/duct-cleaning,
Hotfrog - Duct Cleaning,Duct Cleaning,Canada,Hotfrog Argentina,+14162413700,,https://www.hotfrog.ar,,,,,https://www.hotfrog.ca/search/ca/duct-cleaning,
Hotfrog - Duct Cleaning,Duct Cleaning,Canada,Hotfrog Argentina,+14166511222,,https://www.hotfrog.ar,,,,,https://www.hotfrog.ca/search/ca/duct-cleaning,
Hotfrog - Duct Cleaning,Duct Cleaning,Canada,Hotfrog Argentina,+12893153928,,https://www.hotfrog.ar,,,,,https://www.hotfrog.ca/search/ca/duct-cleaning,
Hotfrog - Duct Cleaning,Duct Cleaning,Canada,Hotfrog Argentina,+16044609969,,https://www.hotfrog.ar,,,,,https://www.hotfrog.ca/search/ca/duct-cleaning,
Hotfrog - Duct Cleaning,Duct Cleaning,Canada,Hotfrog Argentina,+19054030545,,https://www.hotfrog.ar,,,,,https://www.hotfrog.ca/search/ca/duct-cleaning,
Hotfrog - Duct Cleaning,Duct Cleaning,Canada,Hotfrog Argentina,+16133929651,,https://www.hotfrog.ar,,,,,https://www.hotfrog.ca/search/ca/duct-cleaning,
Hotfrog - Duct Cleaning,Duct Cleaning,Canada,Hotfrog Argentina,+18778751612,,https://www.hotfrog.ar,,,,,https://www.hotfrog.ca/search/ca/duct-cleaning,
Hotfrog - Insulation,Insulation,Canada,,+14167981310,,https://www.hotfrog.ar,,,,,https://www.hotfrog.ca/search/ca/insulation,
Hotfrog - Insulation,Insulation,Canada,,+15197100544,,https://www.hotfrog.ar,,,,,https://www.hotfrog.ca/search/ca/insulation,
Hotfrog - Insulation,Insulation,Canada,,+14039756850,,https://www.hotfrog.ar,,,,,https://www.hotfrog.ca/search/ca/insulation,
Hotfrog - Insulation,Insulation,Canada,,+14169995700,,https://www.hotfrog.ar,,,,,https://www.hotfrog.ca/search/ca/insulation,
Hotfrog - Insulation,Insulation,Canada,,+12266688495,,https://www.hotfrog.ar,,,,,https://www.hotfrog.ca/search/ca/insulation,
Hotfrog - Insulation,Insulation,Canada,,+12267703939,,https://www.hotfrog.ar,,,,,https://www.hotfrog.ca/search/ca/insulation,
Hotfrog - Insulation,Insulation,Canada,,+12892606329,,https://www.hotfrog.ar,,,,,https://www.hotfrog.ca/search/ca/insulation,
Hotfrog - Insulation,Insulation,Canada,,+15197334844,,https://www.hotfrog.ar,,,,,https://www.hotfrog.ca/search/ca/insulation,
Hotfrog - Insulation,Insulation,Canada,,+14034722676,,https://www.hotfrog.ar,,,,,https://www.hotfrog.ca/search/ca/insulation,
Hotfrog - Insulation,Insulation,Canada,,+16134334688,,https://www.hotfrog.ar,,,,,https://www.hotfrog.ca/search/ca/insulation,
Hotfrog - Insulation,Insulation,Canada,,+16139895677,,https://www.hotfrog.ar,,,,,https://www.hotfrog.ca/search/ca/insulation,
Hotfrog - Insulation,Insulation,Canada,,+19057610844,,https://www.hotfrog.ar,,,,,https://www.hotfrog.ca/search/ca/insulation,
Hotfrog - Water Damage Restoration,Water Damage Restoration,Canada,,+19058585894,,https://www.hotfrog.ar,,,,,https://www.hotfrog.ca/search/ca/water-damage-restoration,
Hotfrog - Water Damage Restoration,Water Damage Restoration,Canada,,+18339337948,,https://www.hotfrog.ar,,,,,https://www.hotfrog.ca/search/ca/water-damage-restoration,
Hotfrog - Water Damage Restoration,Water Damage Restoration,Canada,,+16479314203,,https://www.hotfrog.ar,,,,,https://www.hotfrog.ca/search/ca/water-damage-restoration,
Hotfrog - Water Damage Restoration,Water Damage Restoration,Canada,,+16046390990,,https://www.hotfrog.ar,,,,,https://www.hotfrog.ca/search/ca/water-damage-restoration,
Hotfrog - Water Damage Restoration,Water Damage Restoration,Canada,,+16045327706,,https://www.hotfrog.ar,,,,,https://www.hotfrog.ca/search/ca/water-damage-restoration,
Hotfrog - Water Damage Restoration,Water Damage Restoration,Canada,,+14163586666,,https://www.hotfrog.ar,,,,,https://www.hotfrog.ca/search/ca/water-damage-restoration,
Hotfrog - Water Damage Restoration,Water Damage Restoration,Canada,,+16478857410,,https://www.hotfrog.ar,,,,,https://www.hotfrog.ca/search/ca/water-damage-restoration,
Hotfrog - Water Damage Restoration,Water Damage Restoration,Canada,,+12047748186,,https://www.hotfrog.ar,,,,,https://www.hotfrog.ca/search/ca/water-damage-restoration,
Hotfrog - Water Damage Restoration,Water Damage Restoration,Canada,,+15192711129,,https://www.hotfrog.ar,,,,,https://www.hotfrog.ca/search/ca/water-damage-restoration,
Hotfrog - Water Damage Restoration,Water Damage Restoration,Canada,,+17804555566,,https://www.hotfrog.ar,,,,,https://www.hotfrog.ca/search/ca/water-damage-restoration,
Hotfrog - Water Damage Restoration,Water Damage Restoration,Canada,,+12508609109,,https://www.hotfrog.ar,,,,,https://www.hotfrog.ca/search/ca/water-damage-restoration,
Hotfrog - Water Damage Restoration,Water Damage Restoration,Canada,,+17057283209,,https://www.hotfrog.ar,,,,,https://www.hotfrog.ca/search/ca/water-damage-restoration,
Hotfrog - Window Installation,Window Installation,Canada,,+18446808414,,https://www.hotfrog.ar,,,,,https://www.hotfrog.ca/search/ca/window-installation,
Hotfrog - Window Installation,Window Installation,Canada,,+14162209144,,https://www.hotfrog.ar,,,,,https://www.hotfrog.ca/search/ca/window-installation,
Hotfrog - Window Installation,Window Installation,Canada,,+16045366365,,https://www.hotfrog.ar,,,,,https://www.hotfrog.ca/search/ca/window-installation,
Hotfrog - Window Installation,Window Installation,Canada,,+14166790635,,https://www.hotfrog.ar,,,,,https://www.hotfrog.ca/search/ca/window-installation,
Hotfrog - Window Installation,Window Installation,Canada,,+16479618637,,https://www.hotfrog.ar,,,,,https://www.hotfrog.ca/search/ca/window-installation,
Hotfrog - Window Installation,Window Installation,Canada,,+12507271585,,https://www.hotfrog.ar,,,,,https://www.hotfrog.ca/search/ca/window-installation,
Hotfrog - Window Installation,Window Installation,Canada,,+17787252345,,https://www.hotfrog.ar,,,,,https://www.hotfrog.ca/search/ca/window-installation,
Hotfrog - Window Installation,Window Installation,Canada,,+14034751081,,https://www.hotfrog.ar,,,,,https://www.hotfrog.ca/search/ca/window-installation,
Hotfrog - Window Installation,Window Installation,Canada,,+14032441053,,https://www.hotfrog.ar,,,,,https://www.hotfrog.ca/search/ca/window-installation,
Hotfrog - Window Installation,Window Installation,Canada,,+18772816900,,https://www.hotfrog.ar,,,,,https://www.hotfrog.ca/search/ca/window-installation,
Hotfrog - Window Installation,Window Installation,Canada,,+12506524612,,https://www.hotfrog.ar,,,,,https://www.hotfrog.ca/search/ca/window-installation,
Hotfrog - Door Installation,Door Installation,Canada,Hotfrog Argentina,+18074747799,,https://www.hotfrog.ar,,,,,https://www.hotfrog.ca/search/ca/door-installation,
Hotfrog - Door Installation,Door Installation,Canada,Hotfrog Argentina,+12504867085,,https://www.hotfrog.ar,,,,,https://www.hotfrog.ca/search/ca/door-installation,
Hotfrog - Door Installation,Door Installation,Canada,Hotfrog Argentina,+17809743396,,https://www.hotfrog.ar,,,,,https://www.hotfrog.ca/search/ca/door-installation,
Hotfrog - Door Installation,Door Installation,Canada,Hotfrog Argentina,+12042536157,,https://www.hotfrog.ar,,,,,https://www.hotfrog.ca/search/ca/door-installation,
Hotfrog - Door Installation,Door Installation,Canada,Hotfrog Argentina,+15878852346,,https://www.hotfrog.ar,,,,,https://www.hotfrog.ca/search/ca/door-installation,
Hotfrog - Door Installation,Door Installation,Canada,Hotfrog Argentina,+12049556813,,https://www.hotfrog.ar,,,,,https://www.hotfrog.ca/search/ca/door-installation,
Hotfrog - Door Installation,Door Installation,Canada,Hotfrog Argentina,+16044790060,,https://www.hotfrog.ar,,,,,https://www.hotfrog.ca/search/ca/door-installation,
Hotfrog - Door Installation,Door Installation,Canada,Hotfrog Argentina,+12897073132,,https://www.hotfrog.ar,,,,,https://www.hotfrog.ca/search/ca/door-installation,
Hotfrog - Door Installation,Door Installation,Canada,Hotfrog Argentina,+19054541234,,https://www.hotfrog.ar,,,,,https://www.hotfrog.ca/search/ca/door-installation,
Hotfrog - Door Installation,Door Installation,Canada,Hotfrog Argentina,+14033181760,,https://www.hotfrog.ar,,,,,https://www.hotfrog.ca/search/ca/door-installation,
Hotfrog - Drywall,Drywall,Canada,,+16473269185,,https://www.hotfrog.ar,,,,,https://www.hotfrog.ca/search/ca/drywall,
Hotfrog - Drywall,Drywall,Canada,,+15874072882,,https://www.hotfrog.ar,,,,,https://www.hotfrog.ca/search/ca/drywall,
Hotfrog - Drywall,Drywall,Canada,,+14033991848,,https://www.hotfrog.ar,,,,,https://www.hotfrog.ca/search/ca/drywall,
Hotfrog - Drywall,Drywall,Canada,,+19054659255,,https://www.hotfrog.ar,,,,,https://www.hotfrog.ca/search/ca/drywall,
Hotfrog - Drywall,Drywall,Canada,,+12505160547,,https://www.hotfrog.ar,,,,,https://www.hotfrog.ca/search/ca/drywall,
Hotfrog - Drywall,Drywall,Canada,,+16043021121,,https://www.hotfrog.ar,,,,,https://www.hotfrog.ca/search/ca/drywall,
Hotfrog - Drywall,Drywall,Canada,,+12044003601,,https://www.hotfrog.ar,,,,,https://www.hotfrog.ca/search/ca/drywall,
Hotfrog - Drywall,Drywall,Canada,,+16047253561,,https://www.hotfrog.ar,,,,,https://www.hotfrog.ca/search/ca/drywall,
Hotfrog - Drywall,Drywall,Canada,,+16047259118,,https://www.hotfrog.ar,,,,,https://www.hotfrog.ca/search/ca/drywall,
Hotfrog - Drywall,Drywall,Canada,,+12508862985,,https://www.hotfrog.ar,,,,,https://www.hotfrog.ca/search/ca/drywall,
Hotfrog - Drywall,Drywall,Canada,,+17786883417,,https://www.hotfrog.ar,,,,,https://www.hotfrog.ca/search/ca/drywall,
Hotfrog - Drywall,Drywall,Canada,,+13067648116,,https://www.hotfrog.ar,,,,,https://www.hotfrog.ca/search/ca/drywall,
Hotfrog - Drywall,Drywall,Canada,,+16043061134,,https://www.hotfrog.ar,,,,,https://www.hotfrog.ca/search/ca/drywall,
Hotfrog - Demolition,Demolition,Canada,,+14166633366,,https://www.hotfrog.ar,,,,,https://www.hotfrog.ca/search/ca/demolition,
Hotfrog - Demolition,Demolition,Canada,,+16043296812,,https://www.hotfrog.ar,,,,,https://www.hotfrog.ca/search/ca/demolition,
Hotfrog - Demolition,Demolition,Canada,,+14036159486,,https://www.hotfrog.ar,,,,,https://www.hotfrog.ca/search/ca/demolition,
Hotfrog - Demolition,Demolition,Canada,,+16473000774,,https://www.hotfrog.ar,,,,,https://www.hotfrog.ca/search/ca/demolition,
Hotfrog - Demolition,Demolition,Canada,,+15193193327,,https://www.hotfrog.ar,,,,,https://www.hotfrog.ca/search/ca/demolition,
Hotfrog - Demolition,Demolition,Canada,,+15144443018,,https://www.hotfrog.ar,,,,,https://www.hotfrog.ca/search/ca/demolition,
Hotfrog - Demolition,Demolition,Canada,,+16478087271,,https://www.hotfrog.ar,,,,,https://www.hotfrog.ca/search/ca/demolition,
Hotfrog - Demolition,Demolition,Canada,,+16138908852,,https://www.hotfrog.ar,,,,,https://www.hotfrog.ca/search/ca/demolition,
Hotfrog - Demolition,Demolition,Canada,,+16134108080,,https://www.hotfrog.ar,,,,,https://www.hotfrog.ca/search/ca/demolition,
Hotfrog - Fence Repair,Fence Repair,Canada,,+15199141909,,https://www.hotfrog.ar,,,,,https://www.hotfrog.ca/search/ca/fence-repair,
Hotfrog - Fence Repair,Fence Repair,Canada,,+19054531373,,https://www.hotfrog.ar,,,,,https://www.hotfrog.ca/search/ca/fence-repair,
Hotfrog - Fence Repair,Fence Repair,Canada,,+12893423333,,https://www.hotfrog.ar,,,,,https://www.hotfrog.ca/search/ca/fence-repair,
Hotfrog - Fence Repair,Fence Repair,Canada,,+14038880946,,https://www.hotfrog.ar,,,,,https://www.hotfrog.ca/search/ca/fence-repair,
Hotfrog - Fence Repair,Fence Repair,Canada,,+17538815498,,https://www.hotfrog.ar,,,,,https://www.hotfrog.ca/search/ca/fence-repair,
Hotfrog - Fence Repair,Fence Repair,Canada,,+14165060135,,https://www.hotfrog.ar,,,,,https://www.hotfrog.ca/search/ca/fence-repair,
Hotfrog - Fence Repair,Fence Repair,Canada,,+17054285158,,https://www.hotfrog.ar,,,,,https://www.hotfrog.ca/search/ca/fence-repair,
Hotfrog - Fence Repair,Fence Repair,Canada,,+13065018508,,https://www.hotfrog.ar,,,,,https://www.hotfrog.ca/search/ca/fence-repair,
Hotfrog - Fence Repair,Fence Repair,Canada,,+17055912007,,https://www.hotfrog.ar,,,,,https://www.hotfrog.ca/search/ca/fence-repair,
Hotfrog - Fence Repair,Fence Repair,Canada,,+15195375137,,https://www.hotfrog.ar,,,,,https://www.hotfrog.ca/search/ca/fence-repair,
,Top 12 Best fence repair in Ca,Fence Repair,,https://wwwhotfrogca/search/ca/fencerepair/5,,https://www.hotfrog.ca/search/ca/fence-repair,tel:+1506-857-8141,,,Canada,Hotfrog - Fence Repair,https://www.hotfrog.ar
,Top 12 Best fence repair in Ca,Fence Repair,,https://wwwhotfrogca/search/ca/fencerepair/4,,https://www.hotfrog.ca/search/ca/fence-repair,tel:+1613-736-1122,,,Canada,Hotfrog - Fence Repair,https://www.hotfrog.ar
,Top 12 Best fence repair in Ca,Fence Repair,,https://wwwhotfrogca/search/ca/fencerepair/3,,https://www.hotfrog.ca/search/ca/fence-repair,tel:+1647-945-5632,,,Canada,Hotfrog - Fence Repair,https://www.hotfrog.ar
,Top 12 Best fence repair in Ca,Fence Repair,,https://wwwhotfrogca/search/ca/fencerepair/2,,https://www.hotfrog.ca/search/ca/fence-repair,tel:+1613-863-9597,,,Canada,Hotfrog - Fence Repair,https://www.hotfrog.ar
,Top 12 Best demolition in Ca,Demolition,,https://wwwhotfrogca/search/ca/demolition/5,,https://www.hotfrog.ca/search/ca/demolition,tel:+1403-993-6283,,,Canada,Hotfrog - Demolition,https://www.hotfrog.ar
,Top 12 Best demolition in Ca,Demolition,,https://wwwhotfrogca/search/ca/demolition/4,,https://www.hotfrog.ca/search/ca/demolition,tel:+1514-898-8073,,,Canada,Hotfrog - Demolition,https://www.hotfrog.ar
,Top 12 Best demolition in Ca,Demolition,,https://wwwhotfrogca/search/ca/demolition/3,,https://www.hotfrog.ca/search/ca/demolition,tel:+1416-558-9141,,,Canada,Hotfrog - Demolition,https://www.hotfrog.ar
,Top 12 Best demolition in Ca,Demolition,,https://wwwhotfrogca/search/ca/demolition/2,,https://www.hotfrog.ca/search/ca/demolition,tel:+1819-643-5400,,,Canada,Hotfrog - Demolition,https://www.hotfrog.ar
